{"type":"FeatureCollection","features":[{"type":"Feature","geometry":{"type":"Polygon","coordinates":[[[39.24962,-6.81338],[39.26262,-6.81586],[39.2596,-6.81792],[39.25661,-6.81799],[39.2545,-6.81914],[39.25209,-6.82178],[39.24615,-6.82132],[39.24494,-6.8216],[39.24362,-6.82364],[39.24116,-6.82417],[39.23893,-6.8229],[39.23763,-6.82342],[39.23656,-6.82095],[39.22836,-6.82119],[39.22701,-6.81982],[39.23211,-6.81759],[39.23372,-6.81866],[39.23899,-6.81815],[39.2409,-6.81699],[39.24464,-6.81665],[39.24962,-6.81338]]]},"properties":{"region":"Dar es Salaam","district":"Kinondoni","ward":"Kigogo","ward_code":"012"}},{"type":"Feature","geometry":{"type":"Polygon","coordinates":[[[39.25113,-6.80496],[39.26524,-6.81019],[39.26262,-6.81586],[39.2541,-6.81444],[39.24984,-6.81074],[39.25153,-6.8088],[39.24997,-6.80738],[39.25113,-6.80496]]]},"properties":{"region":"Dar es Salaam","district":"Kinondoni","ward":"Mzimuni","ward_code":"022"}},{"type":"Feature","geometry":{"type":"Polygon","coordinates":[[[39.25823,-6.79667],[39.26573,-6.80477],[39.27009,-6.80223],[39.26828,-6.80689],[39.26524,-6.81019],[39.25782,-6.8073],[39.25879,-6.8052],[39.25617,-6.80323],[39.25637,-6.80154],[39.25493,-6.8011],[39.2545,-6.79983],[39.25823,-6.79667]]]},"properties":{"region":"Dar es Salaam","district":"Kinondoni","ward":"Magomeni","ward_code":"032"}},{"type":"Feature","geometry":{"type":"Polygon","coordinates":[[[39.23648,-6.79713],[39.23989,-6.79822],[39.24561,-6.79846],[39.24884,-6.79732],[39.25061,-6.79855],[39.25412,-6.79853],[39.25493,-6.8011],[39.25637,-6.80154],[39.25617,-6.80323],[39.25879,-6.8052],[39.25782,-6.8073],[39.23493,-6.79927],[39.23648,-6.79713]]]},"properties":{"region":"Dar es Salaam","district":"Kinondoni","ward":"Ndugumbi","ward_code":"042"}},{"type":"Feature","geometry":{"type":"Polygon","coordinates":[[[39.24118,-6.78901],[39.24742,-6.79151],[39.25021,-6.79816],[39.24884,-6.79732],[39.24501,-6.79851],[39.23565,-6.79746],[39.23556,-6.79524],[39.23638,-6.79499],[39.23735,-6.79195],[39.23711,-6.78948],[39.23918,-6.78996],[39.24118,-6.78901]]]},"properties":{"region":"Dar es Salaam","district":"Kinondoni","ward":"Tandale","ward_code":"052"}},{"type":"Feature","geometry":{"type":"Polygon","coordinates":[[[39.24817,-6.77744],[39.24691,-6.77964],[39.24781,-6.78273],[39.24402,-6.78389],[39.24569,-6.78865],[39.24532,-6.7905],[39.24075,-6.78875],[39.23931,-6.78995],[39.23632,-6.78949],[39.23624,-6.78825],[39.23447,-6.78754],[39.23479,-6.78547],[39.23319,-6.78458],[39.2336,-6.78275],[39.23197,-6.78259],[39.23011,-6.78079],[39.22843,-6.77706],[39.22424,-6.77253],[39.22362,-6.7707],[39.22931,-6.76432],[39.24329,-6.7754],[39.24817,-6.77744]]]},"properties":{"region":"Dar es Salaam","district":"Kinondoni","ward":"Kijitonyama","ward_code":"062"}},{"type":"Feature","geometry":{"type":"Polygon","coordinates":[[[39.26379,-6.77721],[39.26891,-6.77791],[39.27379,-6.78078],[39.27571,-6.78245],[39.27965,-6.79086],[39.26362,-6.79019],[39.26379,-6.77721]]]},"properties":{"region":"Dar es Salaam","district":"Kinondoni","ward":"Kinondoni","ward_code":"172"}},{"type":"Feature","geometry":{"type":"Polygon","coordinates":[[[39.2798,-6.79123],[39.28145,-6.79645],[39.2794,-6.79404],[39.27505,-6.79309],[39.27385,-6.79922],[39.27267,-6.7991],[39.26914,-6.80309],[39.26573,-6.80477],[39.26323,-6.8026],[39.2623,-6.80098],[39.26445,-6.79481],[39.26362,-6.79019],[39.2798,-6.79123]]]},"properties":{"region":"Dar es Salaam","district":"Kinondoni","ward":"Hananasif","ward_code":"182"}},{"type":"Feature","geometry":{"type":"Polygon","coordinates":[[[39.26379,-6.77721],[39.26343,-6.78802],[39.26445,-6.79481],[39.26241,-6.80059],[39.25823,-6.79667],[39.25694,-6.79217],[39.25344,-6.79028],[39.25315,-6.78776],[39.25027,-6.78198],[39.25123,-6.7806],[39.25115,-6.77817],[39.25484,-6.77851],[39.26379,-6.77721]]]},"properties":{"region":"Dar es Salaam","district":"Kinondoni","ward":"Mwananyamala","ward_code":"192"}},{"type":"Feature","geometry":{"type":"Polygon","coordinates":[[[39.25115,-6.77817],[39.25123,-6.7806],[39.25027,-6.78198],[39.25315,-6.78776],[39.25344,-6.79028],[39.25501,-6.79049],[39.25775,-6.79339],[39.25823,-6.79667],[39.25658,-6.7973],[39.25542,-6.79966],[39.2529,-6.79815],[39.2505,-6.79852],[39.24742,-6.79151],[39.24525,-6.79021],[39.24569,-6.78865],[39.24402,-6.78389],[39.24781,-6.78273],[39.24691,-6.77964],[39.24817,-6.77744],[39.25115,-6.77817]]]},"properties":{"region":"Dar es Salaam","district":"Kinondoni","ward":"Makumbusho","ward_code":"202"}},{"type":"Feature","geometry":{"type":"Polygon","coordinates":[[[39.21692,-6.73782],[39.22098,-6.75106],[39.22931,-6.76432],[39.22224,-6.77239],[39.21672,-6.76806],[39.20987,-6.76718],[39.20215,-6.77185],[39.20034,-6.77206],[39.19907,-6.77327],[39.20041,-6.77494],[39.19979,-6.7773],[39.19586,-6.78024],[39.1939,-6.77713],[39.19421,-6.77612],[39.19249,-6.77455],[39.19031,-6.77388],[39.19253,-6.77537],[39.18614,-6.78163],[39.17805,-6.77996],[39.17411,-6.77819],[39.17406,-6.7763],[39.17118,-6.77673],[39.17069,-6.7759],[39.16801,-6.77713],[39.16475,-6.77725],[39.16236,-6.77299],[39.16329,-6.76615],[39.16176,-6.76313],[39.16141,-6.75762],[39.1598,-6.75648],[39.16054,-6.75495],[39.16149,-6.75696],[39.16356,-6.75768],[39.16893,-6.75569],[39.17056,-6.75711],[39.16988,-6.7589],[39.1723,-6.75957],[39.17385,-6.75891],[39.17584,-6.76189],[39.1777,-6.75849],[39.17957,-6.75766],[39.17977,-6.75559],[39.18129,-6.75473],[39.18072,-6.75359],[39.18277,-6.75042],[39.18417,-6.75003],[39.18407,-6.74771],[39.18612,-6.74954],[39.18905,-6.74679],[39.18813,-6.74627],[39.18964,-6.74486],[39.1907,-6.74639],[39.19186,-6.74568],[39.1942,-6.7474],[39.19469,-6.74472],[39.19747,-6.74166],[39.20081,-6.74325],[39.20264,-6.74206],[39.20477,-6.74302],[39.20689,-6.74094],[39.20928,-6.74233],[39.20954,-6.74354],[39.21284,-6.73933],[39.21692,-6.73782]]]},"properties":{"region":"Dar es Salaam","district":"Kinondoni","ward":"Makongo","ward_code":"072"}},{"type":"Feature","geometry":{"type":"Polygon","coordinates":[[[39.21692,-6.73782],[39.21196,-6.74004],[39.20954,-6.74354],[39.20928,-6.74233],[39.20689,-6.74094],[39.20477,-6.74302],[39.20264,-6.74206],[39.20081,-6.74325],[39.19747,-6.74166],[39.19469,-6.74472],[39.19458,-6.7469],[39.19347,-6.74734],[39.1939,-6.72771],[39.19305,-6.71077],[39.19482,-6.70858],[39.20715,-6.70079],[39.21692,-6.73782]]]},"properties":{"region":"Dar es Salaam","district":"Kinondoni","ward":"Mbezi Juu","ward_code":"082"}},{"type":"Feature","geometry":{"type":"Polygon","coordinates":[[[39.16189,-6.65096],[39.16543,-6.65441],[39.17098,-6.65088],[39.16731,-6.64714],[39.16932,-6.64592],[39.178,-6.65543],[39.18949,-6.66822],[39.20394,-6.68861],[39.20715,-6.70079],[39.19428,-6.70899],[39.1928,-6.71225],[39.19116,-6.7123],[39.18686,-6.71],[39.18437,-6.71178],[39.1822,-6.71164],[39.17892,-6.70836],[39.1729,-6.70828],[39.17213,-6.70384],[39.16969,-6.70262],[39.16623,-6.69782],[39.16516,-6.69765],[39.16359,-6.69502],[39.16442,-6.69311],[39.16266,-6.69252],[39.16213,-6.69026],[39.1609,-6.69397],[39.15707,-6.69744],[39.15444,-6.6984],[39.15427,-6.70342],[39.15306,-6.70551],[39.15258,-6.71001],[39.14827,-6.71109],[39.14296,-6.70897],[39.13962,-6.70545],[39.13857,-6.70623],[39.13706,-6.7053],[39.13712,-6.70738],[39.13536,-6.70951],[39.13562,-6.71049],[39.13162,-6.71425],[39.12693,-6.7131],[39.12489,-6.70897],[39.12014,-6.70603],[39.12133,-6.70397],[39.11933,-6.70062],[39.12028,-6.69787],[39.11846,-6.69346],[39.12026,-6.69129],[39.1201,-6.68819],[39.12145,-6.68327],[39.12104,-6.67991],[39.12183,-6.67886],[39.11978,-6.67745],[39.11785,-6.67164],[39.11816,-6.67014],[39.11584,-6.66863],[39.11581,-6.66648],[39.11703,-6.66579],[39.11709,-6.6645],[39.12053,-6.66381],[39.1222,-6.65749],[39.12656,-6.65323],[39.12627,-6.6517],[39.12893,-6.64968],[39.13677,-6.64968],[39.13572,-6.6484],[39.13624,-6.64499],[39.13798,-6.64484],[39.13813,-6.64398],[39.13914,-6.64404],[39.13902,-6.64973],[39.14175,-6.65098],[39.1418,-6.65293],[39.14327,-6.65268],[39.14288,-6.63549],[39.14432,-6.63423],[39.14404,-6.63306],[39.1504,-6.63559],[39.15272,-6.63914],[39.15635,-6.64199],[39.15953,-6.64744],[39.16174,-6.64924],[39.16189,-6.65096]]]},"properties":{"region":"Dar es Salaam","district":"Kinondoni","ward":"Wazo","ward_code":"092"}},{"type":"Feature","geometry":{"type":"Polygon","coordinates":[[[39.09813,-6.59297],[39.10064,-6.59324],[39.10182,-6.5963],[39.10043,-6.5985],[39.09836,-6.59879],[39.09733,-6.60007],[39.09723,-6.60261],[39.101,-6.60756],[39.10444,-6.60864],[39.10286,-6.6117],[39.10241,-6.61622],[39.10069,-6.619],[39.10222,-6.62497],[39.1014,-6.62724],[39.09994,-6.62767],[39.10062,-6.63447],[39.09942,-6.63493],[39.09807,-6.63882],[39.09959,-6.64092],[39.10097,-6.64641],[39.10225,-6.64709],[39.10563,-6.64679],[39.10857,-6.64481],[39.11577,-6.64755],[39.11883,-6.64602],[39.11751,-6.65037],[39.11951,-6.65553],[39.1222,-6.65749],[39.12191,-6.6607],[39.12053,-6.66381],[39.11709,-6.6645],[39.11581,-6.66836],[39.11816,-6.67014],[39.11868,-6.67503],[39.12184,-6.67917],[39.12104,-6.67991],[39.12145,-6.68327],[39.1201,-6.68819],[39.12026,-6.69129],[39.11873,-6.69308],[39.11541,-6.69162],[39.10826,-6.69457],[39.10832,-6.69525],[39.10379,-6.69421],[39.09852,-6.69728],[39.09456,-6.69628],[39.09331,-6.69787],[39.08485,-6.68538],[39.08154,-6.68382],[39.0829,-6.6825],[39.08134,-6.68007],[39.07348,-6.67874],[39.06906,-6.68245],[39.06871,-6.67955],[39.06648,-6.67634],[39.06106,-6.67346],[39.06249,-6.67163],[39.06178,-6.66709],[39.06545,-6.66034],[39.06783,-6.65836],[39.06882,-6.65149],[39.07228,-6.64732],[39.0727,-6.64576],[39.07171,-6.64312],[39.07294,-6.64059],[39.07286,-6.63773],[39.06914,-6.63534],[39.07309,-6.63358],[39.07391,-6.62843],[39.07853,-6.62248],[39.07884,-6.61925],[39.07539,-6.61819],[39.07687,-6.61563],[39.07891,-6.61544],[39.0793,-6.61377],[39.07817,-6.61111],[39.08239,-6.60178],[39.08445,-6.60111],[39.08691,-6.60298],[39.08847,-6.60237],[39.08876,-6.6003],[39.08631,-6.59828],[39.08804,-6.59631],[39.09226,-6.59512],[39.09468,-6.59628],[39.09813,-6.59297]]]},"properties":{"region":"Dar es Salaam","district":"Kinondoni","ward":"Mabwepande","ward_code":"102"}},{"type":"Feature","geometry":{"type":"Polygon","coordinates":[[[39.10473,-6.59352],[39.10827,-6.59367],[39.11482,-6.60054],[39.11577,-6.59963],[39.12193,-6.60491],[39.12329,-6.60454],[39.12341,-6.60674],[39.12479,-6.60853],[39.13189,-6.61316],[39.1367,-6.6127],[39.13548,-6.60982],[39.13619,-6.60783],[39.1385,-6.60597],[39.16359,-6.62127],[39.16482,-6.62111],[39.16488,-6.62241],[39.16391,-6.62172],[39.16313,-6.62322],[39.16336,-6.62687],[39.17116,-6.62726],[39.16854,-6.63175],[39.17466,-6.63959],[39.16867,-6.6452],[39.16932,-6.64592],[39.16849,-6.6469],[39.16731,-6.64714],[39.17098,-6.65088],[39.16543,-6.65441],[39.164,-6.65362],[39.15635,-6.64199],[39.15272,-6.63914],[39.1504,-6.63559],[39.14526,-6.63301],[39.14404,-6.63306],[39.14432,-6.63423],[39.14288,-6.63549],[39.14327,-6.65268],[39.1418,-6.65293],[39.14175,-6.65098],[39.13902,-6.64973],[39.13914,-6.64404],[39.13813,-6.64398],[39.13798,-6.64484],[39.13624,-6.64499],[39.13572,-6.6484],[39.13677,-6.64968],[39.12893,-6.64968],[39.12627,-6.6517],[39.12656,-6.65323],[39.1252,-6.65381],[39.12468,-6.65527],[39.12161,-6.65759],[39.11951,-6.65553],[39.11751,-6.65037],[39.11883,-6.64602],[39.11577,-6.64755],[39.10857,-6.64481],[39.10563,-6.64679],[39.10097,-6.64641],[39.09959,-6.64092],[39.09807,-6.63882],[39.09942,-6.63493],[39.10062,-6.63447],[39.09994,-6.62767],[39.1014,-6.62724],[39.10222,-6.62497],[39.10069,-6.619],[39.10241,-6.61622],[39.10286,-6.6117],[39.10444,-6.60864],[39.101,-6.60756],[39.09713,-6.60169],[39.09836,-6.59879],[39.10043,-6.5985],[39.10149,-6.5972],[39.10064,-6.59324],[39.10325,-6.59112],[39.10473,-6.59352]]]},"properties":{"region":"Dar es Salaam","district":"Kinondoni","ward":"Bunju","ward_code":"112"}},{"type":"Feature","geometry":{"type":"Polygon","coordinates":[[[39.13738,-6.57558],[39.13906,-6.57572],[39.13997,-6.57418],[39.15012,-6.57489],[39.1635,-6.59164],[39.16768,-6.60452],[39.17503,-6.62139],[39.17085,-6.62052],[39.16488,-6.62241],[39.16482,-6.62111],[39.16359,-6.62127],[39.1385,-6.60597],[39.13619,-6.60783],[39.13548,-6.60982],[39.1367,-6.6127],[39.13189,-6.61316],[39.12479,-6.60853],[39.12341,-6.60674],[39.12329,-6.60454],[39.12193,-6.60491],[39.11577,-6.59963],[39.11482,-6.60054],[39.10827,-6.59367],[39.10499,-6.59413],[39.1042,-6.59307],[39.10325,-6.59112],[39.10776,-6.58523],[39.10953,-6.57878],[39.11424,-6.58092],[39.11771,-6.57873],[39.11884,-6.57541],[39.11752,-6.57215],[39.12264,-6.5695],[39.12387,-6.56771],[39.12812,-6.56781],[39.13738,-6.57558]]]},"properties":{"region":"Dar es Salaam","district":"Kinondoni","ward":"Mbweni","ward_code":"122"}},{"type":"Feature","geometry":{"type":"MultiPolygon","coordinates":[[[[39.25017,-6.65114],[39.25436,-6.66246],[39.25007,-6.65935],[39.24392,-6.65703],[39.24567,-6.65353],[39.24782,-6.65329],[39.25017,-6.65114]]],[[[39.17085,-6.62052],[39.17503,-6.62139],[39.17847,-6.6263],[39.18711,-6.63082],[39.1918,-6.6306],[39.19274,-6.62719],[39.19369,-6.62769],[39.20155,-6.63822],[39.22082,-6.65924],[39.22853,-6.66387],[39.23011,-6.67396],[39.22695,-6.68545],[39.22843,-6.69407],[39.23065,-6.69821],[39.22514,-6.69964],[39.22126,-6.70186],[39.21118,-6.70021],[39.20715,-6.70079],[39.20394,-6.68861],[39.19699,-6.67855],[39.18949,-6.66822],[39.16867,-6.6452],[39.17466,-6.63959],[39.16854,-6.63175],[39.17116,-6.62726],[39.16336,-6.62687],[39.16313,-6.62322],[39.16391,-6.62172],[39.16565,-6.62251],[39.17085,-6.62052]]]]},"properties":{"region":"Dar es Salaam","district":"Kinondoni","ward":"Kunduchi","ward_code":"132"}},{"type":"Feature","geometry":{"type":"MultiPolygon","coordinates":[[[[39.23065,-6.69821],[39.23343,-6.70339],[39.23676,-6.71944],[39.23908,-6.72206],[39.239,-6.72656],[39.24305,-6.74244],[39.24573,-6.74744],[39.24154,-6.7469],[39.23853,-6.74888],[39.23654,-6.74871],[39.23475,-6.75115],[39.23345,-6.75083],[39.23192,-6.75185],[39.23106,-6.75433],[39.2263,-6.76014],[39.22098,-6.75106],[39.20715,-6.70079],[39.21118,-6.70021],[39.22126,-6.70186],[39.22514,-6.69964],[39.23065,-6.69821]]],[[[39.27656,-6.70857],[39.2766,-6.71084],[39.27174,-6.70573],[39.27025,-6.70554],[39.26688,-6.70115],[39.25955,-6.69676],[39.25803,-6.69407],[39.25904,-6.69178],[39.2613,-6.69128],[39.26511,-6.69353],[39.26805,-6.69876],[39.27065,-6.70064],[39.27656,-6.70857]]]]},"properties":{"region":"Dar es Salaam","district":"Kinondoni","ward":"Kawe","ward_code":"142"}},{"type":"Feature","geometry":{"type":"Polygon","coordinates":[[[39.24063,-6.74745],[39.2449,-6.75413],[39.25524,-6.76294],[39.25829,-6.76407],[39.26381,-6.76981],[39.26379,-6.77721],[39.25336,-6.77851],[39.24573,-6.77652],[39.24192,-6.77443],[39.22794,-6.76285],[39.2263,-6.76014],[39.23106,-6.75433],[39.23192,-6.75185],[39.23345,-6.75083],[39.23475,-6.75115],[39.23654,-6.74871],[39.23853,-6.74888],[39.24063,-6.74745]]]},"properties":{"region":"Dar es Salaam","district":"Kinondoni","ward":"Mikocheni","ward_code":"152"}},{"type":"Feature","geometry":{"type":"Polygon","coordinates":[[[39.28861,-6.75306],[39.28241,-6.76149],[39.28434,-6.76257],[39.28314,-6.76233],[39.28228,-6.76475],[39.28215,-6.77061],[39.28289,-6.77373],[39.28711,-6.78123],[39.28706,-6.78335],[39.28657,-6.78582],[39.28435,-6.78608],[39.28434,-6.7883],[39.28165,-6.78885],[39.2798,-6.79123],[39.27571,-6.78245],[39.27011,-6.7784],[39.26379,-6.77721],[39.26381,-6.76981],[39.25829,-6.76407],[39.25524,-6.76294],[39.2449,-6.75413],[39.24063,-6.74745],[39.24573,-6.74744],[39.24712,-6.75004],[39.25351,-6.75518],[39.26254,-6.75863],[39.26715,-6.75926],[39.27201,-6.7564],[39.27126,-6.74723],[39.27605,-6.74015],[39.27578,-6.73134],[39.27921,-6.73137],[39.28365,-6.73344],[39.28762,-6.73809],[39.2906,-6.75086],[39.2887,-6.75155],[39.28861,-6.75306]]]},"properties":{"region":"Dar es Salaam","district":"Kinondoni","ward":"Msasani","ward_code":"162"}},{"type":"Feature","geometry":{"type":"Polygon","coordinates":[[[39.27841,-6.81711],[39.27992,-6.8213],[39.2738,-6.82368],[39.27288,-6.82087],[39.27154,-6.82128],[39.2702,-6.82024],[39.27841,-6.81711]]]},"properties":{"region":"Dar es Salaam","district":"Ilala","ward":"Kariakoo","ward_code":"112"}},{"type":"Feature","geometry":{"type":"Polygon","coordinates":[[[39.27045,-6.81204],[39.28034,-6.81607],[39.27988,-6.81708],[39.27019,-6.82012],[39.26843,-6.81682],[39.27045,-6.81204]]]},"properties":{"region":"Dar es Salaam","district":"Ilala","ward":"Jangwani","ward_code":"122"}},{"type":"Feature","geometry":{"type":"Polygon","coordinates":[[[39.27992,-6.8213],[39.28109,-6.82468],[39.27724,-6.82689],[39.27793,-6.8277],[39.28048,-6.82761],[39.27991,-6.83022],[39.27278,-6.82981],[39.26745,-6.82539],[39.27992,-6.8213]]]},"properties":{"region":"Dar es Salaam","district":"Ilala","ward":"Gerezani","ward_code":"132"}},{"type":"Feature","geometry":{"type":"Polygon","coordinates":[[[39.28729,-6.81412],[39.28955,-6.81659],[39.28599,-6.81968],[39.28034,-6.81607],[39.28676,-6.8102],[39.28729,-6.81412]]]},"properties":{"region":"Dar es Salaam","district":"Ilala","ward":"Kisutu","ward_code":"142"}},{"type":"Feature","geometry":{"type":"Polygon","coordinates":[[[39.28034,-6.81607],[39.28779,-6.821],[39.28687,-6.82255],[39.2873,-6.82631],[39.27994,-6.8302],[39.28048,-6.82761],[39.27793,-6.8277],[39.27724,-6.82689],[39.28126,-6.82442],[39.27855,-6.8175],[39.28034,-6.81607]]]},"properties":{"region":"Dar es Salaam","district":"Ilala","ward":"Mchafukoge","ward_code":"152"}},{"type":"Feature","geometry":{"type":"Polygon","coordinates":[[[39.286,-6.80325],[39.28676,-6.8102],[39.28034,-6.81607],[39.27579,-6.81374],[39.28043,-6.80691],[39.27739,-6.80514],[39.27748,-6.8021],[39.27919,-6.79901],[39.28182,-6.79741],[39.286,-6.80325]]]},"properties":{"region":"Dar es Salaam","district":"Ilala","ward":"Upanga Mashariki","ward_code":"162"}},{"type":"Feature","geometry":{"type":"Polygon","coordinates":[[[39.27505,-6.79309],[39.2794,-6.79404],[39.28182,-6.79741],[39.27919,-6.79901],[39.27774,-6.80128],[39.27739,-6.80514],[39.28043,-6.80691],[39.27578,-6.81374],[39.26524,-6.81019],[39.26828,-6.80689],[39.27035,-6.80177],[39.27267,-6.7991],[39.27385,-6.79922],[39.27468,-6.79659],[39.27421,-6.79426],[39.27505,-6.79309]]]},"properties":{"region":"Dar es Salaam","district":"Ilala","ward":"Upanga Magharibi","ward_code":"172"}},{"type":"Feature","geometry":{"type":"Polygon","coordinates":[[[39.28145,-6.79645],[39.28691,-6.79703],[39.28843,-6.80202],[39.29719,-6.8092],[39.30089,-6.8161],[39.30036,-6.81944],[39.29786,-6.82023],[39.29394,-6.81797],[39.2898,-6.81902],[39.28779,-6.821],[39.28599,-6.81968],[39.28955,-6.81659],[39.28682,-6.81364],[39.28616,-6.80385],[39.28145,-6.79645]]]},"properties":{"region":"Dar es Salaam","district":"Ilala","ward":"Kivukoni","ward_code":"182"}},{"type":"Feature","geometry":{"type":"Polygon","coordinates":[[[39.26554,-6.82608],[39.26746,-6.8254],[39.27278,-6.82981],[39.26718,-6.83173],[39.26497,-6.83123],[39.25471,-6.83632],[39.25192,-6.8288],[39.25347,-6.82009],[39.2558,-6.81843],[39.25884,-6.82258],[39.26554,-6.82608]]]},"properties":{"region":"Dar es Salaam","district":"Ilala","ward":"Ilala","ward_code":"062"}},{"type":"Feature","geometry":{"type":"Polygon","coordinates":[[[39.27045,-6.81204],[39.26843,-6.81682],[39.2703,-6.82046],[39.27154,-6.82128],[39.27288,-6.82087],[39.27378,-6.82369],[39.26554,-6.82608],[39.25884,-6.82258],[39.2558,-6.81843],[39.26207,-6.81659],[39.26376,-6.81462],[39.26524,-6.81019],[39.27045,-6.81204]]]},"properties":{"region":"Dar es Salaam","district":"Ilala","ward":"Mchikichini","ward_code":"072"}},{"type":"Feature","geometry":{"type":"Polygon","coordinates":[[[39.2326,-6.83904],[39.23458,-6.84031],[39.23536,-6.84225],[39.23405,-6.8453],[39.23588,-6.84868],[39.21667,-6.85839],[39.21371,-6.8526],[39.21349,-6.84769],[39.21756,-6.84914],[39.21857,-6.84866],[39.2201,-6.8447],[39.22299,-6.84153],[39.22327,-6.83916],[39.22784,-6.83671],[39.22945,-6.83397],[39.23154,-6.83326],[39.23285,-6.83534],[39.2326,-6.83904]]]},"properties":{"region":"Dar es Salaam","district":"Ilala","ward":"Vingunguti","ward_code":"082"}},{"type":"Feature","geometry":{"type":"Polygon","coordinates":[[[39.21126,-6.84637],[39.21349,-6.84769],[39.21371,-6.8526],[39.21667,-6.85839],[39.21962,-6.85885],[39.22206,-6.86145],[39.2201,-6.86347],[39.22142,-6.86828],[39.22327,-6.87083],[39.20674,-6.88688],[39.19573,-6.89073],[39.17704,-6.89545],[39.17699,-6.89309],[39.18047,-6.88541],[39.18284,-6.88652],[39.18382,-6.88482],[39.18437,-6.88037],[39.184,-6.86872],[39.18195,-6.86753],[39.18225,-6.86634],[39.1806,-6.86595],[39.1796,-6.86344],[39.18109,-6.86126],[39.18344,-6.85973],[39.18629,-6.85938],[39.18855,-6.85718],[39.19348,-6.85666],[39.19589,-6.85381],[39.19994,-6.85375],[39.20049,-6.85255],[39.20318,-6.85156],[39.204,-6.84917],[39.20673,-6.84644],[39.21126,-6.84637]]]},"properties":{"region":"Dar es Salaam","district":"Ilala","ward":"Kipawa","ward_code":"092"}},{"type":"Feature","geometry":{"type":"Polygon","coordinates":[[[39.25306,-6.82151],[39.25192,-6.8288],[39.25471,-6.83632],[39.24499,-6.84116],[39.23965,-6.83267],[39.23654,-6.8294],[39.23892,-6.82702],[39.23961,-6.82325],[39.24116,-6.82417],[39.24362,-6.82364],[39.24494,-6.8216],[39.24615,-6.82132],[39.25306,-6.82151]]]},"properties":{"region":"Dar es Salaam","district":"Ilala","ward":"Buguruni","ward_code":"102"}},{"type":"Feature","geometry":{"type":"Polygon","coordinates":[[[39.23203,-6.85875],[39.23206,-6.86169],[39.23352,-6.86124],[39.23654,-6.86238],[39.24147,-6.86149],[39.24544,-6.86345],[39.24367,-6.86505],[39.22327,-6.87083],[39.22142,-6.86828],[39.2201,-6.86347],[39.22206,-6.86145],[39.21753,-6.85802],[39.22991,-6.85188],[39.23283,-6.85783],[39.23203,-6.85875]]]},"properties":{"region":"Dar es Salaam","district":"Ilala","ward":"Kiwalani","ward_code":"192"}},{"type":"Feature","geometry":{"type":"Polygon","coordinates":[[[39.23883,-6.83181],[39.24602,-6.84394],[39.23588,-6.84868],[39.23405,-6.8453],[39.23536,-6.84225],[39.23458,-6.84031],[39.2324,-6.83863],[39.23285,-6.83534],[39.23144,-6.83348],[39.23262,-6.83176],[39.23395,-6.8325],[39.23654,-6.8294],[39.23883,-6.83181]]]},"properties":{"region":"Dar es Salaam","district":"Ilala","ward":"Mnyamani","ward_code":"272"}},{"type":"Feature","geometry":{"type":"Polygon","coordinates":[[[39.23901,-6.85344],[39.24548,-6.86236],[39.24473,-6.86352],[39.24147,-6.86149],[39.23654,-6.86238],[39.23352,-6.86124],[39.23206,-6.86169],[39.23208,-6.85845],[39.23283,-6.85783],[39.22991,-6.85188],[39.23487,-6.84919],[39.23713,-6.85329],[39.23901,-6.85344]]]},"properties":{"region":"Dar es Salaam","district":"Ilala","ward":"Minazi Mirefu","ward_code":"282"}},{"type":"Feature","geometry":{"type":"Polygon","coordinates":[[[39.21565,-6.81758],[39.22206,-6.8178],[39.22608,-6.82126],[39.2359,-6.82078],[39.23718,-6.8216],[39.23763,-6.82342],[39.23961,-6.82325],[39.23892,-6.82702],[39.23436,-6.83216],[39.23262,-6.83176],[39.23154,-6.83326],[39.22945,-6.83397],[39.22784,-6.83671],[39.22327,-6.83916],[39.22207,-6.84257],[39.21965,-6.84057],[39.21738,-6.84008],[39.21782,-6.83863],[39.21356,-6.83126],[39.22121,-6.82407],[39.21954,-6.82333],[39.21857,-6.82385],[39.21457,-6.8217],[39.21565,-6.81758]]]},"properties":{"region":"Dar es Salaam","district":"Ilala","ward":"Tabata","ward_code":"042"}},{"type":"Feature","geometry":{"type":"Polygon","coordinates":[[[39.15078,-6.82568],[39.15069,-6.83195],[39.1555,-6.83138],[39.15716,-6.83465],[39.15874,-6.83577],[39.15882,-6.83761],[39.15717,-6.84039],[39.15771,-6.8411],[39.16394,-6.84247],[39.16624,-6.84167],[39.16954,-6.83878],[39.17198,-6.83774],[39.1736,-6.83823],[39.17404,-6.84007],[39.17547,-6.84006],[39.17745,-6.84202],[39.17804,-6.84382],[39.17676,-6.84658],[39.17873,-6.85049],[39.18771,-6.85434],[39.18962,-6.85698],[39.18629,-6.85938],[39.18369,-6.85974],[39.18131,-6.85785],[39.17602,-6.85892],[39.17192,-6.85689],[39.17023,-6.8582],[39.16639,-6.85904],[39.16528,-6.86062],[39.163,-6.85881],[39.15833,-6.85915],[39.1571,-6.85815],[39.15493,-6.86628],[39.14749,-6.86427],[39.14646,-6.86679],[39.14428,-6.86528],[39.13881,-6.86615],[39.13769,-6.86573],[39.13788,-6.86331],[39.13658,-6.86155],[39.13682,-6.8583],[39.12319,-6.85279],[39.12241,-6.85101],[39.11359,-6.8475],[39.11324,-6.8462],[39.11938,-6.83581],[39.12768,-6.84015],[39.12917,-6.83939],[39.13497,-6.8397],[39.13672,-6.83892],[39.14257,-6.83233],[39.14648,-6.83242],[39.14737,-6.83039],[39.14566,-6.82808],[39.14985,-6.8271],[39.14938,-6.8248],[39.15078,-6.82568]]]},"properties":{"region":"Dar es Salaam","district":"Ilala","ward":"Kinyerezi","ward_code":"052"}},{"type":"Feature","geometry":{"type":"Polygon","coordinates":[[[39.19758,-6.82898],[39.19954,-6.82939],[39.20677,-6.83725],[39.20281,-6.8395],[39.20124,-6.84153],[39.204,-6.84917],[39.20318,-6.85156],[39.20049,-6.85255],[39.19994,-6.85375],[39.19589,-6.85381],[39.19348,-6.85666],[39.18962,-6.85698],[39.18771,-6.85434],[39.17873,-6.85049],[39.17676,-6.84658],[39.17804,-6.84382],[39.17745,-6.84202],[39.17547,-6.84006],[39.17404,-6.84007],[39.1736,-6.83823],[39.17622,-6.83645],[39.18088,-6.83847],[39.18289,-6.83828],[39.1857,-6.83276],[39.18733,-6.83403],[39.1882,-6.83232],[39.19148,-6.83192],[39.19758,-6.82898]]]},"properties":{"region":"Dar es Salaam","district":"Ilala","ward":"Segerea","ward_code":"202"}},{"type":"Feature","geometry":{"type":"Polygon","coordinates":[[[39.21501,-6.8174],[39.21568,-6.81817],[39.21457,-6.8217],[39.21544,-6.8227],[39.22121,-6.82407],[39.21375,-6.83121],[39.21201,-6.83094],[39.21007,-6.82872],[39.20695,-6.83185],[39.20549,-6.83061],[39.20241,-6.8307],[39.20096,-6.82897],[39.19727,-6.82891],[39.19148,-6.83192],[39.19073,-6.83102],[39.19145,-6.82643],[39.18913,-6.82524],[39.19126,-6.82254],[39.19582,-6.82244],[39.19608,-6.82042],[39.19745,-6.82068],[39.19838,-6.81922],[39.19953,-6.81924],[39.19986,-6.82043],[39.20268,-6.81885],[39.20665,-6.82059],[39.2098,-6.81922],[39.21069,-6.81767],[39.21501,-6.8174]]]},"properties":{"region":"Dar es Salaam","district":"Ilala","ward":"Kimanga","ward_code":"262"}},{"type":"Feature","geometry":{"type":"Polygon","coordinates":[[[39.21399,-6.83177],[39.21782,-6.83863],[39.21738,-6.84008],[39.21965,-6.84057],[39.22207,-6.84257],[39.2201,-6.8447],[39.21908,-6.84786],[39.21756,-6.84914],[39.21268,-6.84787],[39.21068,-6.84619],[39.20673,-6.84644],[39.204,-6.84917],[39.20124,-6.84153],[39.20281,-6.8395],[39.20677,-6.83725],[39.19954,-6.82939],[39.20096,-6.82897],[39.20241,-6.8307],[39.20549,-6.83061],[39.20695,-6.83185],[39.21007,-6.82872],[39.21399,-6.83177]]]},"properties":{"region":"Dar es Salaam","district":"Ilala","ward":"Liwiti","ward_code":"292"}},{"type":"Feature","geometry":{"type":"MultiPolygon","coordinates":[[[[39.13574,-6.82886],[39.14146,-6.82984],[39.14437,-6.83246],[39.14175,-6.83286],[39.13583,-6.83939],[39.12917,-6.83939],[39.12768,-6.84015],[39.11938,-6.83581],[39.12091,-6.83068],[39.12416,-6.83112],[39.12471,-6.83288],[39.12828,-6.83459],[39.13197,-6.83201],[39.13195,-6.83],[39.13574,-6.82886]]],[[[39.17062,-6.82076],[39.16898,-6.83226],[39.16955,-6.83891],[39.16394,-6.84247],[39.15859,-6.84163],[39.15717,-6.84039],[39.15882,-6.83761],[39.15874,-6.83577],[39.15716,-6.83465],[39.15629,-6.83211],[39.15466,-6.83124],[39.15069,-6.83195],[39.15148,-6.82248],[39.15468,-6.82257],[39.15769,-6.82089],[39.16178,-6.82018],[39.16556,-6.82122],[39.16901,-6.81915],[39.17062,-6.82076]]]]},"properties":{"region":"Dar es Salaam","district":"Ilala","ward":"Bonyokwa","ward_code":"302"}},{"type":"Feature","geometry":{"type":"Polygon","coordinates":[[[39.18091,-6.80973],[39.18374,-6.81102],[39.18451,-6.81361],[39.18826,-6.81349],[39.18796,-6.81464],[39.18906,-6.816],[39.19049,-6.81595],[39.19164,-6.81775],[39.19456,-6.81869],[39.19608,-6.82042],[39.19582,-6.82244],[39.19126,-6.82254],[39.19021,-6.8243],[39.18941,-6.82415],[39.18913,-6.82524],[39.19153,-6.82673],[39.1912,-6.83156],[39.1882,-6.83232],[39.18733,-6.83403],[39.1857,-6.83276],[39.18289,-6.83828],[39.18088,-6.83847],[39.17622,-6.83645],[39.17474,-6.83795],[39.17198,-6.83774],[39.16954,-6.83878],[39.16898,-6.83226],[39.17072,-6.82004],[39.16906,-6.81989],[39.16901,-6.81915],[39.17134,-6.81619],[39.18091,-6.80973]]]},"properties":{"region":"Dar es Salaam","district":"Ilala","ward":"Kisukuru","ward_code":"312"}},{"type":"Feature","geometry":{"type":"Polygon","coordinates":[[[39.17228,-6.85685],[39.17553,-6.85885],[39.18131,-6.85785],[39.18176,-6.85888],[39.18372,-6.85933],[39.1796,-6.86344],[39.1806,-6.86595],[39.18225,-6.86634],[39.18195,-6.86753],[39.1841,-6.8692],[39.18407,-6.87391],[39.1847,-6.874],[39.18382,-6.88482],[39.18284,-6.88652],[39.18047,-6.88541],[39.17699,-6.89309],[39.17704,-6.89545],[39.16206,-6.8983],[39.16064,-6.89647],[39.16041,-6.8935],[39.15879,-6.892],[39.16048,-6.88967],[39.15977,-6.88745],[39.16434,-6.88599],[39.16318,-6.88371],[39.16295,-6.87718],[39.16205,-6.87766],[39.16042,-6.87241],[39.16102,-6.86917],[39.15996,-6.86748],[39.15991,-6.8591],[39.163,-6.85881],[39.16528,-6.86062],[39.16639,-6.85904],[39.17228,-6.85685]]]},"properties":{"region":"Dar es Salaam","district":"Ilala","ward":"Ukonga","ward_code":"012"}},{"type":"Feature","geometry":{"type":"Polygon","coordinates":[[[39.13505,-6.88575],[39.13684,-6.89104],[39.13907,-6.89133],[39.14028,-6.89707],[39.13967,-6.90039],[39.14112,-6.90316],[39.13901,-6.90598],[39.13837,-6.91128],[39.13168,-6.91398],[39.12963,-6.91377],[39.12863,-6.91501],[39.13047,-6.91943],[39.12946,-6.91983],[39.13165,-6.92431],[39.13095,-6.92793],[39.12451,-6.94357],[39.11861,-6.94066],[39.11568,-6.94117],[39.11478,-6.94018],[39.10643,-6.93988],[39.10389,-6.93892],[39.10095,-6.93941],[39.09625,-6.93747],[39.09524,-6.93585],[39.09846,-6.93405],[39.09939,-6.92824],[39.10406,-6.92725],[39.10869,-6.92408],[39.11185,-6.91815],[39.10893,-6.91637],[39.10801,-6.90895],[39.1102,-6.90849],[39.11318,-6.90485],[39.11241,-6.90324],[39.11298,-6.89958],[39.11605,-6.9013],[39.11651,-6.89916],[39.12135,-6.89732],[39.12775,-6.88841],[39.12948,-6.88979],[39.13116,-6.88618],[39.13505,-6.88575]]]},"properties":{"region":"Dar es Salaam","district":"Ilala","ward":"Pugu","ward_code":"022"}},{"type":"Feature","geometry":{"type":"Polygon","coordinates":[[[39.16654,-6.94771],[39.16345,-6.95193],[39.16251,-6.95532],[39.17949,-6.95914],[39.18134,-6.9577],[39.1819,-6.95587],[39.18049,-6.95283],[39.18179,-6.95269],[39.18534,-6.95382],[39.1872,-6.95596],[39.18859,-6.95557],[39.18955,-6.95852],[39.19152,-6.95807],[39.19718,-6.96583],[39.19436,-6.96938],[39.19404,-6.97142],[39.19476,-6.97215],[39.19396,-6.9725],[39.19325,-6.97578],[39.1921,-6.97644],[39.19267,-6.97896],[39.1919,-6.98115],[39.19298,-6.98324],[39.18893,-6.9855],[39.18695,-6.98496],[39.18404,-6.98808],[39.18317,-6.9879],[39.18318,-6.99113],[39.17694,-6.99109],[39.17669,-6.99473],[39.17824,-6.99597],[39.17234,-6.99908],[39.1691,-6.99691],[39.16717,-7.00115],[39.16545,-7.00071],[39.1664,-7.00463],[39.16418,-7.00645],[39.16453,-7.00861],[39.166,-7.01118],[39.16927,-7.01394],[39.1607,-7.01733],[39.15932,-7.01873],[39.15778,-7.01817],[39.15791,-7.01724],[39.15549,-7.01699],[39.15251,-7.01981],[39.15134,-7.022],[39.15242,-7.02572],[39.15101,-7.02665],[39.15061,-7.02989],[39.15144,-7.03274],[39.14925,-7.03685],[39.14662,-7.03791],[39.1428,-7.04188],[39.14098,-7.04563],[39.14147,-7.05208],[39.13985,-7.0588],[39.13559,-7.06483],[39.13319,-7.07169],[39.13052,-7.07526],[39.12635,-7.07804],[39.11246,-7.09254],[39.10892,-7.08886],[39.11318,-7.07629],[39.10417,-7.07223],[39.10506,-7.07033],[39.09909,-7.06812],[39.09719,-7.0709],[39.09351,-7.06982],[39.09156,-7.06422],[39.09194,-7.06125],[39.09087,-7.06096],[39.09343,-7.06087],[39.09557,-7.05963],[39.10233,-7.04892],[39.1059,-7.04781],[39.10682,-7.04649],[39.10729,-7.03756],[39.09909,-7.03451],[39.10081,-7.03252],[39.10106,-7.02838],[39.10251,-7.02693],[39.11125,-7.03086],[39.11143,-7.0292],[39.1154,-7.02735],[39.11906,-7.02308],[39.11954,-7.01513],[39.1228,-7.01337],[39.12329,-7.01056],[39.12684,-7.00621],[39.13129,-7.00755],[39.13702,-7.00514],[39.14,-7.00444],[39.14175,-7.00503],[39.14022,-7.00186],[39.13624,-6.99949],[39.14565,-6.97571],[39.1453,-6.96202],[39.15339,-6.95716],[39.15364,-6.95486],[39.15207,-6.95088],[39.15709,-6.95141],[39.16418,-6.94876],[39.16526,-6.94737],[39.16654,-6.94771]]]},"properties":{"region":"Dar es Salaam","district":"Ilala","ward":"Msongola","ward_code":"032"}},{"type":"Feature","geometry":{"type":"Polygon","coordinates":[[[39.20282,-6.88836],[39.21148,-6.89511],[39.22166,-6.89952],[39.22512,-6.90251],[39.23036,-6.9013],[39.23251,-6.90356],[39.2359,-6.90506],[39.23345,-6.90849],[39.22644,-6.9105],[39.22046,-6.91053],[39.21532,-6.90734],[39.20505,-6.90716],[39.19905,-6.90526],[39.19501,-6.907],[39.19179,-6.90539],[39.18799,-6.90659],[39.18565,-6.90211],[39.18356,-6.90125],[39.18234,-6.89518],[39.17982,-6.89447],[39.20282,-6.88836]]]},"properties":{"region":"Dar es Salaam","district":"Ilala","ward":"Kitunda","ward_code":"212"}},{"type":"Feature","geometry":{"type":"Polygon","coordinates":[[[39.09676,-6.97245],[39.10118,-6.97441],[39.10262,-6.97676],[39.10462,-6.975],[39.10668,-6.97527],[39.10862,-6.97376],[39.11207,-6.97436],[39.11475,-6.97839],[39.11439,-6.97914],[39.11868,-6.98348],[39.11918,-6.98796],[39.12223,-6.99208],[39.12367,-6.99181],[39.12682,-6.99325],[39.13139,-6.99686],[39.13831,-7.00038],[39.14022,-7.00186],[39.14175,-7.00503],[39.14,-7.00444],[39.13702,-7.00514],[39.13129,-7.00755],[39.12684,-7.00621],[39.12329,-7.01056],[39.1228,-7.01337],[39.11954,-7.01513],[39.11906,-7.02308],[39.1154,-7.02735],[39.11143,-7.0292],[39.11125,-7.03086],[39.09898,-7.02532],[39.08576,-7.01238],[39.08123,-7.00385],[39.08447,-6.99711],[39.06409,-6.99228],[39.06822,-6.98736],[39.07433,-6.98758],[39.0805,-6.9858],[39.08425,-6.98259],[39.08953,-6.98002],[39.09394,-6.97392],[39.09516,-6.97398],[39.09676,-6.97245]]]},"properties":{"region":"Dar es Salaam","district":"Ilala","ward":"Chanika","ward_code":"222"}},{"type":"Feature","geometry":{"type":"Polygon","coordinates":[[[39.19064,-6.9054],[39.19501,-6.907],[39.19462,-6.91076],[39.19548,-6.91141],[39.19416,-6.9137],[39.19502,-6.91423],[39.1953,-6.91663],[39.19755,-6.91839],[39.198,-6.92236],[39.20514,-6.92642],[39.20559,-6.92777],[39.20129,-6.92724],[39.19935,-6.92841],[39.19918,-6.93118],[39.19702,-6.93436],[39.20069,-6.9346],[39.20106,-6.9359],[39.20587,-6.93908],[39.21036,-6.94052],[39.20807,-6.94604],[39.20639,-6.94555],[39.20316,-6.94774],[39.19979,-6.94844],[39.20245,-6.95195],[39.20105,-6.95314],[39.19987,-6.95637],[39.19735,-6.95753],[39.19649,-6.95895],[39.19839,-6.96347],[39.19718,-6.96583],[39.19152,-6.95807],[39.18955,-6.95852],[39.18859,-6.95557],[39.1872,-6.95596],[39.18391,-6.95312],[39.18049,-6.95283],[39.1819,-6.95587],[39.18134,-6.9577],[39.17949,-6.95914],[39.16251,-6.95532],[39.16345,-6.95193],[39.16611,-6.9491],[39.16654,-6.94771],[39.16582,-6.94728],[39.16418,-6.94876],[39.15582,-6.95127],[39.1643,-6.92866],[39.1661,-6.92016],[39.17232,-6.92139],[39.17455,-6.91838],[39.17619,-6.91887],[39.17889,-6.91594],[39.18642,-6.91463],[39.18585,-6.91307],[39.18693,-6.91187],[39.18616,-6.90901],[39.19064,-6.9054]]]},"properties":{"region":"Dar es Salaam","district":"Ilala","ward":"Kivule","ward_code":"232"}},{"type":"Feature","geometry":{"type":"Polygon","coordinates":[[[39.1571,-6.85815],[39.15991,-6.8591],[39.15996,-6.86748],[39.16102,-6.86917],[39.16042,-6.87241],[39.16205,-6.87766],[39.16295,-6.87718],[39.16318,-6.88371],[39.16434,-6.88599],[39.15977,-6.88745],[39.16048,-6.88967],[39.15879,-6.892],[39.16041,-6.8935],[39.16064,-6.89647],[39.16206,-6.8983],[39.14345,-6.90173],[39.14112,-6.90316],[39.13967,-6.90039],[39.14028,-6.89707],[39.13907,-6.89133],[39.1366,-6.89074],[39.13505,-6.88575],[39.13772,-6.88563],[39.13769,-6.86573],[39.13985,-6.86618],[39.14428,-6.86528],[39.14646,-6.86679],[39.14749,-6.86427],[39.15493,-6.86628],[39.1571,-6.85815]]]},"properties":{"region":"Dar es Salaam","district":"Ilala","ward":"Gongolamboto","ward_code":"242"}},{"type":"Feature","geometry":{"type":"Polygon","coordinates":[[[39.16519,-6.89772],[39.16457,-6.90494],[39.16504,-6.90977],[39.16707,-6.91494],[39.1665,-6.91832],[39.1643,-6.92866],[39.15582,-6.95127],[39.14981,-6.95131],[39.14513,-6.94994],[39.14357,-6.95166],[39.14297,-6.95034],[39.14016,-6.94911],[39.13353,-6.9473],[39.13095,-6.94428],[39.12972,-6.94494],[39.1247,-6.94375],[39.13165,-6.92431],[39.12946,-6.91983],[39.13047,-6.91943],[39.12897,-6.91451],[39.13837,-6.91128],[39.13919,-6.90548],[39.14345,-6.90173],[39.16519,-6.89772]]]},"properties":{"region":"Dar es Salaam","district":"Ilala","ward":"Majohe","ward_code":"252"}},{"type":"Feature","geometry":{"type":"Polygon","coordinates":[[[39.06409,-6.99228],[39.08447,-6.99711],[39.08123,-7.00385],[39.08535,-7.01175],[39.09429,-7.02125],[39.09898,-7.02532],[39.10251,-7.02693],[39.10106,-7.02838],[39.10081,-7.03252],[39.09909,-7.03451],[39.10729,-7.03756],[39.10682,-7.04649],[39.1059,-7.04781],[39.10233,-7.04892],[39.09557,-7.05963],[39.09343,-7.06087],[39.09068,-7.06091],[39.0846,-7.06464],[39.08034,-7.06874],[39.07859,-7.06765],[39.07917,-7.06433],[39.07841,-7.06082],[39.07185,-7.05894],[39.07056,-7.05785],[39.07039,-7.05541],[39.06879,-7.0527],[39.06858,-7.05018],[39.06983,-7.04808],[39.07412,-7.04668],[39.07462,-7.04568],[39.06806,-7.04177],[39.06873,-7.03651],[39.07031,-7.0336],[39.06869,-7.03259],[39.0687,-7.03121],[39.06795,-7.03224],[39.06048,-7.03249],[39.05957,-7.03612],[39.05802,-7.03806],[39.05567,-7.03779],[39.05328,-7.0392],[39.05261,-7.04091],[39.05152,-7.04078],[39.05088,-7.04268],[39.04619,-7.0433],[39.04117,-7.04827],[39.03752,-7.04991],[39.03693,-7.04778],[39.0352,-7.04627],[39.03026,-7.04658],[39.0238,-7.03609],[39.02344,-7.03225],[39.02511,-7.02984],[39.02273,-7.02801],[39.0223,-7.0257],[39.02312,-7.02327],[39.02786,-7.02413],[39.03619,-7.02197],[39.04744,-7.02489],[39.05102,-7.02822],[39.05779,-7.0222],[39.06518,-7.01395],[39.05862,-6.99912],[39.06409,-6.99228]]]},"properties":{"region":"Dar es Salaam","district":"Ilala","ward":"Zingiziwa","ward_code":"322"}},{"type":"Feature","geometry":{"type":"Polygon","coordinates":[[[39.09992,-6.93888],[39.1203,-6.9411],[39.12504,-6.944],[39.12972,-6.94494],[39.13095,-6.94428],[39.13353,-6.9473],[39.14016,-6.94911],[39.14297,-6.95034],[39.14357,-6.95166],[39.14513,-6.94994],[39.14981,-6.95131],[39.15207,-6.95088],[39.15364,-6.95486],[39.15339,-6.95716],[39.1453,-6.96202],[39.14565,-6.97571],[39.13624,-6.99949],[39.12682,-6.99325],[39.12367,-6.99181],[39.12223,-6.99208],[39.11918,-6.98796],[39.11868,-6.98348],[39.11439,-6.97914],[39.11296,-6.97504],[39.11123,-6.97419],[39.10862,-6.97376],[39.10668,-6.97527],[39.10462,-6.975],[39.10262,-6.97676],[39.10118,-6.97441],[39.09676,-6.97245],[39.09516,-6.97398],[39.09394,-6.97392],[39.08953,-6.98002],[39.08425,-6.98259],[39.0805,-6.9858],[39.07433,-6.98758],[39.06822,-6.98736],[39.07244,-6.98223],[39.07114,-6.9789],[39.06671,-6.97964],[39.05975,-6.97294],[39.0623,-6.97151],[39.06712,-6.9612],[39.06789,-6.95633],[39.07679,-6.95532],[39.0788,-6.95167],[39.07865,-6.94906],[39.09524,-6.93585],[39.09625,-6.93747],[39.09992,-6.93888]]]},"properties":{"region":"Dar es Salaam","district":"Ilala","ward":"Buyuni","ward_code":"332"}},{"type":"Feature","geometry":{"type":"Polygon","coordinates":[[[39.13808,-6.86408],[39.13766,-6.886],[39.13116,-6.88618],[39.12948,-6.88979],[39.12775,-6.88841],[39.12135,-6.89732],[39.11651,-6.89916],[39.11605,-6.9013],[39.10969,-6.89797],[39.1186,-6.88075],[39.1136,-6.87873],[39.11335,-6.87599],[39.10899,-6.86799],[39.10992,-6.85564],[39.11232,-6.84651],[39.11324,-6.8462],[39.11359,-6.8475],[39.12241,-6.85101],[39.12319,-6.85279],[39.13682,-6.8583],[39.13658,-6.86155],[39.13808,-6.86408]]]},"properties":{"region":"Dar es Salaam","district":"Ilala","ward":"Pugu Station","ward_code":"342"}},{"type":"Feature","geometry":{"type":"Polygon","coordinates":[[[39.23928,-6.90508],[39.23457,-6.91552],[39.22808,-6.92008],[39.22665,-6.92288],[39.2197,-6.92707],[39.21935,-6.92964],[39.21693,-6.93061],[39.21403,-6.93681],[39.21036,-6.94052],[39.20587,-6.93908],[39.20106,-6.9359],[39.20069,-6.9346],[39.19702,-6.93436],[39.19918,-6.93118],[39.19935,-6.92841],[39.20129,-6.92724],[39.20559,-6.92777],[39.20514,-6.92642],[39.198,-6.92236],[39.19755,-6.91839],[39.1953,-6.91663],[39.19502,-6.91423],[39.19416,-6.9137],[39.19548,-6.91141],[39.19462,-6.91076],[39.19501,-6.907],[39.19905,-6.90526],[39.20505,-6.90716],[39.21532,-6.90734],[39.22046,-6.91053],[39.22644,-6.9105],[39.23345,-6.90849],[39.2359,-6.90506],[39.23886,-6.90426],[39.23928,-6.90508]]]},"properties":{"region":"Dar es Salaam","district":"Ilala","ward":"Mzinga","ward_code":"352"}},{"type":"Feature","geometry":{"type":"Polygon","coordinates":[[[39.17982,-6.89447],[39.18234,-6.89518],[39.18356,-6.90125],[39.18565,-6.90211],[39.18699,-6.90592],[39.18878,-6.90656],[39.18772,-6.90845],[39.18616,-6.90901],[39.18693,-6.91187],[39.18585,-6.91307],[39.18642,-6.91463],[39.17889,-6.91594],[39.17619,-6.91887],[39.17455,-6.91838],[39.17232,-6.92139],[39.1661,-6.92016],[39.16707,-6.91494],[39.16504,-6.90977],[39.16519,-6.8977],[39.17982,-6.89447]]]},"properties":{"region":"Dar es Salaam","district":"Ilala","ward":"Kipunguni","ward_code":"362"}},{"type":"Feature","geometry":{"type":"Polygon","coordinates":[[[39.28498,-6.8402],[39.27504,-6.86768],[39.26303,-6.86341],[39.26401,-6.85378],[39.26609,-6.85288],[39.26697,-6.8511],[39.26988,-6.85021],[39.26998,-6.84819],[39.27371,-6.84672],[39.27558,-6.84402],[39.27754,-6.84328],[39.28054,-6.83724],[39.28498,-6.8402]]]},"properties":{"region":"Dar es Salaam","district":"Temeke","ward":"Miburani","ward_code":"012"}},{"type":"Feature","geometry":{"type":"Polygon","coordinates":[[[39.26353,-6.86363],[39.26972,-6.866],[39.26734,-6.87003],[39.27383,-6.87081],[39.26978,-6.87757],[39.26886,-6.88281],[39.26515,-6.88434],[39.25949,-6.88267],[39.25709,-6.87947],[39.25523,-6.87366],[39.25611,-6.87302],[39.25696,-6.87415],[39.25779,-6.87287],[39.259,-6.8736],[39.2633,-6.86879],[39.26353,-6.86363]]]},"properties":{"region":"Dar es Salaam","district":"Temeke","ward":"Azimio","ward_code":"022"}},{"type":"Feature","geometry":{"type":"Polygon","coordinates":[[[39.26382,-6.86795],[39.25901,-6.87359],[39.25779,-6.87287],[39.25696,-6.87415],[39.25611,-6.87302],[39.25103,-6.87352],[39.2476,-6.86719],[39.24953,-6.86804],[39.2499,-6.86564],[39.25595,-6.85922],[39.2626,-6.8651],[39.26382,-6.86795]]]},"properties":{"region":"Dar es Salaam","district":"Temeke","ward":"Tandika","ward_code":"032"}},{"type":"Feature","geometry":{"type":"Polygon","coordinates":[[[39.25217,-6.85763],[39.25519,-6.85664],[39.25682,-6.85837],[39.2506,-6.86469],[39.24953,-6.86804],[39.24237,-6.86539],[39.24501,-6.86419],[39.2454,-6.86211],[39.23901,-6.85344],[39.23713,-6.85329],[39.23487,-6.84919],[39.24602,-6.84394],[39.24801,-6.84736],[39.25168,-6.8497],[39.25311,-6.85349],[39.25217,-6.85763]]]},"properties":{"region":"Dar es Salaam","district":"Temeke","ward":"Sandali","ward_code":"042"}},{"type":"Feature","geometry":{"type":"Polygon","coordinates":[[[39.25633,-6.84163],[39.25845,-6.84351],[39.25662,-6.84501],[39.25824,-6.84801],[39.26373,-6.8523],[39.26329,-6.86587],[39.25755,-6.86127],[39.25595,-6.85922],[39.25682,-6.85837],[39.25519,-6.85664],[39.25191,-6.85791],[39.25311,-6.85349],[39.25168,-6.8497],[39.24801,-6.84736],[39.24499,-6.84116],[39.25428,-6.83653],[39.25633,-6.84163]]]},"properties":{"region":"Dar es Salaam","district":"Temeke","ward":"Temeke","ward_code":"052"}},{"type":"Feature","geometry":{"type":"Polygon","coordinates":[[[39.26497,-6.83123],[39.26552,-6.83189],[39.26838,-6.83133],[39.2731,-6.84044],[39.27371,-6.84672],[39.26998,-6.84819],[39.26988,-6.85021],[39.26697,-6.8511],[39.26609,-6.85288],[39.26401,-6.85378],[39.26319,-6.8516],[39.25824,-6.84801],[39.25662,-6.84501],[39.25845,-6.84351],[39.25784,-6.84226],[39.25684,-6.84271],[39.25428,-6.83653],[39.26497,-6.83123]]]},"properties":{"region":"Dar es Salaam","district":"Temeke","ward":"Chang'ombe","ward_code":"062"}},{"type":"Feature","geometry":{"type":"Polygon","coordinates":[[[39.27916,-6.83022],[39.28113,-6.83112],[39.28041,-6.83802],[39.27754,-6.84328],[39.27356,-6.84608],[39.2731,-6.84044],[39.26838,-6.83133],[39.2716,-6.82985],[39.27916,-6.83022]]]},"properties":{"region":"Dar es Salaam","district":"Temeke","ward":"Keko","ward_code":"072"}},{"type":"Feature","geometry":{"type":"Polygon","coordinates":[[[39.29716,-6.85915],[39.29248,-6.86066],[39.29047,-6.86281],[39.28934,-6.86201],[39.28996,-6.86128],[39.2874,-6.85952],[39.28521,-6.8596],[39.27912,-6.85735],[39.28498,-6.8402],[39.28054,-6.83724],[39.28113,-6.83112],[39.27991,-6.83022],[39.28507,-6.82703],[39.2873,-6.82631],[39.28742,-6.82735],[39.29293,-6.83178],[39.2976,-6.84245],[39.29726,-6.84621],[39.30019,-6.85255],[39.29695,-6.85561],[39.29716,-6.85915]]]},"properties":{"region":"Dar es Salaam","district":"Temeke","ward":"Kurasini","ward_code":"082"}},{"type":"Feature","geometry":{"type":"Polygon","coordinates":[[[39.28521,-6.8596],[39.2874,-6.85952],[39.28996,-6.86128],[39.28934,-6.86201],[39.29047,-6.86281],[39.2897,-6.86437],[39.28675,-6.86747],[39.28941,-6.86763],[39.29092,-6.87102],[39.28924,-6.87038],[39.2879,-6.87297],[39.28388,-6.87364],[39.28249,-6.87502],[39.2835,-6.87976],[39.28286,-6.88077],[39.2805,-6.88048],[39.27917,-6.88176],[39.27227,-6.88235],[39.27165,-6.88323],[39.26886,-6.8828],[39.26978,-6.87757],[39.27383,-6.87081],[39.26734,-6.87003],[39.26765,-6.86837],[39.26972,-6.866],[39.27504,-6.86768],[39.27912,-6.85735],[39.28521,-6.8596]]]},"properties":{"region":"Dar es Salaam","district":"Temeke","ward":"Mtoni","ward_code":"092"}},{"type":"Feature","geometry":{"type":"Polygon","coordinates":[[[39.26261,-6.88314],[39.26553,-6.88432],[39.26488,-6.88567],[39.25683,-6.888],[39.25546,-6.88991],[39.25596,-6.89116],[39.25437,-6.89355],[39.25469,-6.89436],[39.25105,-6.89396],[39.2495,-6.89763],[39.24668,-6.89745],[39.24313,-6.90124],[39.2419,-6.90119],[39.23762,-6.90488],[39.23554,-6.90507],[39.23036,-6.9013],[39.22512,-6.90251],[39.22185,-6.89992],[39.22114,-6.89822],[39.22056,-6.89315],[39.22194,-6.8903],[39.22497,-6.88856],[39.22917,-6.89002],[39.23378,-6.88952],[39.23751,-6.88749],[39.23904,-6.88804],[39.24398,-6.8866],[39.24818,-6.88693],[39.2572,-6.88309],[39.26261,-6.88314]]]},"properties":{"region":"Dar es Salaam","district":"Temeke","ward":"Buza","ward_code":"202"}},{"type":"Feature","geometry":{"type":"Polygon","coordinates":[[[39.25418,-6.87331],[39.25565,-6.87399],[39.25709,-6.87947],[39.25985,-6.88322],[39.25636,-6.88329],[39.24818,-6.88693],[39.2442,-6.88658],[39.24061,-6.8879],[39.2364,-6.88779],[39.23535,-6.88321],[39.2381,-6.88066],[39.24677,-6.87818],[39.2496,-6.87367],[39.25418,-6.87331]]]},"properties":{"region":"Dar es Salaam","district":"Temeke","ward":"Makangarawe","ward_code":"212"}},{"type":"Feature","geometry":{"type":"Polygon","coordinates":[[[39.23726,-6.87343],[39.23835,-6.87356],[39.23891,-6.87591],[39.24191,-6.87678],[39.24434,-6.87923],[39.23868,-6.88037],[39.23544,-6.88302],[39.23532,-6.88551],[39.2364,-6.88779],[39.23424,-6.88936],[39.22917,-6.89002],[39.22497,-6.88856],[39.22194,-6.8903],[39.22043,-6.89456],[39.22166,-6.89952],[39.21148,-6.89511],[39.20282,-6.88836],[39.20894,-6.88537],[39.22438,-6.87026],[39.23756,-6.86669],[39.23726,-6.87343]]]},"properties":{"region":"Dar es Salaam","district":"Temeke","ward":"Yombo Vituka","ward_code":"222"}},{"type":"Feature","geometry":{"type":"Polygon","coordinates":[[[39.25036,-6.87347],[39.24677,-6.87818],[39.24387,-6.87908],[39.24191,-6.87678],[39.23891,-6.87591],[39.23835,-6.87356],[39.23683,-6.87318],[39.23783,-6.87116],[39.23756,-6.86669],[39.24237,-6.86539],[39.2476,-6.86719],[39.24833,-6.8695],[39.25049,-6.87139],[39.25036,-6.87347]]]},"properties":{"region":"Dar es Salaam","district":"Temeke","ward":"Kilakala","ward_code":"232"}},{"type":"Feature","geometry":{"type":"Polygon","coordinates":[[[39.29841,-6.8794],[39.30296,-6.88246],[39.30697,-6.87975],[39.30792,-6.88016],[39.30827,-6.88397],[39.31093,-6.88446],[39.31336,-6.88276],[39.31443,-6.8833],[39.31492,-6.88529],[39.31371,-6.88631],[39.31621,-6.88682],[39.31434,-6.88838],[39.31608,-6.88887],[39.31591,-6.89097],[39.31483,-6.89095],[39.31621,-6.89123],[39.31542,-6.89188],[39.31634,-6.89224],[39.31527,-6.89285],[39.31605,-6.89378],[39.31512,-6.89495],[39.31135,-6.89667],[39.3065,-6.9013],[39.30521,-6.90062],[39.30466,-6.90307],[39.29994,-6.9054],[39.29824,-6.9073],[39.29776,-6.9055],[39.29304,-6.90615],[39.29009,-6.90351],[39.28791,-6.89999],[39.28793,-6.89576],[39.28397,-6.8947],[39.28132,-6.89534],[39.28031,-6.89849],[39.27539,-6.89748],[39.27454,-6.89467],[39.27205,-6.89287],[39.27168,-6.89142],[39.26906,-6.89299],[39.26735,-6.89245],[39.26963,-6.88879],[39.2683,-6.88618],[39.26886,-6.8828],[39.27165,-6.88323],[39.27227,-6.88235],[39.27917,-6.88176],[39.2805,-6.88048],[39.28286,-6.88077],[39.2835,-6.87976],[39.28249,-6.87502],[39.28388,-6.87364],[39.2879,-6.87297],[39.28924,-6.87038],[39.29409,-6.87215],[39.29729,-6.87224],[39.29844,-6.8736],[39.29841,-6.8794]]]},"properties":{"region":"Dar es Salaam","district":"Temeke","ward":"Kijichi","ward_code":"102"}},{"type":"Feature","geometry":{"type":"Polygon","coordinates":[[[39.27107,-6.89152],[39.27454,-6.89467],[39.27539,-6.89748],[39.28031,-6.89849],[39.28132,-6.89534],[39.28397,-6.8947],[39.28793,-6.89576],[39.28791,-6.89999],[39.29136,-6.90491],[39.29304,-6.90615],[39.29776,-6.9055],[39.29847,-6.90831],[39.29685,-6.9109],[39.29707,-6.91332],[39.29388,-6.91511],[39.28989,-6.92329],[39.28729,-6.92362],[39.2866,-6.92559],[39.28506,-6.92529],[39.28583,-6.92402],[39.28502,-6.92399],[39.28448,-6.9187],[39.2822,-6.91513],[39.28048,-6.91438],[39.27033,-6.9148],[39.26905,-6.89895],[39.26717,-6.89369],[39.26744,-6.89257],[39.26906,-6.89299],[39.27107,-6.89152]]]},"properties":{"region":"Dar es Salaam","district":"Temeke","ward":"Mbagala Kuu","ward_code":"112"}},{"type":"Feature","geometry":{"type":"Polygon","coordinates":[[[39.31437,-6.9081],[39.32148,-6.91077],[39.32488,-6.91041],[39.32521,-6.91159],[39.32761,-6.91162],[39.32785,-6.91239],[39.33421,-6.9108],[39.33869,-6.91108],[39.33851,-6.9129],[39.34492,-6.91336],[39.34457,-6.91538],[39.34829,-6.92058],[39.35031,-6.9262],[39.35191,-6.92709],[39.35068,-6.92768],[39.35025,-6.93002],[39.34809,-6.93202],[39.34882,-6.93358],[39.35174,-6.93485],[39.35061,-6.93722],[39.35081,-6.94335],[39.354,-6.95338],[39.35437,-6.96109],[39.34669,-6.96059],[39.34401,-6.95945],[39.34496,-6.9554],[39.34302,-6.95531],[39.34044,-6.95305],[39.33372,-6.95351],[39.33013,-6.95212],[39.32949,-6.95032],[39.32538,-6.95098],[39.31983,-6.94904],[39.31872,-6.95207],[39.32046,-6.95656],[39.31618,-6.95846],[39.31238,-6.96256],[39.30957,-6.95836],[39.30996,-6.95566],[39.30523,-6.95401],[39.3047,-6.95254],[39.29872,-6.94797],[39.29695,-6.94858],[39.29178,-6.95345],[39.28835,-6.95361],[39.28563,-6.95215],[39.28024,-6.95801],[39.27781,-6.95891],[39.27619,-6.95262],[39.27749,-6.95155],[39.27755,-6.94916],[39.27513,-6.94588],[39.27349,-6.94535],[39.27199,-6.93948],[39.27437,-6.9377],[39.27736,-6.92997],[39.27954,-6.9293],[39.2806,-6.93004],[39.28236,-6.927],[39.28506,-6.92529],[39.2866,-6.92559],[39.28729,-6.92362],[39.28989,-6.92329],[39.29388,-6.91511],[39.29707,-6.91332],[39.29685,-6.9109],[39.29802,-6.90975],[39.29824,-6.9073],[39.29994,-6.9054],[39.30466,-6.90307],[39.30521,-6.90062],[39.30938,-6.9031],[39.31076,-6.90575],[39.31437,-6.9081]]]},"properties":{"region":"Dar es Salaam","district":"Temeke","ward":"Toangoma","ward_code":"122"}},{"type":"Feature","geometry":{"type":"Polygon","coordinates":[[[39.27062,-6.91938],[39.27246,-6.93406],[39.27462,-6.9369],[39.27199,-6.93948],[39.27349,-6.94535],[39.2615,-6.94739],[39.25771,-6.95031],[39.25471,-6.95087],[39.25179,-6.94908],[39.24736,-6.9513],[39.24325,-6.95183],[39.24285,-6.95076],[39.24491,-6.94874],[39.24251,-6.94694],[39.24029,-6.94325],[39.23831,-6.94212],[39.23767,-6.94033],[39.23834,-6.93968],[39.24941,-6.93376],[39.2569,-6.93175],[39.2663,-6.92703],[39.26949,-6.92366],[39.27062,-6.91938]]]},"properties":{"region":"Dar es Salaam","district":"Temeke","ward":"Mianzini","ward_code":"132"}},{"type":"Feature","geometry":{"type":"Polygon","coordinates":[[[39.27033,-6.9148],[39.2822,-6.91513],[39.28336,-6.91643],[39.28448,-6.9187],[39.28502,-6.92399],[39.28583,-6.92402],[39.28493,-6.9258],[39.28193,-6.92741],[39.2806,-6.93004],[39.27954,-6.9293],[39.27736,-6.92997],[39.27462,-6.9369],[39.27246,-6.93406],[39.27033,-6.9148]]]},"properties":{"region":"Dar es Salaam","district":"Temeke","ward":"Kibondemaji","ward_code":"142"}},{"type":"Feature","geometry":{"type":"Polygon","coordinates":[[[39.24254,-6.91819],[39.23854,-6.92393],[39.23816,-6.92595],[39.24001,-6.93352],[39.24346,-6.93752],[39.23767,-6.94033],[39.23852,-6.94239],[39.24029,-6.94325],[39.24498,-6.94905],[39.24285,-6.95076],[39.24325,-6.95183],[39.2403,-6.95508],[39.23846,-6.95948],[39.23933,-6.96172],[39.23785,-6.96549],[39.2346,-6.96855],[39.23208,-6.96894],[39.23084,-6.97018],[39.23125,-6.97357],[39.22908,-6.9749],[39.22906,-6.97634],[39.22618,-6.97753],[39.22561,-6.97971],[39.22696,-6.98109],[39.22624,-6.98333],[39.22491,-6.98387],[39.22521,-6.98565],[39.22237,-6.98816],[39.2225,-6.99181],[39.22143,-6.994],[39.22015,-6.99525],[39.19662,-6.9835],[39.19298,-6.98324],[39.1919,-6.98115],[39.19267,-6.97896],[39.1921,-6.97644],[39.19325,-6.97578],[39.19396,-6.9725],[39.19476,-6.97215],[39.19404,-6.97142],[39.19436,-6.96938],[39.19839,-6.96347],[39.19649,-6.95895],[39.19735,-6.95753],[39.19987,-6.95637],[39.20105,-6.95314],[39.20245,-6.95195],[39.19979,-6.94844],[39.20316,-6.94774],[39.20639,-6.94555],[39.20807,-6.94604],[39.21036,-6.94052],[39.21403,-6.93681],[39.21693,-6.93061],[39.21935,-6.92964],[39.21915,-6.92773],[39.22665,-6.92288],[39.22808,-6.92008],[39.23457,-6.91552],[39.23583,-6.91211],[39.24254,-6.91819]]]},"properties":{"region":"Dar es Salaam","district":"Temeke","ward":"Chamazi","ward_code":"152"}},{"type":"Feature","geometry":{"type":"Polygon","coordinates":[[[39.26088,-6.91488],[39.25698,-6.91952],[39.25477,-6.91988],[39.25541,-6.92356],[39.25471,-6.92722],[39.25229,-6.93022],[39.2555,-6.93218],[39.2569,-6.93175],[39.25544,-6.93222],[39.24941,-6.93376],[39.24346,-6.93752],[39.24001,-6.93352],[39.23835,-6.92811],[39.23854,-6.92393],[39.24261,-6.91889],[39.24167,-6.91671],[39.23634,-6.91305],[39.238,-6.90713],[39.26088,-6.91488]]]},"properties":{"region":"Dar es Salaam","district":"Temeke","ward":"Kilungule","ward_code":"162"}},{"type":"Feature","geometry":{"type":"Polygon","coordinates":[[[39.27033,-6.9148],[39.27062,-6.91938],[39.26949,-6.92366],[39.26657,-6.92683],[39.2555,-6.93218],[39.25229,-6.93022],[39.25471,-6.92722],[39.25541,-6.92356],[39.25477,-6.91988],[39.25698,-6.91952],[39.26088,-6.91488],[39.26313,-6.91554],[39.27033,-6.9148]]]},"properties":{"region":"Dar es Salaam","district":"Temeke","ward":"Charambe","ward_code":"172"}},{"type":"Feature","geometry":{"type":"Polygon","coordinates":[[[39.26886,-6.88283],[39.2683,-6.88618],[39.26963,-6.88879],[39.26717,-6.89369],[39.26905,-6.89895],[39.27033,-6.9148],[39.26313,-6.91554],[39.26253,-6.9145],[39.26352,-6.91343],[39.26342,-6.90786],[39.25979,-6.90198],[39.26059,-6.90126],[39.25906,-6.89582],[39.25437,-6.89355],[39.25683,-6.888],[39.26331,-6.88662],[39.26603,-6.88395],[39.26886,-6.88283]]]},"properties":{"region":"Dar es Salaam","district":"Temeke","ward":"Mbagala","ward_code":"182"}},{"type":"Feature","geometry":{"type":"Polygon","coordinates":[[[39.25105,-6.89396],[39.25838,-6.89496],[39.25906,-6.89582],[39.26059,-6.90126],[39.25979,-6.90198],[39.26342,-6.90786],[39.26352,-6.91343],[39.26253,-6.91539],[39.238,-6.90713],[39.24041,-6.90238],[39.24313,-6.90124],[39.24668,-6.89745],[39.2495,-6.89763],[39.25105,-6.89396]]]},"properties":{"region":"Dar es Salaam","district":"Temeke","ward":"Kiburugwa","ward_code":"192"}},{"type":"Feature","geometry":{"type":"MultiPolygon","coordinates":[[[[39.31438,-6.83508],[39.30228,-6.84143],[39.30051,-6.83957],[39.30095,-6.83753],[39.29686,-6.8302],[39.29695,-6.82807],[39.2947,-6.8251],[39.30072,-6.82518],[39.3015,-6.82148],[39.30849,-6.8195],[39.31358,-6.81527],[39.31878,-6.81648],[39.3234,-6.82115],[39.32226,-6.82217],[39.32071,-6.82787],[39.31966,-6.82722],[39.31375,-6.83436],[39.31438,-6.83508]],[[39.31392,-6.83458],[39.31395,-6.83461],[39.31394,-6.83461],[39.31392,-6.83458]]],[[[39.33073,-6.7961],[39.33257,-6.79744],[39.33368,-6.80026],[39.33111,-6.80161],[39.3296,-6.80033],[39.33073,-6.7961]]],[[[39.34142,-6.79472],[39.34071,-6.79299],[39.33468,-6.79101],[39.3325,-6.79151],[39.3313,-6.78792],[39.33242,-6.78724],[39.33284,-6.7827],[39.33408,-6.78275],[39.33728,-6.78577],[39.34414,-6.79509],[39.34142,-6.79472]]]]},"properties":{"region":"Dar es Salaam","district":"Kigamboni","ward":"Kigamboni","ward_code":"012"}},{"type":"Feature","geometry":{"type":"MultiPolygon","coordinates":[[[[39.31394,-6.83461],[39.31395,-6.83461],[39.31392,-6.83458],[39.31394,-6.83461]]],[[[39.31394,-6.83461],[39.31966,-6.82722],[39.32071,-6.82787],[39.32226,-6.82217],[39.3234,-6.82116],[39.33801,-6.82834],[39.34693,-6.82848],[39.34796,-6.82955],[39.3352,-6.8398],[39.32509,-6.83929],[39.32599,-6.84371],[39.3203,-6.84356],[39.31992,-6.84234],[39.31854,-6.84196],[39.30604,-6.84944],[39.30515,-6.84446],[39.30228,-6.84143],[39.31394,-6.83539],[39.31438,-6.83508],[39.31394,-6.83461]]],[[[39.35649,-6.82221],[39.35518,-6.82386],[39.35333,-6.8235],[39.35196,-6.82101],[39.35255,-6.81655],[39.35444,-6.81713],[39.35649,-6.82221]]]]},"properties":{"region":"Dar es Salaam","district":"Kigamboni","ward":"Tungi","ward_code":"022"}},{"type":"Feature","geometry":{"type":"MultiPolygon","coordinates":[[[[39.34796,-6.82955],[39.35363,-6.83894],[39.356,-6.84543],[39.36036,-6.85036],[39.36659,-6.85314],[39.3702,-6.85371],[39.38783,-6.85271],[39.39007,-6.85727],[39.38393,-6.8633],[39.38235,-6.8717],[39.38323,-6.87405],[39.38246,-6.87806],[39.37969,-6.88003],[39.3798,-6.88178],[39.38192,-6.88393],[39.38289,-6.89344],[39.37437,-6.89547],[39.37571,-6.89231],[39.37374,-6.89304],[39.36867,-6.89247],[39.36845,-6.88932],[39.36605,-6.88802],[39.36466,-6.88874],[39.36428,-6.88695],[39.36291,-6.88744],[39.36271,-6.88417],[39.35592,-6.88287],[39.35512,-6.88009],[39.35278,-6.87999],[39.3525,-6.87746],[39.34342,-6.87523],[39.33902,-6.87232],[39.33885,-6.87117],[39.33756,-6.8712],[39.33761,-6.86937],[39.33237,-6.86612],[39.3323,-6.86099],[39.33032,-6.86106],[39.33132,-6.85653],[39.33324,-6.8552],[39.33238,-6.85068],[39.32765,-6.84684],[39.32567,-6.84327],[39.32509,-6.83929],[39.3352,-6.8398],[39.34796,-6.82955]]],[[[39.39687,-6.82595],[39.3946,-6.82842],[39.39154,-6.82665],[39.39439,-6.82196],[39.39676,-6.82134],[39.3976,-6.82316],[39.39687,-6.82595]]],[[[39.40418,-6.81871],[39.40316,-6.82085],[39.39999,-6.8183],[39.39746,-6.81316],[39.39993,-6.81312],[39.4026,-6.81562],[39.40418,-6.81871]]]]},"properties":{"region":"Dar es Salaam","district":"Kigamboni","ward":"Mjimwema","ward_code":"032"}},{"type":"Feature","geometry":{"type":"Polygon","coordinates":[[[39.33749,-6.87095],[39.33885,-6.87117],[39.33902,-6.87232],[39.34342,-6.87523],[39.3525,-6.87746],[39.35278,-6.87999],[39.35512,-6.88009],[39.35592,-6.88287],[39.36271,-6.88417],[39.36291,-6.88744],[39.36428,-6.88695],[39.36514,-6.88899],[39.364,-6.88967],[39.36333,-6.89464],[39.36068,-6.89616],[39.35945,-6.89973],[39.35647,-6.89989],[39.34876,-6.89735],[39.34617,-6.89745],[39.34338,-6.89918],[39.34275,-6.90615],[39.34644,-6.91037],[39.34492,-6.91336],[39.33851,-6.9129],[39.33869,-6.91108],[39.33421,-6.9108],[39.32785,-6.91239],[39.32761,-6.91162],[39.32521,-6.91159],[39.32488,-6.91041],[39.32148,-6.91077],[39.31437,-6.9081],[39.31076,-6.90575],[39.30938,-6.9031],[39.3065,-6.9013],[39.31135,-6.89667],[39.31605,-6.89378],[39.31527,-6.89285],[39.31621,-6.89259],[39.31542,-6.89188],[39.31621,-6.89123],[39.31483,-6.89095],[39.31591,-6.89097],[39.31608,-6.88887],[39.31434,-6.88838],[39.31621,-6.88682],[39.31381,-6.88606],[39.31798,-6.88316],[39.32416,-6.88148],[39.32156,-6.8737],[39.33042,-6.87124],[39.33085,-6.86739],[39.33237,-6.86612],[39.33761,-6.86937],[39.33749,-6.87095]]]},"properties":{"region":"Dar es Salaam","district":"Kigamboni","ward":"Kibada","ward_code":"082"}},{"type":"Feature","geometry":{"type":"Polygon","coordinates":[[[39.32022,-6.8433],[39.32599,-6.84371],[39.32765,-6.84684],[39.33238,-6.85068],[39.33324,-6.8552],[39.33132,-6.85653],[39.33032,-6.86106],[39.3323,-6.86099],[39.33237,-6.86612],[39.33085,-6.86739],[39.33042,-6.87124],[39.32156,-6.8737],[39.32416,-6.88148],[39.31798,-6.88316],[39.31492,-6.88529],[39.31443,-6.8833],[39.31336,-6.88276],[39.31093,-6.88446],[39.30827,-6.88397],[39.30792,-6.88016],[39.30697,-6.87975],[39.30388,-6.88223],[39.3018,-6.88223],[39.29922,-6.88043],[39.29829,-6.87851],[39.29844,-6.8736],[39.3004,-6.87077],[39.29624,-6.86681],[39.30233,-6.86106],[39.30186,-6.8595],[39.30377,-6.85768],[39.30681,-6.85191],[39.30604,-6.84944],[39.31668,-6.84259],[39.31854,-6.84196],[39.32022,-6.8433]]]},"properties":{"region":"Dar es Salaam","district":"Kigamboni","ward":"Vijibweni","ward_code":"092"}},{"type":"Feature","geometry":{"type":"Polygon","coordinates":[[[39.51823,-6.96462],[39.52115,-6.96775],[39.52299,-6.973],[39.53108,-6.97917],[39.53292,-6.98536],[39.53461,-6.98749],[39.53945,-6.98737],[39.53981,-6.98657],[39.54245,-6.98769],[39.54507,-6.98631],[39.54736,-6.98861],[39.54542,-6.99493],[39.54568,-7.00432],[39.5502,-7.01611],[39.55227,-7.01862],[39.54862,-7.0251],[39.54863,-7.02741],[39.54628,-7.02995],[39.54538,-7.03414],[39.54602,-7.03942],[39.53176,-7.0399],[39.52698,-7.03871],[39.52408,-7.03969],[39.5233,-7.03802],[39.51867,-7.03792],[39.51605,-7.03988],[39.50844,-7.0404],[39.50614,-7.04212],[39.49944,-7.04088],[39.48892,-7.04258],[39.48303,-7.03876],[39.47374,-7.03777],[39.46849,-7.03918],[39.4656,-7.03198],[39.46806,-7.02497],[39.4679,-7.01877],[39.47042,-7.00882],[39.46975,-7.00218],[39.46833,-7.00109],[39.4734,-6.99078],[39.47173,-6.9855],[39.47226,-6.98225],[39.48159,-6.97254],[39.49487,-6.96573],[39.49677,-6.96298],[39.5031,-6.96494],[39.50602,-6.9623],[39.51592,-6.96014],[39.51782,-6.9622],[39.51823,-6.96462]]]},"properties":{"region":"Dar es Salaam","district":"Kigamboni","ward":"Kimbiji","ward_code":"052"}},{"type":"Feature","geometry":{"type":"Polygon","coordinates":[[[39.47374,-7.03777],[39.48303,-7.03876],[39.48892,-7.04258],[39.49944,-7.04088],[39.50614,-7.04212],[39.50844,-7.0404],[39.51605,-7.03988],[39.51867,-7.03792],[39.5233,-7.03802],[39.52408,-7.03969],[39.52698,-7.03871],[39.53176,-7.0399],[39.54602,-7.03942],[39.54697,-7.06243],[39.54594,-7.06724],[39.54717,-7.06783],[39.54704,-7.07117],[39.54368,-7.07393],[39.54131,-7.07402],[39.54096,-7.07543],[39.54126,-7.08127],[39.54238,-7.08441],[39.54065,-7.08694],[39.54167,-7.09933],[39.54338,-7.09875],[39.54199,-7.10314],[39.54271,-7.11131],[39.54194,-7.11376],[39.53221,-7.1249],[39.52534,-7.1305],[39.52322,-7.13394],[39.52285,-7.13637],[39.52431,-7.13883],[39.52433,-7.14123],[39.51746,-7.1493],[39.51564,-7.1544],[39.51582,-7.15802],[39.51426,-7.15714],[39.51532,-7.16061],[39.51877,-7.16235],[39.51871,-7.16585],[39.51682,-7.17245],[39.51607,-7.17374],[39.51126,-7.17548],[39.50985,-7.17955],[39.50459,-7.18381],[39.50053,-7.1834],[39.48845,-7.16561],[39.47619,-7.16647],[39.46869,-7.16875],[39.44931,-7.18536],[39.44711,-7.18286],[39.44035,-7.18206],[39.4365,-7.18309],[39.43193,-7.18155],[39.43064,-7.17682],[39.4277,-7.17245],[39.4315,-7.17021],[39.43266,-7.16837],[39.42811,-7.16782],[39.42641,-7.16642],[39.42828,-7.16536],[39.4279,-7.1637],[39.42365,-7.16161],[39.4218,-7.16955],[39.41576,-7.16972],[39.41401,-7.1723],[39.40513,-7.17508],[39.40713,-7.17094],[39.40508,-7.17011],[39.40264,-7.16718],[39.4019,-7.16462],[39.40224,-7.1607],[39.40548,-7.15672],[39.40389,-7.15497],[39.40619,-7.15395],[39.40529,-7.15173],[39.40354,-7.15128],[39.40448,-7.15],[39.40346,-7.14972],[39.40385,-7.1481],[39.40471,-7.1481],[39.4061,-7.14271],[39.4051,-7.1415],[39.40634,-7.14161],[39.40708,-7.13986],[39.40615,-7.13821],[39.40775,-7.13628],[39.41126,-7.13568],[39.41333,-7.13376],[39.41277,-7.13267],[39.41383,-7.1315],[39.41514,-7.13145],[39.41823,-7.12797],[39.4141,-7.11855],[39.4073,-7.11055],[39.40601,-7.10491],[39.40682,-7.10407],[39.40711,-7.0999],[39.40947,-7.09806],[39.41309,-7.09725],[39.41373,-7.09484],[39.41793,-7.09203],[39.42068,-7.08727],[39.42277,-7.08773],[39.4232,-7.08687],[39.42409,-7.08751],[39.42531,-7.08656],[39.42527,-7.0845],[39.42679,-7.08321],[39.42649,-7.08185],[39.42784,-7.08004],[39.42958,-7.07809],[39.43309,-7.07649],[39.43279,-7.0741],[39.43383,-7.07109],[39.43182,-7.06565],[39.43207,-7.06193],[39.42825,-7.05632],[39.4278,-7.05371],[39.43001,-7.04895],[39.43267,-7.04629],[39.43979,-7.05051],[39.44408,-7.05178],[39.44774,-7.05084],[39.4512,-7.04836],[39.45941,-7.05058],[39.46281,-7.04777],[39.46428,-7.04354],[39.46932,-7.04012],[39.46849,-7.03918],[39.47374,-7.03777]]]},"properties":{"region":"Dar es Salaam","district":"Kigamboni","ward":"Pembamnazi","ward_code":"062"}},{"type":"Feature","geometry":{"type":"Polygon","coordinates":[[[39.40858,-6.86228],[39.42248,-6.86534],[39.42319,-6.86405],[39.43234,-6.86747],[39.43781,-6.86759],[39.44199,-6.86976],[39.4462,-6.8687],[39.44706,-6.86671],[39.44646,-6.86485],[39.44789,-6.86433],[39.45259,-6.86717],[39.45845,-6.8688],[39.46295,-6.87175],[39.47108,-6.87298],[39.47146,-6.86934],[39.47341,-6.865],[39.47592,-6.86541],[39.47889,-6.86921],[39.48092,-6.87925],[39.48373,-6.88473],[39.48848,-6.88633],[39.48919,-6.88926],[39.49299,-6.89033],[39.49579,-6.89527],[39.49528,-6.89739],[39.49689,-6.9014],[39.49857,-6.91492],[39.50279,-6.9282],[39.50369,-6.93608],[39.50685,-6.94321],[39.50957,-6.94363],[39.51284,-6.95602],[39.51519,-6.95722],[39.51592,-6.96014],[39.50602,-6.9623],[39.5031,-6.96494],[39.49677,-6.96298],[39.49487,-6.96573],[39.48159,-6.97254],[39.47226,-6.98225],[39.47173,-6.9855],[39.4734,-6.99078],[39.47139,-6.99488],[39.46966,-6.99102],[39.46426,-6.9857],[39.46295,-6.98633],[39.45671,-6.98228],[39.44771,-6.96734],[39.44634,-6.96378],[39.44649,-6.9615],[39.44551,-6.96049],[39.44604,-6.95161],[39.44114,-6.94526],[39.44342,-6.93577],[39.44219,-6.93632],[39.43784,-6.93385],[39.43845,-6.92755],[39.43686,-6.92605],[39.43933,-6.92151],[39.42576,-6.91673],[39.42149,-6.9139],[39.41824,-6.90903],[39.41057,-6.90434],[39.40321,-6.9026],[39.40176,-6.90402],[39.39821,-6.9036],[39.39714,-6.90595],[39.39741,-6.90787],[39.38591,-6.90926],[39.3825,-6.90883],[39.38186,-6.89872],[39.38494,-6.8954],[39.38289,-6.89344],[39.38192,-6.88393],[39.3798,-6.88178],[39.37969,-6.88003],[39.38246,-6.87806],[39.38323,-6.87405],[39.38235,-6.8717],[39.38393,-6.8633],[39.39007,-6.85727],[39.38783,-6.85271],[39.39004,-6.8513],[39.39123,-6.84906],[39.39218,-6.84906],[39.40252,-6.85921],[39.40858,-6.86228]]]},"properties":{"region":"Dar es Salaam","district":"Kigamboni","ward":"Somangila","ward_code":"042"}},{"type":"Feature","geometry":{"type":"Polygon","coordinates":[[[39.36605,-6.88802],[39.36845,-6.88932],[39.36867,-6.89247],[39.37374,-6.89304],[39.37571,-6.89231],[39.37437,-6.89547],[39.38098,-6.89342],[39.38461,-6.89435],[39.38477,-6.89588],[39.38186,-6.89872],[39.3825,-6.90883],[39.38591,-6.90926],[39.39741,-6.90787],[39.39714,-6.90595],[39.39821,-6.9036],[39.40176,-6.90402],[39.40321,-6.9026],[39.41057,-6.90434],[39.41824,-6.90903],[39.42149,-6.9139],[39.42576,-6.91673],[39.43933,-6.92151],[39.43686,-6.92605],[39.43845,-6.92755],[39.43784,-6.93385],[39.44219,-6.93632],[39.44342,-6.93577],[39.44114,-6.94526],[39.44604,-6.95161],[39.44551,-6.96049],[39.44649,-6.9615],[39.44634,-6.96378],[39.44771,-6.96734],[39.45671,-6.98228],[39.46295,-6.98633],[39.46426,-6.9857],[39.46966,-6.99102],[39.47139,-6.99488],[39.46833,-7.00109],[39.46975,-7.00218],[39.47042,-7.00882],[39.4679,-7.01877],[39.46806,-7.02497],[39.4656,-7.03198],[39.46932,-7.04012],[39.46428,-7.04354],[39.46281,-7.04777],[39.45981,-7.05048],[39.4512,-7.04836],[39.44774,-7.05084],[39.44347,-7.05164],[39.43979,-7.05051],[39.43267,-7.04629],[39.43319,-7.04402],[39.41899,-7.03854],[39.41561,-7.04421],[39.41509,-7.04716],[39.41671,-7.05096],[39.41523,-7.05275],[39.40193,-7.05643],[39.39107,-7.0471],[39.39854,-7.04648],[39.40131,-7.04076],[39.40364,-7.03873],[39.40184,-7.0318],[39.40364,-7.0253],[39.40436,-7.01458],[39.40361,-7.01169],[39.40505,-7.00926],[39.40535,-7.00406],[39.40372,-6.99845],[39.40596,-6.99193],[39.4058,-6.98787],[39.40081,-6.9852],[39.39601,-6.98808],[39.39276,-6.99152],[39.39105,-6.99075],[39.38907,-6.99179],[39.38727,-6.98838],[39.38896,-6.97838],[39.38776,-6.97121],[39.37743,-6.96396],[39.37615,-6.9592],[39.37635,-6.95133],[39.37499,-6.94915],[39.36866,-6.95037],[39.36786,-6.95212],[39.35826,-6.95721],[39.35437,-6.96109],[39.354,-6.95338],[39.35081,-6.94335],[39.35061,-6.93722],[39.35174,-6.93485],[39.34882,-6.93358],[39.34809,-6.93202],[39.35025,-6.93002],[39.35068,-6.92768],[39.35191,-6.92709],[39.35031,-6.9262],[39.34829,-6.92058],[39.34457,-6.91538],[39.34644,-6.91037],[39.34262,-6.90537],[39.34338,-6.89918],[39.34617,-6.89745],[39.34876,-6.89735],[39.35647,-6.89989],[39.35945,-6.89973],[39.36068,-6.89616],[39.36333,-6.89464],[39.3643,-6.88922],[39.36605,-6.88802]]]},"properties":{"region":"Dar es Salaam","district":"Kigamboni","ward":"Kisarawe II","ward_code":"072"}},{"type":"Feature","geometry":{"type":"Polygon","coordinates":[[[39.20987,-6.76718],[39.21672,-6.76806],[39.22224,-6.77239],[39.21414,-6.78312],[39.20969,-6.78731],[39.20885,-6.79034],[39.21138,-6.78858],[39.21185,-6.78946],[39.21372,-6.78883],[39.2149,-6.79008],[39.21711,-6.78853],[39.21975,-6.79159],[39.22104,-6.79062],[39.22536,-6.79253],[39.22531,-6.79487],[39.2264,-6.79579],[39.22489,-6.802],[39.22016,-6.79988],[39.21867,-6.80408],[39.2159,-6.80069],[39.21401,-6.80278],[39.21322,-6.80568],[39.20718,-6.80178],[39.20643,-6.79892],[39.20721,-6.79543],[39.20525,-6.79667],[39.20405,-6.79443],[39.20064,-6.79465],[39.20021,-6.7937],[39.19856,-6.79367],[39.19659,-6.79482],[39.19659,-6.79598],[39.19491,-6.79621],[39.19519,-6.79827],[39.19433,-6.79849],[39.19394,-6.79947],[39.19322,-6.79989],[39.19267,-6.80005],[39.1926,-6.79829],[39.19061,-6.79642],[39.19217,-6.79374],[39.19252,-6.78382],[39.18823,-6.77964],[39.19253,-6.77537],[39.18998,-6.77392],[39.1932,-6.77503],[39.19586,-6.78024],[39.19979,-6.7773],[39.20041,-6.77494],[39.19907,-6.77327],[39.20034,-6.77206],[39.20215,-6.77185],[39.20987,-6.76718]]]},"properties":{"region":"Dar es Salaam","district":"Ubungo","ward":"Ubungo","ward_code":"012"}},{"type":"Feature","geometry":{"type":"Polygon","coordinates":[[[39.23242,-6.78283],[39.2336,-6.78275],[39.23319,-6.78458],[39.23479,-6.78547],[39.23447,-6.78754],[39.23112,-6.78851],[39.22718,-6.79221],[39.22512,-6.79262],[39.22104,-6.79062],[39.21975,-6.79159],[39.21711,-6.78853],[39.2149,-6.79008],[39.21372,-6.78883],[39.21185,-6.78946],[39.21138,-6.78858],[39.20885,-6.79034],[39.20969,-6.78731],[39.21414,-6.78312],[39.22362,-6.7707],[39.22424,-6.77253],[39.22843,-6.77706],[39.22955,-6.78009],[39.23242,-6.78283]]]},"properties":{"region":"Dar es Salaam","district":"Ubungo","ward":"Sinza","ward_code":"022"}},{"type":"Feature","geometry":{"type":"Polygon","coordinates":[[[39.23414,-6.78753],[39.23624,-6.78825],[39.23735,-6.79195],[39.23548,-6.79565],[39.23493,-6.79927],[39.23608,-6.7996],[39.23559,-6.8027],[39.23428,-6.80258],[39.23419,-6.80395],[39.23241,-6.80529],[39.22925,-6.80409],[39.22951,-6.80294],[39.22489,-6.802],[39.22641,-6.79595],[39.22531,-6.79487],[39.22536,-6.79253],[39.22835,-6.79163],[39.23112,-6.78851],[39.23414,-6.78753]]]},"properties":{"region":"Dar es Salaam","district":"Ubungo","ward":"Manzese","ward_code":"032"}},{"type":"Feature","geometry":{"type":"Polygon","coordinates":[[[39.23608,-6.7996],[39.25113,-6.80496],[39.24997,-6.80738],[39.25142,-6.80806],[39.25135,-6.8093],[39.24747,-6.81188],[39.23241,-6.80529],[39.23419,-6.80395],[39.23428,-6.80258],[39.23559,-6.8027],[39.23608,-6.7996]]]},"properties":{"region":"Dar es Salaam","district":"Ubungo","ward":"Makurumla","ward_code":"042"}},{"type":"Feature","geometry":{"type":"Polygon","coordinates":[[[39.23605,-6.807],[39.24794,-6.81195],[39.24984,-6.81074],[39.2541,-6.81444],[39.24962,-6.81338],[39.24464,-6.81665],[39.2398,-6.81777],[39.23866,-6.81669],[39.23911,-6.81561],[39.23787,-6.8156],[39.23444,-6.81024],[39.23605,-6.807]]]},"properties":{"region":"Dar es Salaam","district":"Ubungo","ward":"Mburahati","ward_code":"052"}},{"type":"Feature","geometry":{"type":"Polygon","coordinates":[[[39.22016,-6.79988],[39.22951,-6.80294],[39.22925,-6.80409],[39.23605,-6.807],[39.23463,-6.81141],[39.23657,-6.81293],[39.23787,-6.8156],[39.23911,-6.81561],[39.23866,-6.81669],[39.2398,-6.81777],[39.23372,-6.81866],[39.23211,-6.81759],[39.22701,-6.81982],[39.21745,-6.81303],[39.21322,-6.80568],[39.21413,-6.8026],[39.2159,-6.80069],[39.21867,-6.80408],[39.22016,-6.79988]]]},"properties":{"region":"Dar es Salaam","district":"Ubungo","ward":"Mabibo","ward_code":"062"}},{"type":"Feature","geometry":{"type":"Polygon","coordinates":[[[39.19908,-6.79373],[39.20064,-6.79465],[39.20405,-6.79443],[39.20525,-6.79667],[39.20721,-6.79543],[39.20643,-6.79892],[39.20718,-6.80178],[39.21388,-6.80628],[39.21838,-6.81399],[39.22836,-6.82119],[39.22608,-6.82126],[39.22206,-6.8178],[39.21969,-6.81745],[39.21069,-6.81767],[39.2098,-6.81922],[39.20665,-6.82059],[39.20268,-6.81885],[39.19986,-6.82043],[39.19953,-6.81924],[39.19838,-6.81922],[39.19681,-6.82085],[39.19456,-6.81869],[39.19164,-6.81775],[39.19049,-6.81595],[39.18906,-6.816],[39.18796,-6.81464],[39.18826,-6.81349],[39.18451,-6.81361],[39.18139,-6.80638],[39.18175,-6.80303],[39.18419,-6.8035],[39.18485,-6.80032],[39.18596,-6.80028],[39.18699,-6.80172],[39.18894,-6.80026],[39.19241,-6.80041],[39.19519,-6.79827],[39.19491,-6.79621],[39.19659,-6.79598],[39.19659,-6.79482],[39.19908,-6.79373]]]},"properties":{"region":"Dar es Salaam","district":"Ubungo","ward":"Makuburi","ward_code":"072"}},{"type":"Feature","geometry":{"type":"Polygon","coordinates":[[[39.17384,-6.77855],[39.17805,-6.77996],[39.18614,-6.78163],[39.18823,-6.77964],[39.19204,-6.78271],[39.19269,-6.78982],[39.19176,-6.79216],[39.19211,-6.79407],[39.19061,-6.79642],[39.1932,-6.79989],[39.18894,-6.80026],[39.18699,-6.80172],[39.18596,-6.80028],[39.18485,-6.80032],[39.18419,-6.8035],[39.18175,-6.80303],[39.1811,-6.80502],[39.18312,-6.81055],[39.18091,-6.80973],[39.17134,-6.81619],[39.16741,-6.82065],[39.16556,-6.82122],[39.16178,-6.82018],[39.15769,-6.82089],[39.15468,-6.82257],[39.15148,-6.82248],[39.15112,-6.8255],[39.14938,-6.8248],[39.14985,-6.8271],[39.14776,-6.82816],[39.1422,-6.827],[39.1411,-6.82611],[39.14158,-6.82248],[39.14471,-6.81603],[39.14348,-6.81367],[39.1481,-6.80854],[39.14869,-6.80541],[39.15314,-6.80418],[39.15406,-6.80305],[39.15607,-6.80278],[39.15647,-6.80347],[39.158,-6.80267],[39.16001,-6.79867],[39.1618,-6.79854],[39.16229,-6.79682],[39.16694,-6.79597],[39.17126,-6.79855],[39.17195,-6.79728],[39.17381,-6.79783],[39.17679,-6.79439],[39.17829,-6.7946],[39.177,-6.79092],[39.17751,-6.78734],[39.17316,-6.78687],[39.17173,-6.78386],[39.17384,-6.77855]]]},"properties":{"region":"Dar es Salaam","district":"Ubungo","ward":"Kimara","ward_code":"082"}},{"type":"Feature","geometry":{"type":"Polygon","coordinates":[[[39.16038,-6.75345],[39.1598,-6.75648],[39.16141,-6.75762],[39.16176,-6.76313],[39.16329,-6.76615],[39.1627,-6.77377],[39.16475,-6.77725],[39.16801,-6.77713],[39.17069,-6.7759],[39.17118,-6.77673],[39.17448,-6.77648],[39.17173,-6.78386],[39.17316,-6.78687],[39.17751,-6.78734],[39.177,-6.79092],[39.17829,-6.7946],[39.17679,-6.79439],[39.17381,-6.79783],[39.17195,-6.79728],[39.17126,-6.79855],[39.16694,-6.79597],[39.16229,-6.79682],[39.1618,-6.79854],[39.16001,-6.79867],[39.158,-6.80267],[39.15647,-6.80347],[39.15607,-6.80278],[39.15406,-6.80305],[39.15314,-6.80418],[39.14869,-6.80541],[39.1481,-6.80854],[39.14348,-6.81367],[39.14471,-6.81603],[39.1425,-6.81955],[39.1411,-6.82611],[39.14553,-6.8279],[39.14737,-6.83039],[39.14648,-6.83242],[39.14367,-6.83202],[39.14121,-6.82974],[39.13519,-6.82869],[39.13195,-6.83],[39.13197,-6.83201],[39.12957,-6.8341],[39.12622,-6.83403],[39.12416,-6.83112],[39.12091,-6.83068],[39.12232,-6.82612],[39.12248,-6.82114],[39.12569,-6.81904],[39.12643,-6.81509],[39.1313,-6.81139],[39.1324,-6.80907],[39.1386,-6.80678],[39.13524,-6.80154],[39.13419,-6.79795],[39.13479,-6.79604],[39.13334,-6.79539],[39.13422,-6.79423],[39.13376,-6.79119],[39.13133,-6.78944],[39.12852,-6.78491],[39.12591,-6.7835],[39.12318,-6.77781],[39.1253,-6.77704],[39.12567,-6.77561],[39.1263,-6.77618],[39.12657,-6.77156],[39.12857,-6.77091],[39.13071,-6.767],[39.13144,-6.7673],[39.13263,-6.76577],[39.1343,-6.76695],[39.13556,-6.76471],[39.14021,-6.7638],[39.14632,-6.75951],[39.14899,-6.76061],[39.14995,-6.75805],[39.15345,-6.75764],[39.15484,-6.75856],[39.15495,-6.75639],[39.15696,-6.75523],[39.1563,-6.75418],[39.15706,-6.75379],[39.15863,-6.75464],[39.16038,-6.75345]]]},"properties":{"region":"Dar es Salaam","district":"Ubungo","ward":"Saranga","ward_code":"092"}},{"type":"Feature","geometry":{"type":"Polygon","coordinates":[[[39.13426,-6.79753],[39.13683,-6.805],[39.1386,-6.80684],[39.1324,-6.80907],[39.1313,-6.81139],[39.12739,-6.81372],[39.12549,-6.81713],[39.12569,-6.81904],[39.12248,-6.82114],[39.12232,-6.82612],[39.12091,-6.83068],[39.1204,-6.82904],[39.11803,-6.82886],[39.11652,-6.82767],[39.11428,-6.82807],[39.11164,-6.82464],[39.11068,-6.81901],[39.10844,-6.81762],[39.10788,-6.81591],[39.10453,-6.81526],[39.10388,-6.81434],[39.10473,-6.81071],[39.10094,-6.80919],[39.10008,-6.8075],[39.10078,-6.80518],[39.09842,-6.80463],[39.09752,-6.80313],[39.09696,-6.79774],[39.09449,-6.7982],[39.09521,-6.79502],[39.09461,-6.79207],[39.11613,-6.78431],[39.12398,-6.78305],[39.12852,-6.78491],[39.13133,-6.78944],[39.13376,-6.79119],[39.13422,-6.79423],[39.13334,-6.79539],[39.13479,-6.79604],[39.13426,-6.79753]]]},"properties":{"region":"Dar es Salaam","district":"Ubungo","ward":"Msigani","ward_code":"102"}},{"type":"Feature","geometry":{"type":"Polygon","coordinates":[[[39.06643,-6.76049],[39.07316,-6.76206],[39.07263,-6.76613],[39.07468,-6.76985],[39.07766,-6.76974],[39.08834,-6.7725],[39.0895,-6.77797],[39.08705,-6.77926],[39.08739,-6.78232],[39.0867,-6.78296],[39.08784,-6.78501],[39.08725,-6.78742],[39.08868,-6.78805],[39.09168,-6.79345],[39.09509,-6.79241],[39.09449,-6.7982],[39.09696,-6.79774],[39.09752,-6.80313],[39.09842,-6.80463],[39.10078,-6.80518],[39.10008,-6.8075],[39.10094,-6.80919],[39.10473,-6.81071],[39.10388,-6.81434],[39.10453,-6.81526],[39.10788,-6.81591],[39.10844,-6.81762],[39.11085,-6.81925],[39.11243,-6.82607],[39.11428,-6.82807],[39.11652,-6.82767],[39.11803,-6.82886],[39.1204,-6.82904],[39.12091,-6.83068],[39.11956,-6.83566],[39.11719,-6.83855],[39.11464,-6.84487],[39.11232,-6.84651],[39.10992,-6.85564],[39.10899,-6.86799],[39.11341,-6.87636],[39.11046,-6.87437],[39.10218,-6.87466],[39.10164,-6.87333],[39.10075,-6.87409],[39.09882,-6.87301],[39.0993,-6.87173],[39.09773,-6.87002],[39.09872,-6.86984],[39.09956,-6.8648],[39.09748,-6.86222],[39.09546,-6.86281],[39.09585,-6.86215],[39.09465,-6.86176],[39.09355,-6.85943],[39.08853,-6.86126],[39.08051,-6.85781],[39.07705,-6.85465],[39.07497,-6.85568],[39.07212,-6.85559],[39.07069,-6.85447],[39.06581,-6.85413],[39.06519,-6.85305],[39.06195,-6.8523],[39.06023,-6.85081],[39.05407,-6.84237],[39.05479,-6.84076],[39.0587,-6.84015],[39.05847,-6.83545],[39.05964,-6.83318],[39.05925,-6.83097],[39.06015,-6.82842],[39.05951,-6.82459],[39.05833,-6.82317],[39.05768,-6.81607],[39.05497,-6.81137],[39.05259,-6.81089],[39.05143,-6.80959],[39.05234,-6.80026],[39.05374,-6.79695],[39.05258,-6.7932],[39.05419,-6.79008],[39.06015,-6.79016],[39.06192,-6.78645],[39.06124,-6.7817],[39.05841,-6.77935],[39.06125,-6.77395],[39.06151,-6.77026],[39.05994,-6.76915],[39.06021,-6.7679],[39.05777,-6.76492],[39.06035,-6.76396],[39.06121,-6.76254],[39.06643,-6.76049]]]},"properties":{"region":"Dar es Salaam","district":"Ubungo","ward":"Kwembe","ward_code":"112"}},{"type":"Feature","geometry":{"type":"Polygon","coordinates":[[[39.04492,-6.74335],[39.04855,-6.74352],[39.05048,-6.74696],[39.0527,-6.74761],[39.05243,-6.74956],[39.05371,-6.74951],[39.05551,-6.75255],[39.05537,-6.7547],[39.05645,-6.75454],[39.05467,-6.75619],[39.05586,-6.75844],[39.0545,-6.75915],[39.05844,-6.76286],[39.0574,-6.76449],[39.06021,-6.7679],[39.05994,-6.76915],[39.06151,-6.77026],[39.06125,-6.77395],[39.05841,-6.77935],[39.06124,-6.7817],[39.062,-6.78474],[39.06167,-6.78758],[39.06015,-6.79016],[39.04911,-6.79007],[39.03382,-6.79192],[39.01978,-6.79041],[39.00984,-6.79129],[39.00705,-6.79057],[39.0081,-6.7882],[39.00958,-6.78735],[39.0103,-6.78429],[39.01237,-6.78339],[39.01131,-6.78037],[39.00847,-6.78105],[39.00835,-6.77849],[39.01179,-6.7758],[39.01285,-6.77696],[39.01628,-6.77622],[39.01789,-6.77702],[39.01821,-6.77551],[39.01987,-6.77563],[39.01993,-6.77387],[39.02137,-6.77411],[39.0259,-6.77113],[39.02721,-6.77173],[39.02674,-6.77011],[39.02846,-6.76807],[39.02737,-6.76601],[39.02793,-6.76533],[39.02839,-6.76617],[39.02959,-6.76648],[39.02988,-6.76561],[39.03106,-6.76632],[39.02976,-6.76441],[39.03077,-6.76242],[39.03046,-6.76052],[39.02932,-6.75962],[39.02769,-6.76047],[39.02782,-6.75881],[39.03019,-6.75382],[39.03184,-6.75354],[39.03353,-6.75027],[39.03587,-6.74904],[39.03563,-6.74639],[39.03822,-6.74705],[39.04103,-6.74365],[39.04383,-6.74259],[39.04422,-6.74023],[39.04492,-6.74335]]]},"properties":{"region":"Dar es Salaam","district":"Ubungo","ward":"Kibamba","ward_code":"122"}},{"type":"Feature","geometry":{"type":"Polygon","coordinates":[[[39.06106,-6.67346],[39.06648,-6.67634],[39.06871,-6.67955],[39.06906,-6.68245],[39.07348,-6.67874],[39.08134,-6.68007],[39.0829,-6.6825],[39.08154,-6.68382],[39.08485,-6.68538],[39.09331,-6.69787],[39.09456,-6.69628],[39.09852,-6.69728],[39.10379,-6.69421],[39.10832,-6.69525],[39.10826,-6.69457],[39.11541,-6.69162],[39.11873,-6.69308],[39.11891,-6.69559],[39.12028,-6.69787],[39.11933,-6.70062],[39.12129,-6.70444],[39.11971,-6.70691],[39.11628,-6.70952],[39.11535,-6.71266],[39.11599,-6.71603],[39.11502,-6.71835],[39.11286,-6.7173],[39.10934,-6.72446],[39.11134,-6.72748],[39.11042,-6.73537],[39.11137,-6.73613],[39.10978,-6.73924],[39.11122,-6.74183],[39.11509,-6.74191],[39.11797,-6.74345],[39.12023,-6.74304],[39.1225,-6.74449],[39.12683,-6.74528],[39.12868,-6.74494],[39.12741,-6.747],[39.12762,-6.74923],[39.12939,-6.75013],[39.12889,-6.75183],[39.13096,-6.75273],[39.133,-6.7615],[39.13601,-6.76206],[39.13677,-6.7644],[39.13474,-6.76529],[39.1343,-6.76695],[39.13314,-6.76557],[39.13144,-6.7673],[39.13071,-6.767],[39.12897,-6.77052],[39.12657,-6.77156],[39.1263,-6.77618],[39.12567,-6.77561],[39.1253,-6.77704],[39.12318,-6.77781],[39.12591,-6.7835],[39.12398,-6.78305],[39.11613,-6.78431],[39.09168,-6.79345],[39.08713,-6.78679],[39.08784,-6.78501],[39.0867,-6.78296],[39.08739,-6.78232],[39.08705,-6.77926],[39.0895,-6.77797],[39.08822,-6.77236],[39.07766,-6.76974],[39.07468,-6.76985],[39.07263,-6.76613],[39.07316,-6.76206],[39.0696,-6.76168],[39.06872,-6.76071],[39.06643,-6.76049],[39.05773,-6.76494],[39.05844,-6.76286],[39.0545,-6.75915],[39.05586,-6.75844],[39.05467,-6.75619],[39.05645,-6.75454],[39.05537,-6.7547],[39.05551,-6.75255],[39.05371,-6.74951],[39.05243,-6.74956],[39.0527,-6.74761],[39.05048,-6.74696],[39.04855,-6.74352],[39.04492,-6.74335],[39.04438,-6.73924],[39.04688,-6.73777],[39.04544,-6.73301],[39.05059,-6.73076],[39.04949,-6.72826],[39.05208,-6.72652],[39.05198,-6.72419],[39.05619,-6.72133],[39.05894,-6.7232],[39.06067,-6.72092],[39.06015,-6.71625],[39.0577,-6.71524],[39.0586,-6.71133],[39.06128,-6.71015],[39.06142,-6.70709],[39.05996,-6.70446],[39.06144,-6.7019],[39.05989,-6.69851],[39.06197,-6.68835],[39.05832,-6.68602],[39.06062,-6.68204],[39.05949,-6.68008],[39.06045,-6.67734],[39.05927,-6.67489],[39.06106,-6.67346]]]},"properties":{"region":"Dar es Salaam","district":"Ubungo","ward":"Mbezi","ward_code":"132"}},{"type":"Feature","geometry":{"type":"Polygon","coordinates":[[[39.16213,-6.69026],[39.16266,-6.69252],[39.16442,-6.69311],[39.16359,-6.69502],[39.16516,-6.69765],[39.16623,-6.69782],[39.16969,-6.70262],[39.17213,-6.70384],[39.1729,-6.70828],[39.17892,-6.70836],[39.1822,-6.71164],[39.18437,-6.71178],[39.18686,-6.71],[39.19116,-6.7123],[39.1931,-6.71212],[39.1939,-6.72771],[39.19347,-6.74734],[39.19186,-6.74568],[39.1907,-6.74639],[39.18964,-6.74486],[39.18813,-6.74627],[39.18905,-6.74679],[39.18612,-6.74954],[39.18407,-6.74771],[39.18417,-6.75003],[39.18277,-6.75042],[39.18072,-6.75359],[39.18129,-6.75473],[39.17977,-6.75559],[39.17957,-6.75766],[39.1777,-6.75849],[39.17584,-6.76189],[39.17385,-6.75891],[39.1723,-6.75957],[39.16988,-6.7589],[39.17056,-6.75711],[39.16893,-6.75569],[39.16501,-6.75678],[39.16496,-6.75758],[39.16149,-6.75696],[39.16076,-6.75369],[39.15964,-6.75338],[39.15863,-6.75464],[39.1563,-6.75418],[39.15696,-6.75523],[39.15495,-6.75639],[39.15484,-6.75856],[39.15345,-6.75764],[39.14995,-6.75805],[39.14899,-6.76061],[39.14632,-6.75951],[39.14193,-6.76292],[39.13677,-6.7644],[39.13523,-6.76132],[39.133,-6.7615],[39.13096,-6.75273],[39.12889,-6.75183],[39.12939,-6.75013],[39.12762,-6.74923],[39.12741,-6.747],[39.12868,-6.74494],[39.1225,-6.74449],[39.12023,-6.74304],[39.1169,-6.7433],[39.11509,-6.74191],[39.11067,-6.74122],[39.10978,-6.73924],[39.11137,-6.73613],[39.11042,-6.73537],[39.11134,-6.72748],[39.10934,-6.72446],[39.11105,-6.7197],[39.11286,-6.7173],[39.11502,-6.71835],[39.11599,-6.71603],[39.11535,-6.71266],[39.11628,-6.70952],[39.12014,-6.70603],[39.12489,-6.70897],[39.12693,-6.7131],[39.13136,-6.71436],[39.13562,-6.71049],[39.13536,-6.70951],[39.13712,-6.70738],[39.13706,-6.7053],[39.13857,-6.70623],[39.13962,-6.70545],[39.14296,-6.70897],[39.14827,-6.71109],[39.15258,-6.71001],[39.15306,-6.70551],[39.15427,-6.70342],[39.15444,-6.6984],[39.15707,-6.69744],[39.1609,-6.69397],[39.16213,-6.69026]]]},"properties":{"region":"Dar es Salaam","district":"Ubungo","ward":"Goba","ward_code":"142"}}]}