{"type":"FeatureCollection","features":[{"type":"Feature","geometry":{"type":"MultiPolygon","coordinates":[[[[39.66255,-5.11408],[39.66402,-5.11564],[39.66044,-5.11487],[39.66255,-5.11408]]],[[[39.63604,-5.10245],[39.63492,-5.10762],[39.63635,-5.11121],[39.6415,-5.11468],[39.64591,-5.1141],[39.63791,-5.11938],[39.63509,-5.12305],[39.63361,-5.12788],[39.63262,-5.12574],[39.63693,-5.11645],[39.63658,-5.11563],[39.63536,-5.11575],[39.63531,-5.11293],[39.63436,-5.1131],[39.63342,-5.10999],[39.63163,-5.10849],[39.63161,-5.10609],[39.63031,-5.10791],[39.63011,-5.10635],[39.63026,-5.10528],[39.63118,-5.10535],[39.63154,-5.10378],[39.6308,-5.10301],[39.63194,-5.10236],[39.63397,-5.09533],[39.63604,-5.10245]]],[[[39.64028,-5.09766],[39.63944,-5.09766],[39.63943,-5.0944],[39.64041,-5.09463],[39.64028,-5.09766]]],[[[39.66457,-5.00808],[39.66248,-5.01899],[39.66028,-5.02078],[39.65748,-5.03057],[39.65804,-5.03371],[39.65636,-5.03507],[39.65767,-5.03804],[39.65565,-5.04282],[39.65555,-5.04675],[39.65294,-5.05193],[39.65239,-5.05594],[39.64855,-5.06212],[39.64842,-5.06456],[39.64626,-5.06823],[39.6469,-5.06909],[39.64389,-5.07479],[39.64443,-5.07813],[39.643,-5.08079],[39.64491,-5.08214],[39.64473,-5.08448],[39.64362,-5.08557],[39.64516,-5.08751],[39.64232,-5.0891],[39.64309,-5.09059],[39.64161,-5.09104],[39.63992,-5.09064],[39.63773,-5.08827],[39.63542,-5.09102],[39.63547,-5.09347],[39.63466,-5.09245],[39.63519,-5.08862],[39.6335,-5.08465],[39.63354,-5.08233],[39.63525,-5.07685],[39.63734,-5.07409],[39.63822,-5.06739],[39.6407,-5.06188],[39.64172,-5.05594],[39.64249,-5.05568],[39.64276,-5.05019],[39.64433,-5.0473],[39.6442,-5.04356],[39.64638,-5.03921],[39.64662,-5.03389],[39.64854,-5.0311],[39.64874,-5.02763],[39.65476,-5.01956],[39.6564,-5.01314],[39.65868,-5.01068],[39.65927,-5.00766],[39.66457,-5.00808]]]]},"properties":{"region":"Kaskazini Pemba","district":"Wete","ward":"Fundo","ward_code":"031"}},{"type":"Feature","geometry":{"type":"MultiPolygon","coordinates":[[[[39.69755,-4.97482],[39.69877,-4.98136],[39.70189,-4.9814],[39.70492,-4.97916],[39.70845,-4.98083],[39.70888,-4.97925],[39.71095,-4.97952],[39.71083,-4.98186],[39.71218,-4.98333],[39.71261,-4.9863],[39.71559,-4.98702],[39.71376,-4.99109],[39.713,-4.99847],[39.70159,-4.99953],[39.6975,-5.00164],[39.69073,-5.00158],[39.69011,-5.00253],[39.69106,-5.00363],[39.68841,-5.00386],[39.68736,-5.00604],[39.68623,-5.00538],[39.68542,-5.00615],[39.68326,-5.00379],[39.68275,-5.00515],[39.68057,-5.00545],[39.67941,-5.00418],[39.68218,-5.00082],[39.68124,-4.99753],[39.68042,-4.99782],[39.67854,-4.99617],[39.6796,-4.99224],[39.67623,-4.98819],[39.67573,-4.98628],[39.67649,-4.98348],[39.67961,-4.98018],[39.68241,-4.9794],[39.68456,-4.98109],[39.68896,-4.98246],[39.69042,-4.98094],[39.68963,-4.9785],[39.69107,-4.97696],[39.69524,-4.97659],[39.69755,-4.97482]]],[[[39.66998,-4.96113],[39.67611,-4.96137],[39.67468,-4.96298],[39.6763,-4.96776],[39.67797,-4.96387],[39.67818,-4.97032],[39.67676,-4.96824],[39.67604,-4.9687],[39.67559,-4.97224],[39.67203,-4.97655],[39.67013,-4.98227],[39.66973,-4.98994],[39.66738,-4.9886],[39.66663,-4.98928],[39.66594,-4.99599],[39.66832,-5.00179],[39.66367,-5.00538],[39.66246,-5.00476],[39.66182,-5.00202],[39.66001,-5.00127],[39.6577,-4.99526],[39.65729,-4.98721],[39.65942,-4.98423],[39.66105,-4.97626],[39.66361,-4.9743],[39.66525,-4.97013],[39.66736,-4.96823],[39.66998,-4.96113]]]]},"properties":{"region":"Kaskazini Pemba","district":"Wete","ward":"Gando","ward_code":"121"}},{"type":"Feature","geometry":{"type":"Polygon","coordinates":[[[39.71166,-5.0246],[39.71699,-5.02415],[39.71577,-5.03042],[39.71895,-5.03877],[39.72166,-5.0389],[39.72477,-5.03741],[39.72662,-5.03878],[39.72558,-5.04465],[39.72272,-5.04481],[39.71623,-5.05581],[39.71416,-5.05759],[39.71258,-5.05688],[39.71118,-5.05981],[39.70931,-5.06028],[39.70702,-5.05852],[39.70576,-5.0586],[39.70709,-5.05772],[39.70817,-5.05429],[39.71185,-5.05491],[39.71116,-5.05331],[39.71241,-5.05212],[39.71143,-5.05206],[39.71089,-5.05348],[39.71111,-5.05448],[39.70878,-5.05409],[39.70949,-5.05418],[39.70933,-5.05317],[39.70609,-5.05628],[39.70595,-5.055],[39.69814,-5.05281],[39.69866,-5.04869],[39.69606,-5.04655],[39.69694,-5.04457],[39.69826,-5.04423],[39.69868,-5.04521],[39.69945,-5.04489],[39.70069,-5.04295],[39.69908,-5.04483],[39.69892,-5.04393],[39.69654,-5.04419],[39.69546,-5.04623],[39.69808,-5.04993],[39.69708,-5.05041],[39.69716,-5.05353],[39.69202,-5.05133],[39.67928,-5.04869],[39.67174,-5.04527],[39.67075,-5.04168],[39.67194,-5.04106],[39.67384,-5.04106],[39.67703,-5.04388],[39.6777,-5.04328],[39.67985,-5.04049],[39.68056,-5.03773],[39.6813,-5.03791],[39.68089,-5.037],[39.68181,-5.0342],[39.68298,-5.03361],[39.68265,-5.0326],[39.68491,-5.0299],[39.68689,-5.02963],[39.68791,-5.03056],[39.68724,-5.03499],[39.69189,-5.03426],[39.69328,-5.03092],[39.69473,-5.03194],[39.69307,-5.02819],[39.69502,-5.01999],[39.70573,-5.02155],[39.71166,-5.0246]]]},"properties":{"region":"Kaskazini Pemba","district":"Wete","ward":"Ukunjwi","ward_code":"131"}},{"type":"Feature","geometry":{"type":"Polygon","coordinates":[[[39.713,-4.99847],[39.71391,-5.00826],[39.71629,-5.00908],[39.71516,-5.01769],[39.71726,-5.02162],[39.71699,-5.02415],[39.71166,-5.0246],[39.70573,-5.02155],[39.69502,-5.01999],[39.6946,-5.01876],[39.69558,-5.01817],[39.69592,-5.0155],[39.69228,-5.01318],[39.69045,-5.00915],[39.68852,-5.00778],[39.68535,-5.00729],[39.68647,-5.0057],[39.68774,-5.00687],[39.68869,-5.00413],[39.69114,-5.00395],[39.69146,-5.00298],[39.69047,-5.00204],[39.6913,-5.00164],[39.6975,-5.00164],[39.70159,-4.99953],[39.713,-4.99847]]]},"properties":{"region":"Kaskazini Pemba","district":"Wete","ward":"Junguni","ward_code":"271"}},{"type":"Feature","geometry":{"type":"Polygon","coordinates":[[[39.77484,-5.01483],[39.77462,-5.01704],[39.77566,-5.01878],[39.77477,-5.02257],[39.77571,-5.02514],[39.77831,-5.02587],[39.77967,-5.03072],[39.77919,-5.03665],[39.78349,-5.03879],[39.78333,-5.04013],[39.77939,-5.0428],[39.77749,-5.04067],[39.77529,-5.04155],[39.76915,-5.04157],[39.75997,-5.04412],[39.75824,-5.04559],[39.74752,-5.04346],[39.74907,-5.03749],[39.74814,-5.03439],[39.75241,-5.02366],[39.76505,-5.01494],[39.77484,-5.01483]]]},"properties":{"region":"Kaskazini Pemba","district":"Wete","ward":"Finya","ward_code":"071"}},{"type":"Feature","geometry":{"type":"Polygon","coordinates":[[[39.74702,-4.98372],[39.75275,-4.99066],[39.75242,-4.99324],[39.74878,-4.993],[39.74855,-4.99447],[39.74745,-4.995],[39.73928,-4.99759],[39.73833,-5.00311],[39.73514,-5.00716],[39.73619,-5.01378],[39.73239,-5.01426],[39.73277,-5.02307],[39.73173,-5.02546],[39.72299,-5.02362],[39.71699,-5.02415],[39.71726,-5.02162],[39.71516,-5.01769],[39.71629,-5.00908],[39.71391,-5.00826],[39.7127,-5.00126],[39.71376,-4.99109],[39.71559,-4.98702],[39.71261,-4.9863],[39.7124,-4.98459],[39.72534,-4.98586],[39.74702,-4.98372]]]},"properties":{"region":"Kaskazini Pemba","district":"Wete","ward":"Mgogoni","ward_code":"261"}},{"type":"Feature","geometry":{"type":"Polygon","coordinates":[[[39.73212,-5.04047],[39.74058,-5.04388],[39.74058,-5.0549],[39.73962,-5.05688],[39.73619,-5.05742],[39.73315,-5.05632],[39.73155,-5.05759],[39.73053,-5.05624],[39.73208,-5.05189],[39.72924,-5.04598],[39.73122,-5.04393],[39.73212,-5.04047]]]},"properties":{"region":"Kaskazini Pemba","district":"Wete","ward":"Kizimbani","ward_code":"302"}},{"type":"Feature","geometry":{"type":"Polygon","coordinates":[[[39.75241,-5.02366],[39.74839,-5.03342],[39.74907,-5.03749],[39.74631,-5.04522],[39.74482,-5.04331],[39.73771,-5.04369],[39.72477,-5.03741],[39.72166,-5.0389],[39.71895,-5.03877],[39.71577,-5.03042],[39.71699,-5.02415],[39.72299,-5.02362],[39.73173,-5.02546],[39.73277,-5.02307],[39.73239,-5.01426],[39.73619,-5.01378],[39.73514,-5.00716],[39.73833,-5.00311],[39.73928,-4.99759],[39.74745,-4.995],[39.74855,-4.99447],[39.74878,-4.993],[39.75242,-4.99324],[39.75169,-4.99876],[39.7597,-5.01847],[39.75241,-5.02366]]]},"properties":{"region":"Kaskazini Pemba","district":"Wete","ward":"Kinyasini","ward_code":"331"}},{"type":"Feature","geometry":{"type":"Polygon","coordinates":[[[39.72214,-5.06759],[39.71836,-5.06446],[39.71836,-5.06235],[39.72136,-5.061],[39.72182,-5.05928],[39.72439,-5.0576],[39.72812,-5.05675],[39.72679,-5.06106],[39.72364,-5.06286],[39.72214,-5.06759]]]},"properties":{"region":"Kaskazini Pemba","district":"Wete","ward":"Kipangani","ward_code":"012"}},{"type":"Feature","geometry":{"type":"Polygon","coordinates":[[[39.71757,-5.05386],[39.72527,-5.0571],[39.72182,-5.05928],[39.72136,-5.061],[39.71836,-5.06235],[39.71446,-5.05677],[39.71757,-5.05386]]]},"properties":{"region":"Kaskazini Pemba","district":"Wete","ward":"Selem","ward_code":"192"}},{"type":"Feature","geometry":{"type":"Polygon","coordinates":[[[39.73192,-5.0725],[39.72983,-5.07009],[39.73166,-5.06785],[39.72985,-5.06192],[39.73143,-5.05906],[39.73699,-5.06173],[39.73517,-5.06942],[39.73361,-5.0719],[39.73192,-5.0725]]]},"properties":{"region":"Kaskazini Pemba","district":"Wete","ward":"Jadida","ward_code":"322"}},{"type":"Feature","geometry":{"type":"Polygon","coordinates":[[[39.73166,-5.06785],[39.72953,-5.07022],[39.72676,-5.06915],[39.7226,-5.0709],[39.72135,-5.07021],[39.72364,-5.06286],[39.72679,-5.06106],[39.72812,-5.05675],[39.73143,-5.05906],[39.72989,-5.06117],[39.73166,-5.06785]]]},"properties":{"region":"Kaskazini Pemba","district":"Wete","ward":"Mtemani","ward_code":"362"}},{"type":"Feature","geometry":{"type":"Polygon","coordinates":[[[39.73053,-5.05624],[39.72527,-5.0571],[39.72494,-5.05625],[39.71757,-5.05386],[39.72272,-5.04481],[39.72558,-5.04465],[39.72662,-5.03878],[39.73212,-5.04047],[39.73122,-5.04393],[39.72924,-5.04598],[39.73208,-5.05189],[39.73053,-5.05624]]]},"properties":{"region":"Kaskazini Pemba","district":"Wete","ward":"Bopwe","ward_code":"162"}},{"type":"Feature","geometry":{"type":"Polygon","coordinates":[[[39.73131,-5.05749],[39.73315,-5.05632],[39.73487,-5.05727],[39.73753,-5.05708],[39.73699,-5.06173],[39.72827,-5.05687],[39.73053,-5.05624],[39.73131,-5.05749]]]},"properties":{"region":"Kaskazini Pemba","district":"Wete","ward":"Utaani","ward_code":"172"}},{"type":"Feature","geometry":{"type":"Polygon","coordinates":[[[39.7987,-5.03741],[39.79892,-5.04226],[39.7954,-5.04695],[39.79422,-5.05409],[39.79034,-5.05434],[39.79085,-5.05927],[39.7939,-5.06632],[39.79493,-5.07344],[39.78254,-5.0772],[39.7758,-5.0764],[39.76497,-5.07756],[39.7639,-5.07425],[39.7651,-5.07196],[39.76477,-5.06863],[39.76292,-5.06183],[39.76264,-5.04388],[39.76598,-5.04215],[39.77749,-5.04067],[39.77939,-5.0428],[39.78333,-5.04013],[39.78628,-5.04132],[39.78883,-5.04119],[39.79006,-5.04082],[39.79068,-5.03905],[39.7987,-5.03741]]]},"properties":{"region":"Kaskazini Pemba","district":"Wete","ward":"Pandani","ward_code":"143"}},{"type":"Feature","geometry":{"type":"Polygon","coordinates":[[[39.80229,-5.08855],[39.79998,-5.09384],[39.80454,-5.09379],[39.80479,-5.10342],[39.80324,-5.10698],[39.78117,-5.10516],[39.7819,-5.09885],[39.78146,-5.08573],[39.78254,-5.0772],[39.79493,-5.07344],[39.79641,-5.07443],[39.80238,-5.08202],[39.80083,-5.08589],[39.80229,-5.08855]]]},"properties":{"region":"Kaskazini Pemba","district":"Wete","ward":"Maziwani","ward_code":"221"}},{"type":"Feature","geometry":{"type":"Polygon","coordinates":[[[39.78117,-5.10516],[39.76692,-5.10498],[39.76315,-5.10261],[39.7642,-5.09039],[39.76233,-5.08741],[39.76242,-5.08361],[39.76339,-5.08241],[39.76208,-5.07863],[39.7758,-5.0764],[39.78254,-5.0772],[39.78146,-5.08573],[39.7819,-5.09885],[39.78117,-5.10516]]]},"properties":{"region":"Kaskazini Pemba","district":"Wete","ward":"Mzambarau Takao","ward_code":"251"}},{"type":"Feature","geometry":{"type":"Polygon","coordinates":[[[39.80862,-5.07154],[39.81834,-5.07709],[39.82332,-5.07779],[39.82769,-5.07662],[39.82987,-5.07867],[39.83272,-5.07961],[39.83624,-5.0787],[39.8356,-5.0799],[39.83798,-5.0815],[39.8371,-5.08636],[39.83258,-5.08908],[39.83097,-5.09053],[39.8311,-5.09159],[39.82808,-5.09341],[39.82558,-5.09161],[39.82754,-5.09007],[39.82659,-5.08958],[39.82528,-5.09144],[39.82712,-5.09311],[39.82671,-5.09432],[39.81434,-5.0933],[39.79998,-5.09384],[39.80229,-5.08855],[39.80083,-5.08589],[39.80238,-5.08202],[39.79493,-5.07344],[39.80322,-5.07338],[39.80601,-5.0717],[39.80862,-5.07154]]]},"properties":{"region":"Kaskazini Pemba","district":"Wete","ward":"Shengejuu","ward_code":"151"}},{"type":"Feature","geometry":{"type":"Polygon","coordinates":[[[39.80882,-5.03673],[39.81067,-5.04037],[39.81395,-5.04125],[39.81603,-5.04394],[39.81999,-5.04503],[39.8228,-5.04798],[39.82628,-5.04532],[39.82941,-5.04686],[39.83004,-5.04642],[39.82949,-5.04517],[39.83376,-5.04548],[39.83592,-5.05051],[39.83159,-5.05814],[39.83195,-5.0624],[39.82635,-5.06216],[39.81409,-5.05955],[39.8095,-5.05676],[39.8033,-5.05558],[39.80233,-5.05371],[39.79867,-5.05267],[39.79422,-5.05409],[39.7954,-5.04695],[39.79892,-5.04226],[39.7987,-5.03741],[39.80018,-5.03582],[39.80281,-5.03604],[39.80459,-5.03758],[39.8066,-5.03564],[39.80882,-5.03673]]]},"properties":{"region":"Kaskazini Pemba","district":"Wete","ward":"Kiungoni","ward_code":"281"}},{"type":"Feature","geometry":{"type":"Polygon","coordinates":[[[39.83195,-5.0624],[39.83288,-5.06464],[39.83141,-5.06398],[39.83094,-5.06445],[39.83334,-5.06617],[39.83483,-5.06991],[39.83395,-5.07259],[39.83547,-5.07434],[39.83528,-5.07625],[39.83253,-5.07876],[39.83128,-5.07895],[39.82769,-5.07662],[39.82332,-5.07779],[39.81834,-5.07709],[39.80832,-5.07134],[39.80322,-5.07338],[39.79493,-5.07344],[39.7939,-5.06632],[39.79085,-5.05927],[39.79034,-5.05434],[39.79867,-5.05267],[39.80233,-5.05371],[39.8033,-5.05558],[39.8095,-5.05676],[39.81269,-5.05912],[39.82635,-5.06216],[39.83195,-5.0624]]]},"properties":{"region":"Kaskazini Pemba","district":"Wete","ward":"Pembeni","ward_code":"291"}},{"type":"Feature","geometry":{"type":"Polygon","coordinates":[[[39.82398,-5.03613],[39.82894,-5.03607],[39.83658,-5.03752],[39.83518,-5.04207],[39.83447,-5.04216],[39.83583,-5.04423],[39.83634,-5.04884],[39.83441,-5.04778],[39.83424,-5.0459],[39.83299,-5.04511],[39.82949,-5.04517],[39.83004,-5.04642],[39.82941,-5.04686],[39.82628,-5.04532],[39.8228,-5.04798],[39.81999,-5.04503],[39.81603,-5.04394],[39.81797,-5.03768],[39.81779,-5.03435],[39.82398,-5.03613]]]},"properties":{"region":"Kaskazini Pemba","district":"Wete","ward":"Mjananza","ward_code":"341"}},{"type":"Feature","geometry":{"type":"Polygon","coordinates":[[[39.79763,-5.02129],[39.79957,-5.02485],[39.79918,-5.02812],[39.81016,-5.02896],[39.81515,-5.03149],[39.81751,-5.03159],[39.81797,-5.03768],[39.81586,-5.04375],[39.81395,-5.04125],[39.81067,-5.04037],[39.80882,-5.03673],[39.8066,-5.03564],[39.80459,-5.03758],[39.80281,-5.03604],[39.80018,-5.03582],[39.79673,-5.03825],[39.79068,-5.03905],[39.79006,-5.04082],[39.78628,-5.04132],[39.78333,-5.04013],[39.78349,-5.03879],[39.77919,-5.03665],[39.77967,-5.03072],[39.77831,-5.02587],[39.7854,-5.0264],[39.7878,-5.02532],[39.79069,-5.02228],[39.79256,-5.02267],[39.79763,-5.02129]]]},"properties":{"region":"Kaskazini Pemba","district":"Wete","ward":"Mlindo","ward_code":"351"}},{"type":"Feature","geometry":{"type":"Polygon","coordinates":[[[39.80874,-5.10796],[39.81126,-5.10892],[39.81285,-5.10804],[39.81477,-5.10969],[39.81666,-5.10997],[39.81805,-5.10895],[39.82622,-5.10918],[39.8269,-5.11064],[39.82817,-5.11082],[39.82795,-5.11196],[39.82892,-5.11228],[39.83027,-5.11103],[39.8319,-5.11283],[39.83162,-5.11428],[39.82977,-5.11413],[39.82917,-5.11619],[39.82775,-5.11473],[39.82351,-5.11494],[39.81323,-5.11848],[39.81014,-5.12233],[39.81251,-5.12893],[39.81216,-5.13289],[39.80779,-5.13085],[39.80444,-5.13074],[39.79938,-5.12113],[39.79925,-5.11258],[39.80474,-5.11271],[39.80511,-5.11086],[39.80874,-5.10796]]]},"properties":{"region":"Kaskazini Pemba","district":"Wete","ward":"Mchanga Mdogo","ward_code":"041"}},{"type":"Feature","geometry":{"type":"MultiPolygon","coordinates":[[[[39.85177,-5.04331],[39.85015,-5.04473],[39.85,-5.04282],[39.85117,-5.04234],[39.85177,-5.04331]]],[[[39.8603,-5.05005],[39.85839,-5.05559],[39.86044,-5.06221],[39.86328,-5.06783],[39.86815,-5.06724],[39.86983,-5.06531],[39.87133,-5.06521],[39.87123,-5.06632],[39.87263,-5.06662],[39.87193,-5.07012],[39.87283,-5.07799],[39.87188,-5.08845],[39.86505,-5.10624],[39.86349,-5.10905],[39.85868,-5.10947],[39.84826,-5.10615],[39.84756,-5.10519],[39.84405,-5.10568],[39.84181,-5.10368],[39.8431,-5.10226],[39.84255,-5.10176],[39.84086,-5.10346],[39.83813,-5.10416],[39.83894,-5.09615],[39.8431,-5.09647],[39.84547,-5.09334],[39.8476,-5.08764],[39.84989,-5.08738],[39.85164,-5.08253],[39.8553,-5.08135],[39.85686,-5.0793],[39.85686,-5.07355],[39.8549,-5.0716],[39.85277,-5.07156],[39.85551,-5.07071],[39.85583,-5.06865],[39.85504,-5.06831],[39.85395,-5.06971],[39.85093,-5.06941],[39.85134,-5.06609],[39.85464,-5.06464],[39.8548,-5.06391],[39.85381,-5.06378],[39.8556,-5.06201],[39.85443,-5.06106],[39.85362,-5.06201],[39.85354,-5.06069],[39.85259,-5.06059],[39.85224,-5.06306],[39.85042,-5.06233],[39.8494,-5.06399],[39.84818,-5.06293],[39.84784,-5.06005],[39.84992,-5.05605],[39.85116,-5.05536],[39.85235,-5.05146],[39.8544,-5.05023],[39.85433,-5.04879],[39.85972,-5.04063],[39.86102,-5.04275],[39.8603,-5.05005]]]]},"properties":{"region":"Kaskazini Pemba","district":"Wete","ward":"Kojani","ward_code":"061"}},{"type":"Feature","geometry":{"type":"Polygon","coordinates":[[[39.80324,-5.10698],[39.80377,-5.11265],[39.80303,-5.11291],[39.79925,-5.11258],[39.79938,-5.12113],[39.80444,-5.13074],[39.80729,-5.13131],[39.80538,-5.13731],[39.80569,-5.14015],[39.8014,-5.14325],[39.79953,-5.14055],[39.79909,-5.13509],[39.7945,-5.12976],[39.78971,-5.12892],[39.78484,-5.12929],[39.78489,-5.1245],[39.78193,-5.11695],[39.78069,-5.11028],[39.78117,-5.10516],[39.80324,-5.10698]]]},"properties":{"region":"Kaskazini Pemba","district":"Wete","ward":"Kinyikani","ward_code":"201"}},{"type":"Feature","geometry":{"type":"Polygon","coordinates":[[[39.82433,-5.09456],[39.83055,-5.09341],[39.83133,-5.09484],[39.82656,-5.10314],[39.82648,-5.10607],[39.82414,-5.10636],[39.82383,-5.10614],[39.82414,-5.10532],[39.82382,-5.10461],[39.82234,-5.10601],[39.82174,-5.10565],[39.82222,-5.10512],[39.82199,-5.1048],[39.82058,-5.105],[39.82209,-5.10508],[39.82153,-5.1056],[39.82249,-5.1062],[39.82398,-5.105],[39.8236,-5.10618],[39.82439,-5.10675],[39.82543,-5.10649],[39.82501,-5.10731],[39.8258,-5.10742],[39.82622,-5.10918],[39.81805,-5.10895],[39.81666,-5.10997],[39.81477,-5.10969],[39.81285,-5.10804],[39.81126,-5.10892],[39.80874,-5.10796],[39.80511,-5.11086],[39.80474,-5.11271],[39.80377,-5.11265],[39.80317,-5.10626],[39.80479,-5.10342],[39.80454,-5.09379],[39.81434,-5.0933],[39.82433,-5.09456]]]},"properties":{"region":"Kaskazini Pemba","district":"Wete","ward":"Chwale","ward_code":"211"}},{"type":"Feature","geometry":{"type":"Polygon","coordinates":[[[39.83815,-5.10406],[39.83436,-5.10447],[39.837,-5.09981],[39.83721,-5.09734],[39.83894,-5.09615],[39.83815,-5.10406]]]},"properties":{"region":"Kaskazini Pemba","district":"Wete","ward":"Mpambani","ward_code":"231"}},{"type":"Feature","geometry":{"type":"Polygon","coordinates":[[[39.82994,-5.12234],[39.83064,-5.12282],[39.83013,-5.12599],[39.82698,-5.12768],[39.82627,-5.12981],[39.82393,-5.13158],[39.82406,-5.13625],[39.821,-5.13734],[39.81705,-5.13529],[39.8155,-5.13585],[39.80518,-5.14364],[39.80324,-5.14623],[39.79634,-5.147],[39.79126,-5.14492],[39.78655,-5.14155],[39.78484,-5.12929],[39.78971,-5.12892],[39.7945,-5.12976],[39.79909,-5.13509],[39.79976,-5.14138],[39.80078,-5.14305],[39.80192,-5.1432],[39.80569,-5.14015],[39.80538,-5.13731],[39.80749,-5.13098],[39.81056,-5.13261],[39.81216,-5.13289],[39.81251,-5.13221],[39.81251,-5.12893],[39.81014,-5.12233],[39.81323,-5.11848],[39.82351,-5.11494],[39.82775,-5.11473],[39.83047,-5.11964],[39.82994,-5.12234]]]},"properties":{"region":"Kaskazini Pemba","district":"Wete","ward":"Kambini","ward_code":"051"}},{"type":"Feature","geometry":{"type":"MultiPolygon","coordinates":[[[[39.83872,-5.11134],[39.83852,-5.1138],[39.83696,-5.11304],[39.83872,-5.11134]]],[[[39.84894,-5.10794],[39.85363,-5.111],[39.85615,-5.11146],[39.85654,-5.11284],[39.85859,-5.11395],[39.86299,-5.11388],[39.86412,-5.11743],[39.86575,-5.11876],[39.86308,-5.14618],[39.8636,-5.15228],[39.86202,-5.16027],[39.85911,-5.16454],[39.85822,-5.1724],[39.85304,-5.17264],[39.85232,-5.17512],[39.83573,-5.1718],[39.82855,-5.16884],[39.82729,-5.16888],[39.82733,-5.16977],[39.81875,-5.17124],[39.81389,-5.16873],[39.81666,-5.16656],[39.82222,-5.15771],[39.82628,-5.1537],[39.82853,-5.1454],[39.83649,-5.14557],[39.83771,-5.14729],[39.84087,-5.14065],[39.8436,-5.14131],[39.84472,-5.14031],[39.84492,-5.13959],[39.84299,-5.14021],[39.84134,-5.13873],[39.84129,-5.13466],[39.84298,-5.13358],[39.84324,-5.13096],[39.84494,-5.13145],[39.84336,-5.12945],[39.84457,-5.1257],[39.84371,-5.12503],[39.84588,-5.12081],[39.84477,-5.1101],[39.84588,-5.10835],[39.84894,-5.10794]]]]},"properties":{"region":"Kaskazini Pemba","district":"Wete","ward":"Kangagani","ward_code":"081"}},{"type":"Feature","geometry":{"type":"Polygon","coordinates":[[[39.81705,-5.13529],[39.8219,-5.1377],[39.82437,-5.13677],[39.82703,-5.13894],[39.82712,-5.14067],[39.82468,-5.14171],[39.82565,-5.14231],[39.82397,-5.14637],[39.82531,-5.14645],[39.82537,-5.14477],[39.82853,-5.1454],[39.82628,-5.1537],[39.81359,-5.15476],[39.8085,-5.15352],[39.8043,-5.15568],[39.80329,-5.14571],[39.8155,-5.13585],[39.81705,-5.13529]]]},"properties":{"region":"Kaskazini Pemba","district":"Wete","ward":"Kiuyu Minungwini","ward_code":"091"}},{"type":"Feature","geometry":{"type":"Polygon","coordinates":[[[39.81319,-5.15466],[39.82628,-5.1537],[39.82222,-5.15771],[39.81977,-5.16267],[39.81545,-5.16781],[39.80806,-5.17014],[39.8078,-5.16936],[39.79861,-5.17029],[39.79858,-5.16692],[39.80376,-5.16134],[39.8043,-5.15568],[39.8085,-5.15352],[39.81319,-5.15466]]]},"properties":{"region":"Kaskazini Pemba","district":"Wete","ward":"Kiuyu Kigongoni","ward_code":"241"}},{"type":"Feature","geometry":{"type":"Polygon","coordinates":[[[39.71258,-5.07362],[39.71061,-5.07426],[39.70933,-5.07582],[39.70977,-5.07653],[39.71376,-5.07582],[39.71676,-5.07664],[39.71755,-5.07347],[39.7259,-5.07487],[39.72969,-5.07377],[39.73131,-5.07606],[39.7342,-5.07773],[39.7388,-5.07842],[39.73933,-5.08153],[39.73763,-5.08366],[39.73815,-5.08482],[39.73539,-5.08511],[39.73617,-5.08669],[39.72947,-5.09643],[39.73162,-5.10107],[39.73348,-5.10203],[39.73355,-5.11005],[39.73258,-5.11129],[39.71367,-5.1066],[39.70629,-5.11151],[39.69961,-5.11349],[39.69794,-5.11533],[39.69373,-5.11456],[39.69377,-5.11176],[39.69129,-5.11055],[39.68941,-5.10562],[39.6855,-5.1035],[39.68664,-5.1009],[39.69063,-5.09719],[39.69359,-5.09606],[39.69573,-5.09277],[39.69725,-5.0888],[39.69617,-5.08577],[39.69415,-5.08365],[39.69473,-5.0802],[39.69588,-5.07892],[39.69598,-5.08018],[39.69899,-5.08226],[39.70076,-5.07873],[39.69996,-5.0765],[39.70111,-5.06954],[39.70495,-5.0731],[39.70512,-5.07481],[39.70659,-5.07463],[39.70756,-5.07116],[39.70969,-5.06918],[39.71258,-5.07362]]]},"properties":{"region":"Kaskazini Pemba","district":"Wete","ward":"Mtambwe Kaskazini","ward_code":"021"}},{"type":"Feature","geometry":{"type":"Polygon","coordinates":[[[39.76714,-5.1335],[39.78503,-5.13361],[39.78655,-5.14155],[39.79126,-5.14492],[39.79634,-5.147],[39.80342,-5.14631],[39.80434,-5.15593],[39.80376,-5.16134],[39.80168,-5.16368],[39.80061,-5.16475],[39.78249,-5.16286],[39.76531,-5.15855],[39.76169,-5.16183],[39.75444,-5.16399],[39.74446,-5.17326],[39.73783,-5.176],[39.73609,-5.17537],[39.73807,-5.17019],[39.74051,-5.16813],[39.74172,-5.16366],[39.74443,-5.16056],[39.74341,-5.1567],[39.74006,-5.15288],[39.74597,-5.15136],[39.74754,-5.14791],[39.7505,-5.14818],[39.75015,-5.14683],[39.75131,-5.14501],[39.74929,-5.14345],[39.75158,-5.14278],[39.75075,-5.14047],[39.75259,-5.14003],[39.75173,-5.13932],[39.75143,-5.13524],[39.75412,-5.13433],[39.76398,-5.13515],[39.76714,-5.1335]]]},"properties":{"region":"Kaskazini Pemba","district":"Wete","ward":"Kisiwani","ward_code":"111"}},{"type":"Feature","geometry":{"type":"MultiPolygon","coordinates":[[[[39.63695,-5.15953],[39.6374,-5.16124],[39.63604,-5.16107],[39.63437,-5.15862],[39.63695,-5.15953]]],[[[39.70571,-5.15779],[39.70367,-5.16167],[39.70218,-5.16108],[39.70119,-5.15841],[39.70486,-5.15647],[39.70571,-5.15779]]],[[[39.60909,-5.15667],[39.60469,-5.16024],[39.60421,-5.15865],[39.61062,-5.15263],[39.60909,-5.15667]]],[[[39.62711,-5.14738],[39.6138,-5.1518],[39.61289,-5.15112],[39.61317,-5.14946],[39.61539,-5.14802],[39.62645,-5.14668],[39.62711,-5.14738]]],[[[39.68012,-5.13728],[39.67663,-5.14046],[39.67173,-5.13782],[39.67135,-5.13676],[39.67208,-5.13583],[39.67898,-5.13378],[39.68012,-5.13728]]],[[[39.64594,-5.13285],[39.64722,-5.13387],[39.64595,-5.1346],[39.6425,-5.14167],[39.64304,-5.14367],[39.64029,-5.15181],[39.63757,-5.1541],[39.63676,-5.15344],[39.63783,-5.14914],[39.63824,-5.13868],[39.64402,-5.13518],[39.64594,-5.13285]]],[[[39.6615,-5.13511],[39.66777,-5.13784],[39.66884,-5.1396],[39.66713,-5.14092],[39.66382,-5.14091],[39.66059,-5.14239],[39.66054,-5.14537],[39.65835,-5.14758],[39.65835,-5.14895],[39.65716,-5.1492],[39.65515,-5.14603],[39.65775,-5.14223],[39.66055,-5.13247],[39.6615,-5.13511]]],[[[39.74589,-5.11202],[39.75325,-5.11603],[39.75562,-5.12294],[39.75077,-5.12823],[39.75137,-5.13729],[39.75259,-5.14003],[39.75075,-5.14047],[39.75158,-5.14278],[39.74929,-5.14345],[39.75068,-5.14562],[39.74631,-5.14795],[39.74442,-5.15108],[39.73835,-5.1483],[39.73527,-5.14911],[39.73351,-5.15099],[39.73405,-5.15434],[39.73251,-5.15532],[39.73033,-5.1597],[39.72443,-5.16196],[39.72308,-5.1649],[39.72348,-5.16723],[39.71549,-5.17183],[39.71301,-5.17429],[39.71086,-5.1744],[39.71053,-5.16971],[39.71428,-5.16554],[39.71729,-5.15452],[39.7155,-5.14997],[39.71399,-5.15012],[39.71315,-5.14915],[39.71042,-5.15111],[39.70537,-5.14708],[39.70298,-5.14337],[39.6955,-5.13963],[39.69506,-5.13737],[39.69806,-5.13545],[39.69781,-5.13377],[39.69316,-5.13764],[39.68821,-5.13575],[39.68634,-5.13604],[39.68564,-5.13336],[39.68783,-5.13046],[39.68691,-5.1277],[39.68373,-5.125],[39.68368,-5.12166],[39.68713,-5.12195],[39.69362,-5.11907],[39.69523,-5.11742],[39.70024,-5.11693],[39.70087,-5.11625],[39.69961,-5.11479],[39.69794,-5.11533],[39.69961,-5.11349],[39.70629,-5.11151],[39.71367,-5.1066],[39.73258,-5.11129],[39.74589,-5.11202]]]]},"properties":{"region":"Kaskazini Pemba","district":"Wete","ward":"Mtambwe Kusini","ward_code":"181"}},{"type":"Feature","geometry":{"type":"Polygon","coordinates":[[[39.74601,-5.07809],[39.74634,-5.07975],[39.74741,-5.0803],[39.76208,-5.07863],[39.76339,-5.08241],[39.76242,-5.08361],[39.76233,-5.08741],[39.7642,-5.09039],[39.76315,-5.10261],[39.76692,-5.10498],[39.78117,-5.10516],[39.78069,-5.11028],[39.78193,-5.11695],[39.78489,-5.1245],[39.78503,-5.13361],[39.77093,-5.1332],[39.76714,-5.1335],[39.76398,-5.13515],[39.75412,-5.13433],[39.75143,-5.13524],[39.75077,-5.12823],[39.75562,-5.12294],[39.75325,-5.11603],[39.74589,-5.11202],[39.73258,-5.11129],[39.73392,-5.10671],[39.73348,-5.10203],[39.73162,-5.10107],[39.72947,-5.09643],[39.72979,-5.09496],[39.73617,-5.08669],[39.73539,-5.08511],[39.73618,-5.08445],[39.73783,-5.08526],[39.73763,-5.08366],[39.73978,-5.08122],[39.74206,-5.08056],[39.74376,-5.07838],[39.74601,-5.07809]]]},"properties":{"region":"Kaskazini Pemba","district":"Wete","ward":"Piki","ward_code":"101"}},{"type":"Feature","geometry":{"type":"Polygon","coordinates":[[[39.74058,-5.04388],[39.74482,-5.04331],[39.74592,-5.04518],[39.74752,-5.04346],[39.75611,-5.04565],[39.76264,-5.04388],[39.76292,-5.06183],[39.76477,-5.06863],[39.7651,-5.07196],[39.7639,-5.07425],[39.76497,-5.07756],[39.76163,-5.07884],[39.74741,-5.0803],[39.74523,-5.07796],[39.74098,-5.08112],[39.73973,-5.07731],[39.73685,-5.07636],[39.73605,-5.07487],[39.73394,-5.07554],[39.73273,-5.0745],[39.73222,-5.07296],[39.73404,-5.07294],[39.73358,-5.07194],[39.73641,-5.06622],[39.73753,-5.05708],[39.73962,-5.05688],[39.74058,-5.0549],[39.74058,-5.04388]]]},"properties":{"region":"Kaskazini Pemba","district":"Wete","ward":"Limbani","ward_code":"312"}},{"type":"Feature","geometry":{"type":"Polygon","coordinates":[[[39.83263,-4.97349],[39.83748,-4.987],[39.83357,-4.99447],[39.83127,-4.99439],[39.8301,-4.99599],[39.82862,-4.99562],[39.82903,-4.99136],[39.83095,-4.98866],[39.83009,-4.98227],[39.82844,-4.98141],[39.82797,-4.98217],[39.82773,-4.981],[39.82737,-4.98233],[39.82658,-4.98109],[39.82604,-4.98151],[39.82631,-4.97867],[39.82503,-4.97972],[39.82291,-4.97894],[39.8219,-4.98036],[39.82237,-4.9777],[39.83263,-4.97349]]]},"properties":{"region":"Kaskazini Pemba","district":"Micheweni","ward":"Majenzi","ward_code":"012"}},{"type":"Feature","geometry":{"type":"Polygon","coordinates":[[[39.83597,-4.9698],[39.83796,-4.97314],[39.83709,-4.97542],[39.83771,-4.97847],[39.83963,-4.98169],[39.8365,-4.98495],[39.83375,-4.97937],[39.83252,-4.97319],[39.83316,-4.97057],[39.83597,-4.9698]]]},"properties":{"region":"Kaskazini Pemba","district":"Micheweni","ward":"Micheweni","ward_code":"023"}},{"type":"Feature","geometry":{"type":"MultiPolygon","coordinates":[[[[39.81084,-4.95629],[39.80962,-4.95682],[39.80892,-4.9541],[39.80667,-4.9519],[39.80728,-4.94972],[39.81193,-4.95361],[39.81084,-4.95629]]],[[[39.80539,-4.95018],[39.80403,-4.9516],[39.80182,-4.9503],[39.80277,-4.94887],[39.80539,-4.95018]]],[[[39.80749,-4.94126],[39.80721,-4.94503],[39.80371,-4.94247],[39.80414,-4.93998],[39.80749,-4.94126]]],[[[39.80257,-4.92883],[39.80685,-4.9294],[39.80421,-4.93458],[39.80065,-4.93743],[39.79951,-4.93714],[39.79737,-4.93061],[39.80257,-4.92883]]],[[[39.84249,-4.9113],[39.84501,-4.91126],[39.84544,-4.9123],[39.84644,-4.91183],[39.84544,-4.91348],[39.84587,-4.9159],[39.84268,-4.91888],[39.84235,-4.9203],[39.84306,-4.92376],[39.84225,-4.92665],[39.84321,-4.92864],[39.84596,-4.93068],[39.8445,-4.93458],[39.84243,-4.93473],[39.84108,-4.93643],[39.844,-4.93764],[39.84386,-4.94593],[39.84249,-4.94806],[39.83948,-4.94963],[39.83831,-4.95203],[39.83751,-4.9547],[39.83829,-4.95946],[39.83769,-4.96165],[39.83619,-4.96221],[39.83509,-4.96474],[39.83651,-4.96883],[39.8352,-4.97038],[39.83284,-4.97087],[39.83233,-4.97394],[39.82277,-4.97689],[39.82144,-4.97485],[39.82052,-4.97652],[39.81945,-4.97562],[39.82026,-4.97391],[39.81944,-4.97487],[39.81786,-4.97349],[39.81905,-4.97301],[39.81793,-4.97296],[39.81751,-4.97128],[39.8184,-4.97083],[39.81648,-4.96544],[39.81718,-4.96523],[39.81682,-4.963],[39.81929,-4.95853],[39.81929,-4.95611],[39.82002,-4.95519],[39.82117,-4.95554],[39.82177,-4.9523],[39.82358,-4.95162],[39.8266,-4.94737],[39.82091,-4.95251],[39.81762,-4.95203],[39.81269,-4.94354],[39.81084,-4.93908],[39.81125,-4.93737],[39.81262,-4.93539],[39.81387,-4.9352],[39.81351,-4.93306],[39.8155,-4.92703],[39.81721,-4.92854],[39.82331,-4.93045],[39.82358,-4.93162],[39.82593,-4.93148],[39.82591,-4.93011],[39.83155,-4.93609],[39.83612,-4.93551],[39.83445,-4.9338],[39.83391,-4.93156],[39.83663,-4.93085],[39.83467,-4.92762],[39.83603,-4.923],[39.84073,-4.92158],[39.83993,-4.91713],[39.83812,-4.91372],[39.83888,-4.91069],[39.8413,-4.90851],[39.84306,-4.90884],[39.84249,-4.9113]]]]},"properties":{"region":"Kaskazini Pemba","district":"Micheweni","ward":"Shumba Mjini","ward_code":"031"}},{"type":"Feature","geometry":{"type":"Polygon","coordinates":[[[39.84127,-4.95137],[39.84854,-4.97828],[39.84249,-4.97863],[39.83963,-4.98169],[39.83771,-4.97847],[39.83709,-4.97542],[39.83792,-4.97291],[39.83597,-4.9698],[39.83636,-4.96698],[39.83504,-4.96549],[39.83619,-4.96221],[39.83769,-4.96165],[39.83758,-4.96031],[39.8387,-4.95921],[39.83855,-4.95459],[39.84127,-4.95137]]]},"properties":{"region":"Kaskazini Pemba","district":"Micheweni","ward":"Chamboni","ward_code":"043"}},{"type":"Feature","geometry":{"type":"Polygon","coordinates":[[[39.86517,-4.8873],[39.86671,-4.90729],[39.8633,-4.92857],[39.86345,-4.94194],[39.8645,-4.94803],[39.85607,-4.96218],[39.85489,-4.96604],[39.85093,-4.96279],[39.84772,-4.95471],[39.84894,-4.95178],[39.85072,-4.9532],[39.85191,-4.95041],[39.85025,-4.94402],[39.85248,-4.94028],[39.85215,-4.93337],[39.84927,-4.92375],[39.85603,-4.91804],[39.85813,-4.915],[39.85884,-4.90949],[39.86141,-4.90716],[39.86033,-4.90318],[39.86178,-4.89878],[39.86163,-4.89606],[39.86049,-4.89256],[39.86235,-4.89052],[39.8618,-4.88951],[39.8629,-4.88806],[39.86517,-4.8873]]]},"properties":{"region":"Kaskazini Pemba","district":"Micheweni","ward":"Shanake","ward_code":"051"}},{"type":"Feature","geometry":{"type":"Polygon","coordinates":[[[39.86595,-4.88693],[39.86913,-4.88989],[39.8696,-4.89295],[39.87095,-4.89463],[39.87136,-4.89916],[39.87412,-4.90445],[39.87298,-4.91652],[39.87366,-4.92828],[39.87213,-4.93919],[39.87237,-4.94836],[39.87332,-4.94932],[39.87364,-4.95418],[39.87357,-4.97073],[39.8745,-4.97337],[39.86088,-4.97452],[39.86116,-4.9695],[39.85515,-4.96973],[39.85486,-4.96625],[39.85607,-4.96218],[39.8645,-4.94803],[39.86345,-4.94194],[39.8633,-4.92857],[39.86671,-4.90729],[39.86517,-4.8873],[39.86595,-4.88693]]]},"properties":{"region":"Kaskazini Pemba","district":"Micheweni","ward":"Kiuyu Mbuyuni","ward_code":"061"}},{"type":"Feature","geometry":{"type":"Polygon","coordinates":[[[39.84465,-4.95193],[39.84772,-4.95471],[39.85093,-4.96279],[39.85489,-4.96604],[39.85515,-4.96973],[39.86116,-4.9695],[39.86088,-4.97452],[39.8745,-4.97337],[39.8752,-4.97687],[39.8744,-4.98063],[39.87619,-4.98154],[39.8756,-4.99141],[39.87484,-4.9961],[39.87385,-4.99671],[39.8742,-4.9992],[39.87225,-5.00319],[39.87292,-5.00412],[39.87161,-5.00445],[39.87223,-5.00547],[39.8712,-5.00773],[39.87142,-5.0119],[39.86916,-5.01479],[39.86948,-5.01752],[39.8685,-5.01827],[39.86699,-5.02546],[39.86544,-5.02554],[39.86502,-5.02422],[39.86659,-5.01998],[39.8652,-5.02071],[39.8647,-5.01982],[39.8636,-5.02524],[39.86182,-5.02546],[39.85971,-5.02435],[39.85203,-4.99031],[39.84127,-4.95137],[39.84465,-4.95193]]]},"properties":{"region":"Kaskazini Pemba","district":"Micheweni","ward":"Maziwa Ng'ombe","ward_code":"071"}},{"type":"Feature","geometry":{"type":"Polygon","coordinates":[[[39.79446,-4.96686],[39.80119,-4.96665],[39.80313,-4.97074],[39.80565,-4.97074],[39.80868,-4.96716],[39.80992,-4.96815],[39.81015,-4.96614],[39.81412,-4.96785],[39.81439,-4.96927],[39.8117,-4.97588],[39.81307,-4.98223],[39.81859,-4.98693],[39.81986,-4.98741],[39.81936,-4.98619],[39.82058,-4.98604],[39.82047,-4.98769],[39.81814,-4.98815],[39.81984,-4.98883],[39.81857,-4.99057],[39.82108,-4.9926],[39.82053,-4.99418],[39.81941,-4.99454],[39.82055,-4.9957],[39.8222,-4.99474],[39.82203,-4.99661],[39.82551,-4.99894],[39.825,-5.00196],[39.8266,-5.00659],[39.82049,-5.00555],[39.81217,-5.00203],[39.80937,-4.99967],[39.8034,-5.00047],[39.80015,-5.00202],[39.79483,-4.98497],[39.79494,-4.98068],[39.79335,-4.97751],[39.79332,-4.97084],[39.79152,-4.96597],[39.79446,-4.96686]]]},"properties":{"region":"Kaskazini Pemba","district":"Micheweni","ward":"Sizini","ward_code":"081"}},{"type":"Feature","geometry":{"type":"Polygon","coordinates":[[[39.84854,-4.97828],[39.85203,-4.99031],[39.85948,-5.02302],[39.85583,-5.0164],[39.85651,-5.01445],[39.85629,-5.01379],[39.85472,-5.01683],[39.84907,-5.01504],[39.84871,-5.01127],[39.84955,-5.0094],[39.84745,-5.00816],[39.84844,-5.00696],[39.84651,-5.0077],[39.84634,-5.00631],[39.84666,-5.00898],[39.84565,-5.00915],[39.84406,-5.0124],[39.84289,-5.01241],[39.84228,-5.01486],[39.84067,-5.01499],[39.83999,-5.00792],[39.83872,-5.00908],[39.83744,-5.01354],[39.83292,-5.01469],[39.8266,-5.00659],[39.825,-5.00196],[39.82596,-4.99733],[39.82862,-4.99562],[39.8301,-4.99599],[39.83127,-4.99439],[39.83357,-4.99447],[39.83748,-4.987],[39.8365,-4.98495],[39.84169,-4.97926],[39.84854,-4.97828]]]},"properties":{"region":"Kaskazini Pemba","district":"Micheweni","ward":"Mjini Wingwi","ward_code":"091"}},{"type":"Feature","geometry":{"type":"Polygon","coordinates":[[[39.81188,-5.0018],[39.82049,-5.00555],[39.8266,-5.00659],[39.83292,-5.01469],[39.83367,-5.01785],[39.81574,-5.02094],[39.81397,-5.02217],[39.81305,-5.02133],[39.80585,-5.02048],[39.80472,-5.02126],[39.79069,-5.02228],[39.7878,-5.02532],[39.7854,-5.0264],[39.77571,-5.02514],[39.77477,-5.02257],[39.77566,-5.01878],[39.77459,-5.01574],[39.77787,-5.00908],[39.78158,-5.00977],[39.78214,-5.00848],[39.78641,-5.00731],[39.78712,-5.00806],[39.7892,-5.0066],[39.79095,-5.00693],[39.79308,-5.00595],[39.7942,-5.01042],[39.79693,-5.01091],[39.79761,-5.00901],[39.80148,-5.0053],[39.80015,-5.00202],[39.8034,-5.00047],[39.80937,-4.99967],[39.81188,-5.0018]]]},"properties":{"region":"Kaskazini Pemba","district":"Micheweni","ward":"Wingwi Mapofu","ward_code":"103"}},{"type":"Feature","geometry":{"type":"Polygon","coordinates":[[[39.80635,-5.02057],[39.81305,-5.02133],[39.81397,-5.02217],[39.81818,-5.02054],[39.81857,-5.02429],[39.81751,-5.03159],[39.81515,-5.03149],[39.81016,-5.02896],[39.79908,-5.02804],[39.79957,-5.02485],[39.79763,-5.02129],[39.80635,-5.02057]]]},"properties":{"region":"Kaskazini Pemba","district":"Micheweni","ward":"Wingwi Njuguni","ward_code":"111"}},{"type":"Feature","geometry":{"type":"Polygon","coordinates":[[[39.83367,-5.01785],[39.83834,-5.02157],[39.84028,-5.02632],[39.83956,-5.02659],[39.83997,-5.02931],[39.83658,-5.03752],[39.82894,-5.03607],[39.82398,-5.03613],[39.81779,-5.03435],[39.81818,-5.02054],[39.83038,-5.01804],[39.83367,-5.01785]]]},"properties":{"region":"Kaskazini Pemba","district":"Micheweni","ward":"Mtemani","ward_code":"121"}},{"type":"Feature","geometry":{"type":"Polygon","coordinates":[[[39.67581,-4.9184],[39.68673,-4.91854],[39.68956,-4.92054],[39.71246,-4.92378],[39.71367,-4.93864],[39.71258,-4.94879],[39.71312,-4.95057],[39.70161,-4.9658],[39.69558,-4.96605],[39.69574,-4.96481],[39.69305,-4.96328],[39.68977,-4.96655],[39.6888,-4.95868],[39.6846,-4.95445],[39.68483,-4.95064],[39.68303,-4.94743],[39.68204,-4.94766],[39.68189,-4.949],[39.68297,-4.95102],[39.68302,-4.95408],[39.68669,-4.95944],[39.68646,-4.96105],[39.68316,-4.95739],[39.67842,-4.95554],[39.67554,-4.95887],[39.67403,-4.958],[39.67509,-4.95637],[39.67397,-4.95643],[39.67288,-4.94839],[39.67352,-4.94798],[39.67317,-4.94212],[39.6748,-4.93879],[39.67382,-4.93193],[39.67497,-4.91932],[39.67581,-4.9184]]]},"properties":{"region":"Kaskazini Pemba","district":"Micheweni","ward":"Tondooni","ward_code":"171"}},{"type":"Feature","geometry":{"type":"Polygon","coordinates":[[[39.68312,-4.86443],[39.68551,-4.87411],[39.68443,-4.87831],[39.69032,-4.88801],[39.6917,-4.89741],[39.69464,-4.90215],[39.70036,-4.9078],[39.70315,-4.90927],[39.71605,-4.91163],[39.71991,-4.9106],[39.72383,-4.91125],[39.7209,-4.91344],[39.72034,-4.91494],[39.72228,-4.91856],[39.72131,-4.92473],[39.7202,-4.92576],[39.72041,-4.9294],[39.7197,-4.92689],[39.71712,-4.92415],[39.68956,-4.92054],[39.68673,-4.91854],[39.67581,-4.9184],[39.6774,-4.91065],[39.67946,-4.88614],[39.67682,-4.87997],[39.67729,-4.87347],[39.67839,-4.87079],[39.68073,-4.86976],[39.68312,-4.86443]]]},"properties":{"region":"Kaskazini Pemba","district":"Micheweni","ward":"Makangale","ward_code":"181"}},{"type":"Feature","geometry":{"type":"Polygon","coordinates":[[[39.73543,-4.91444],[39.73402,-4.91979],[39.74236,-4.9356],[39.74,-4.93662],[39.7132,-4.93538],[39.71327,-4.93581],[39.71332,-4.93618],[39.71319,-4.93532],[39.71351,-4.93376],[39.71258,-4.93206],[39.71308,-4.92724],[39.71226,-4.92399],[39.71759,-4.92444],[39.7207,-4.92921],[39.7202,-4.92576],[39.72131,-4.92473],[39.72281,-4.91882],[39.7212,-4.91473],[39.72222,-4.91346],[39.72285,-4.91458],[39.72381,-4.91369],[39.72467,-4.90992],[39.72331,-4.90848],[39.72353,-4.90683],[39.72657,-4.90329],[39.7361,-4.90586],[39.73543,-4.91444]]]},"properties":{"region":"Kaskazini Pemba","district":"Micheweni","ward":"Msuka Magharibi","ward_code":"193"}},{"type":"Feature","geometry":{"type":"Polygon","coordinates":[[[39.73569,-4.90687],[39.73869,-4.90622],[39.73971,-4.90743],[39.74379,-4.90755],[39.74341,-4.90849],[39.74511,-4.90916],[39.74569,-4.91068],[39.74742,-4.90978],[39.74855,-4.9105],[39.75162,-4.91467],[39.75121,-4.91592],[39.75358,-4.91611],[39.75589,-4.91883],[39.75889,-4.91866],[39.76062,-4.92304],[39.76368,-4.92627],[39.75984,-4.93781],[39.751,-4.94178],[39.74933,-4.94137],[39.74349,-4.93551],[39.74236,-4.9356],[39.73402,-4.91979],[39.73611,-4.91111],[39.73569,-4.90687]]]},"properties":{"region":"Kaskazini Pemba","district":"Micheweni","ward":"Msuka Mashariki","ward_code":"203"}},{"type":"Feature","geometry":{"type":"Polygon","coordinates":[[[39.72016,-4.9552],[39.72786,-4.95551],[39.72931,-4.95451],[39.73222,-4.95707],[39.74115,-4.9587],[39.74817,-4.95779],[39.74938,-4.96485],[39.75137,-4.96626],[39.75292,-4.96948],[39.75016,-4.97382],[39.74792,-4.97502],[39.74702,-4.98372],[39.72534,-4.98586],[39.71287,-4.98523],[39.7125,-4.98231],[39.71107,-4.98114],[39.7117,-4.97947],[39.70849,-4.97748],[39.70979,-4.97562],[39.70894,-4.97438],[39.70795,-4.97475],[39.70783,-4.97404],[39.70293,-4.97676],[39.70079,-4.9713],[39.69824,-4.97008],[39.69796,-4.97125],[39.69628,-4.97153],[39.6959,-4.97038],[39.69744,-4.96901],[39.69626,-4.96848],[39.69469,-4.97038],[39.69407,-4.97006],[39.69431,-4.96736],[39.69549,-4.96599],[39.70161,-4.9658],[39.71312,-4.95057],[39.71769,-4.95219],[39.72016,-4.9552]]]},"properties":{"region":"Kaskazini Pemba","district":"Micheweni","ward":"Kifundi","ward_code":"161"}},{"type":"Feature","geometry":{"type":"Polygon","coordinates":[[[39.74307,-4.9353],[39.74933,-4.94137],[39.75141,-4.94171],[39.75058,-4.94906],[39.75487,-4.95525],[39.74817,-4.95779],[39.74043,-4.95861],[39.73874,-4.95773],[39.74059,-4.95403],[39.73893,-4.94591],[39.73373,-4.94182],[39.73131,-4.93589],[39.74,-4.93662],[39.74307,-4.9353]]]},"properties":{"region":"Kaskazini Pemba","district":"Micheweni","ward":"Konde","ward_code":"212"}},{"type":"Feature","geometry":{"type":"Polygon","coordinates":[[[39.7132,-4.93538],[39.73131,-4.93589],[39.73373,-4.94182],[39.73893,-4.94591],[39.74059,-4.95403],[39.73874,-4.95773],[39.73222,-4.95707],[39.72931,-4.95451],[39.72786,-4.95551],[39.72016,-4.9552],[39.71769,-4.95219],[39.7129,-4.95037],[39.7132,-4.93538]]]},"properties":{"region":"Kaskazini Pemba","district":"Micheweni","ward":"Kipange","ward_code":"221"}},{"type":"Feature","geometry":{"type":"Polygon","coordinates":[[[39.77662,-4.96421],[39.78871,-4.96439],[39.79152,-4.96597],[39.79332,-4.97084],[39.79335,-4.97751],[39.79494,-4.98068],[39.79483,-4.98497],[39.80148,-5.0053],[39.79761,-5.00901],[39.79693,-5.01091],[39.7942,-5.01042],[39.79308,-5.00595],[39.79095,-5.00693],[39.7892,-5.0066],[39.78712,-5.00806],[39.78641,-5.00731],[39.78214,-5.00848],[39.78158,-5.00977],[39.77787,-5.00908],[39.77495,-5.01443],[39.76969,-5.01512],[39.7704,-5.00409],[39.77351,-5.00371],[39.77414,-4.99737],[39.77875,-4.98555],[39.78484,-4.97691],[39.78127,-4.96823],[39.77752,-4.96611],[39.77662,-4.96421]]]},"properties":{"region":"Kaskazini Pemba","district":"Micheweni","ward":"Mihogoni","ward_code":"131"}},{"type":"Feature","geometry":{"type":"Polygon","coordinates":[[[39.78866,-4.93261],[39.79107,-4.94243],[39.78865,-4.94385],[39.78706,-4.94877],[39.78723,-4.95503],[39.78621,-4.96054],[39.78743,-4.96433],[39.77662,-4.96421],[39.76918,-4.96162],[39.76759,-4.95453],[39.76921,-4.95266],[39.77052,-4.94686],[39.77271,-4.94504],[39.7726,-4.94286],[39.77456,-4.93959],[39.77326,-4.93913],[39.77518,-4.93825],[39.77609,-4.93619],[39.77713,-4.93893],[39.77984,-4.93678],[39.78046,-4.9348],[39.78216,-4.93383],[39.78344,-4.92623],[39.7842,-4.92572],[39.78866,-4.93261]]]},"properties":{"region":"Kaskazini Pemba","district":"Micheweni","ward":"Tumbe Magharibi","ward_code":"231"}},{"type":"Feature","geometry":{"type":"Polygon","coordinates":[[[39.79107,-4.94243],[39.79584,-4.94858],[39.79509,-4.94898],[39.7962,-4.94959],[39.79925,-4.95656],[39.79862,-4.95968],[39.80001,-4.96183],[39.80502,-4.96488],[39.80908,-4.96505],[39.80992,-4.96815],[39.80868,-4.96716],[39.80565,-4.97074],[39.80313,-4.97074],[39.80119,-4.96665],[39.79446,-4.96686],[39.78743,-4.96433],[39.78621,-4.96054],[39.78753,-4.94607],[39.78889,-4.94366],[39.79107,-4.94243]]]},"properties":{"region":"Kaskazini Pemba","district":"Micheweni","ward":"Tumbe Mashariki","ward_code":"241"}},{"type":"Feature","geometry":{"type":"Polygon","coordinates":[[[39.77875,-4.98555],[39.77414,-4.99737],[39.77351,-5.00371],[39.7704,-5.00409],[39.76969,-5.01512],[39.76505,-5.01494],[39.7597,-5.01847],[39.75169,-4.99876],[39.75225,-4.99363],[39.75579,-4.99446],[39.7587,-4.99389],[39.76184,-4.9842],[39.76553,-4.9815],[39.76807,-4.9779],[39.77754,-4.97415],[39.77781,-4.97226],[39.78176,-4.96963],[39.78484,-4.97691],[39.77875,-4.98555]]]},"properties":{"region":"Kaskazini Pemba","district":"Micheweni","ward":"Shumba Viamboni","ward_code":"141"}},{"type":"Feature","geometry":{"type":"Polygon","coordinates":[[[39.76626,-4.96278],[39.76918,-4.96162],[39.77662,-4.96421],[39.77752,-4.96611],[39.78127,-4.96823],[39.78176,-4.96963],[39.77781,-4.97226],[39.77754,-4.97415],[39.76807,-4.9779],[39.76553,-4.9815],[39.76184,-4.9842],[39.7587,-4.99389],[39.75579,-4.99446],[39.75225,-4.99363],[39.75275,-4.99066],[39.74702,-4.98372],[39.74792,-4.97502],[39.75016,-4.97382],[39.75292,-4.96948],[39.75137,-4.96626],[39.74938,-4.96485],[39.74817,-4.95779],[39.75487,-4.95525],[39.75729,-4.95599],[39.75802,-4.95821],[39.76019,-4.95841],[39.76626,-4.96278]]]},"properties":{"region":"Kaskazini Pemba","district":"Micheweni","ward":"Chimba","ward_code":"151"}},{"type":"Feature","geometry":{"type":"Polygon","coordinates":[[[39.78373,-4.92708],[39.78216,-4.93383],[39.78046,-4.9348],[39.77833,-4.93828],[39.77713,-4.93893],[39.77609,-4.93619],[39.77518,-4.93825],[39.77326,-4.93913],[39.77456,-4.93959],[39.7726,-4.94286],[39.77271,-4.94504],[39.77052,-4.94686],[39.76921,-4.95266],[39.76759,-4.95453],[39.76918,-4.96162],[39.76551,-4.96269],[39.76445,-4.96079],[39.76019,-4.95841],[39.75802,-4.95821],[39.75729,-4.95599],[39.75487,-4.95525],[39.75241,-4.95276],[39.75051,-4.94859],[39.75141,-4.94171],[39.75247,-4.94047],[39.75984,-4.93781],[39.76368,-4.92627],[39.76793,-4.92958],[39.7715,-4.93097],[39.77347,-4.93062],[39.77544,-4.93216],[39.78225,-4.9244],[39.78373,-4.92708]]]},"properties":{"region":"Kaskazini Pemba","district":"Micheweni","ward":"Kinowe","ward_code":"253"}}]}