{"type":"FeatureCollection","features":[{"type":"Feature","geometry":{"type":"MultiPolygon","coordinates":[[[[39.28083,-5.78043],[39.28328,-5.7858],[39.27993,-5.78179],[39.28083,-5.78043]]],[[[39.28686,-5.77158],[39.28631,-5.77558],[39.28336,-5.77706],[39.2831,-5.77226],[39.28686,-5.77158]]],[[[39.29054,-5.76837],[39.31029,-5.76871],[39.31371,-5.77485],[39.30205,-5.77449],[39.30073,-5.77722],[39.30185,-5.78082],[39.29417,-5.78124],[39.29286,-5.77775],[39.29042,-5.77599],[39.29031,-5.77313],[39.29123,-5.77135],[39.29054,-5.76837]]]]},"properties":{"region":"Kaskazini Unguja","district":"Kaskazini A","ward":"Kigunda","ward_code":"151"}},{"type":"Feature","geometry":{"type":"Polygon","coordinates":[[[39.3231,-5.7436],[39.33342,-5.76009],[39.34409,-5.77402],[39.31371,-5.77485],[39.31029,-5.76871],[39.29054,-5.76837],[39.28967,-5.75997],[39.28782,-5.75995],[39.28737,-5.75813],[39.28732,-5.75136],[39.28917,-5.74673],[39.28878,-5.74105],[39.29247,-5.74192],[39.29329,-5.74404],[39.31795,-5.73712],[39.3231,-5.7436]]]},"properties":{"region":"Kaskazini Unguja","district":"Kaskazini A","ward":"Kilindi","ward_code":"301"}},{"type":"Feature","geometry":{"type":"Polygon","coordinates":[[[39.29757,-5.72313],[39.29921,-5.74251],[39.29312,-5.74404],[39.29247,-5.74192],[39.28878,-5.74105],[39.29131,-5.72863],[39.29366,-5.72448],[39.29757,-5.72313]]]},"properties":{"region":"Kaskazini Unguja","district":"Kaskazini A","ward":"Banda Kuu","ward_code":"392"}},{"type":"Feature","geometry":{"type":"Polygon","coordinates":[[[39.30271,-5.72198],[39.30805,-5.72417],[39.31795,-5.73712],[39.29921,-5.74251],[39.29757,-5.72313],[39.30271,-5.72198]]]},"properties":{"region":"Kaskazini Unguja","district":"Kaskazini A","ward":"Kiungani","ward_code":"402"}},{"type":"Feature","geometry":{"type":"Polygon","coordinates":[[[39.29515,-5.81915],[39.29808,-5.8401],[39.28575,-5.83925],[39.28298,-5.83783],[39.28442,-5.83451],[39.28337,-5.83183],[39.285,-5.83044],[39.28637,-5.83106],[39.28916,-5.8297],[39.28831,-5.82379],[39.29009,-5.82096],[39.29027,-5.81735],[39.29118,-5.81646],[39.29571,-5.81713],[39.29515,-5.81915]]]},"properties":{"region":"Kaskazini Unguja","district":"Kaskazini A","ward":"Fukuchani","ward_code":"121"}},{"type":"Feature","geometry":{"type":"Polygon","coordinates":[[[39.29585,-5.79127],[39.35409,-5.79304],[39.35599,-5.79624],[39.35872,-5.80519],[39.35855,-5.81081],[39.29226,-5.8063],[39.29197,-5.80053],[39.29585,-5.79127]]]},"properties":{"region":"Kaskazini Unguja","district":"Kaskazini A","ward":"Kidoti","ward_code":"131"}},{"type":"Feature","geometry":{"type":"Polygon","coordinates":[[[39.34425,-5.7742],[39.35088,-5.78463],[39.29453,-5.78488],[39.29382,-5.78328],[39.29512,-5.78316],[39.29417,-5.78124],[39.30185,-5.78082],[39.30073,-5.77722],[39.30205,-5.77449],[39.34425,-5.7742]]]},"properties":{"region":"Kaskazini Unguja","district":"Kaskazini A","ward":"Tazari","ward_code":"141"}},{"type":"Feature","geometry":{"type":"Polygon","coordinates":[[[39.29453,-5.78488],[39.35088,-5.78463],[39.35409,-5.79304],[39.29585,-5.79127],[39.29453,-5.78488]]]},"properties":{"region":"Kaskazini Unguja","district":"Kaskazini A","ward":"Kilimani Tazari","ward_code":"311"}},{"type":"Feature","geometry":{"type":"Polygon","coordinates":[[[39.29226,-5.8063],[39.31615,-5.80794],[39.31786,-5.81322],[39.31767,-5.8204],[39.31414,-5.82024],[39.31084,-5.81829],[39.29129,-5.81655],[39.29222,-5.81307],[39.29152,-5.80799],[39.29226,-5.8063]]]},"properties":{"region":"Kaskazini Unguja","district":"Kaskazini A","ward":"Bwereu","ward_code":"341"}},{"type":"Feature","geometry":{"type":"Polygon","coordinates":[[[39.27708,-5.87522],[39.28791,-5.87566],[39.28726,-5.87724],[39.28962,-5.87687],[39.28786,-5.87899],[39.28828,-5.88097],[39.27633,-5.88396],[39.27557,-5.87927],[39.27346,-5.87653],[39.27708,-5.87522]]]},"properties":{"region":"Kaskazini Unguja","district":"Kaskazini A","ward":"Kivunge","ward_code":"043"}},{"type":"Feature","geometry":{"type":"Polygon","coordinates":[[[39.27603,-5.86107],[39.2982,-5.86131],[39.29849,-5.8662],[39.28898,-5.86655],[39.28724,-5.86737],[39.28687,-5.86943],[39.28388,-5.86944],[39.28075,-5.86797],[39.28079,-5.86674],[39.27439,-5.86452],[39.27603,-5.86107]]]},"properties":{"region":"Kaskazini Unguja","district":"Kaskazini A","ward":"Muwange","ward_code":"091"}},{"type":"Feature","geometry":{"type":"Polygon","coordinates":[[[39.27439,-5.86452],[39.28079,-5.86674],[39.28075,-5.86797],[39.28388,-5.86944],[39.28687,-5.86943],[39.28647,-5.87151],[39.28814,-5.87218],[39.28791,-5.87566],[39.27864,-5.875],[39.27346,-5.87653],[39.27272,-5.87317],[39.2708,-5.87061],[39.26821,-5.86865],[39.26668,-5.86872],[39.27321,-5.86622],[39.27439,-5.86452]]]},"properties":{"region":"Kaskazini Unguja","district":"Kaskazini A","ward":"Pitanazako","ward_code":"101"}},{"type":"Feature","geometry":{"type":"Polygon","coordinates":[[[39.2982,-5.86131],[39.28317,-5.86183],[39.27603,-5.86107],[39.27858,-5.85143],[39.28036,-5.84853],[39.2815,-5.83944],[39.28298,-5.83783],[39.28575,-5.83925],[39.29808,-5.8401],[39.2982,-5.86131]]]},"properties":{"region":"Kaskazini Unguja","district":"Kaskazini A","ward":"Potoa","ward_code":"111"}},{"type":"Feature","geometry":{"type":"Polygon","coordinates":[[[39.34348,-5.83444],[39.34234,-5.84045],[39.3388,-5.84472],[39.33844,-5.85246],[39.31928,-5.85129],[39.31943,-5.8564],[39.31232,-5.87683],[39.30303,-5.8685],[39.29849,-5.8662],[39.29757,-5.85069],[39.29808,-5.8401],[39.319,-5.83924],[39.31796,-5.81416],[39.31615,-5.80794],[39.32921,-5.80882],[39.32921,-5.82275],[39.33661,-5.83153],[39.34348,-5.83444]]]},"properties":{"region":"Kaskazini Unguja","district":"Kaskazini A","ward":"Kijini Matemwe","ward_code":"181"}},{"type":"Feature","geometry":{"type":"Polygon","coordinates":[[[39.34348,-5.83444],[39.34915,-5.83654],[39.35983,-5.83599],[39.35879,-5.83861],[39.35601,-5.85979],[39.31943,-5.8564],[39.31928,-5.85129],[39.33844,-5.85246],[39.3388,-5.84472],[39.34234,-5.84045],[39.34348,-5.83444]]]},"properties":{"region":"Kaskazini Unguja","district":"Kaskazini A","ward":"Kigomani","ward_code":"351"}},{"type":"Feature","geometry":{"type":"Polygon","coordinates":[[[39.319,-5.83924],[39.29808,-5.8401],[39.29627,-5.83144],[39.29671,-5.82903],[39.29515,-5.81915],[39.29571,-5.81713],[39.31084,-5.81829],[39.31414,-5.82024],[39.31767,-5.8204],[39.319,-5.83924]]]},"properties":{"region":"Kaskazini Unguja","district":"Kaskazini A","ward":"Kigongoni","ward_code":"381"}},{"type":"Feature","geometry":{"type":"Polygon","coordinates":[[[39.33081,-5.88206],[39.30873,-5.88338],[39.31236,-5.87779],[39.31943,-5.8564],[39.33491,-5.85783],[39.33501,-5.88047],[39.33081,-5.88206]]]},"properties":{"region":"Kaskazini Unguja","district":"Kaskazini A","ward":"Juga Kuu","ward_code":"411"}},{"type":"Feature","geometry":{"type":"MultiPolygon","coordinates":[[[[39.38508,-5.81881],[39.38479,-5.82177],[39.38159,-5.82161],[39.38354,-5.81892],[39.38508,-5.81881]]],[[[39.34916,-5.83654],[39.33661,-5.83153],[39.32921,-5.82275],[39.32921,-5.80882],[39.35857,-5.81081],[39.35915,-5.82457],[39.36079,-5.8275],[39.35983,-5.83599],[39.34916,-5.83654]]]]},"properties":{"region":"Kaskazini Unguja","district":"Kaskazini A","ward":"Mbuyutende","ward_code":"431"}},{"type":"Feature","geometry":{"type":"Polygon","coordinates":[[[39.29113,-5.87679],[39.2933,-5.87941],[39.29411,-5.88213],[39.29506,-5.88199],[39.29523,-5.8895],[39.29011,-5.89],[39.27838,-5.89391],[39.2777,-5.88721],[39.27633,-5.88396],[39.28828,-5.88097],[39.28786,-5.87899],[39.28962,-5.87687],[39.29113,-5.87679]]]},"properties":{"region":"Kaskazini Unguja","district":"Kaskazini A","ward":"Mkwajuni","ward_code":"071"}},{"type":"Feature","geometry":{"type":"Polygon","coordinates":[[[39.30924,-5.87384],[39.28726,-5.87724],[39.28814,-5.87218],[39.28647,-5.87151],[39.28724,-5.86737],[39.28898,-5.86655],[39.29849,-5.8662],[39.30303,-5.8685],[39.30924,-5.87384]]]},"properties":{"region":"Kaskazini Unguja","district":"Kaskazini A","ward":"Kibeni","ward_code":"081"}},{"type":"Feature","geometry":{"type":"Polygon","coordinates":[[[39.29848,-5.91385],[39.28288,-5.91452],[39.28012,-5.90234],[39.29319,-5.89913],[39.29736,-5.90754],[39.29848,-5.91385]]]},"properties":{"region":"Kaskazini Unguja","district":"Kaskazini A","ward":"Moga","ward_code":"211"}},{"type":"Feature","geometry":{"type":"Polygon","coordinates":[[[39.29755,-5.88902],[39.30632,-5.89174],[39.30912,-5.89681],[39.29474,-5.89878],[39.28012,-5.90234],[39.27838,-5.89391],[39.29011,-5.89],[39.29755,-5.88902]]]},"properties":{"region":"Kaskazini Unguja","district":"Kaskazini A","ward":"Chutama","ward_code":"291"}},{"type":"Feature","geometry":{"type":"Polygon","coordinates":[[[39.30924,-5.87384],[39.31236,-5.87779],[39.30873,-5.88338],[39.30632,-5.89174],[39.29961,-5.88937],[39.29523,-5.8895],[39.2953,-5.88274],[39.29411,-5.88213],[39.2915,-5.87692],[39.30924,-5.87384]]]},"properties":{"region":"Kaskazini Unguja","district":"Kaskazini A","ward":"Kidombo","ward_code":"331"}},{"type":"Feature","geometry":{"type":"Polygon","coordinates":[[[39.35601,-5.85979],[39.35391,-5.87499],[39.34674,-5.87546],[39.33908,-5.87952],[39.33501,-5.88047],[39.33491,-5.85783],[39.35601,-5.85979]]]},"properties":{"region":"Kaskazini Unguja","district":"Kaskazini A","ward":"Matemwe Kaskazini","ward_code":"171"}},{"type":"Feature","geometry":{"type":"Polygon","coordinates":[[[39.31098,-5.90016],[39.31417,-5.91445],[39.29848,-5.91389],[39.29736,-5.90754],[39.29319,-5.89913],[39.30912,-5.89681],[39.31098,-5.90016]]]},"properties":{"region":"Kaskazini Unguja","district":"Kaskazini A","ward":"Gamba","ward_code":"203"}},{"type":"Feature","geometry":{"type":"Polygon","coordinates":[[[39.34674,-5.87546],[39.35391,-5.87499],[39.35387,-5.8838],[39.35642,-5.90579],[39.35161,-5.90526],[39.33744,-5.9062],[39.33104,-5.9093],[39.31417,-5.91445],[39.31098,-5.90016],[39.30632,-5.89174],[39.30873,-5.88338],[39.33081,-5.88206],[39.33908,-5.87952],[39.34674,-5.87546]]]},"properties":{"region":"Kaskazini Unguja","district":"Kaskazini A","ward":"Matemwe Kusini","ward_code":"421"}},{"type":"Feature","geometry":{"type":"Polygon","coordinates":[[[39.36645,-5.94836],[39.35674,-5.95106],[39.34617,-5.92667],[39.34264,-5.90602],[39.35161,-5.90526],[39.35642,-5.90579],[39.35737,-5.9195],[39.3609,-5.92846],[39.36645,-5.94836]]]},"properties":{"region":"Kaskazini Unguja","district":"Kaskazini A","ward":"Pwani Mchangani","ward_code":"193"}},{"type":"Feature","geometry":{"type":"Polygon","coordinates":[[[39.32685,-5.94149],[39.33063,-5.9527],[39.31204,-5.96079],[39.30825,-5.96101],[39.30325,-5.96099],[39.29897,-5.94756],[39.30719,-5.947],[39.32685,-5.94149]]]},"properties":{"region":"Kaskazini Unguja","district":"Kaskazini A","ward":"Kikobweni","ward_code":"251"}},{"type":"Feature","geometry":{"type":"Polygon","coordinates":[[[39.29962,-5.94382],[39.29891,-5.94726],[39.30325,-5.96099],[39.30335,-5.96563],[39.30011,-5.96499],[39.29315,-5.96557],[39.28963,-5.96261],[39.28815,-5.96253],[39.28857,-5.95668],[39.29135,-5.95311],[39.29234,-5.94458],[39.29708,-5.94471],[39.29962,-5.94382]]]},"properties":{"region":"Kaskazini Unguja","district":"Kaskazini A","ward":"Bandamaji","ward_code":"261"}},{"type":"Feature","geometry":{"type":"Polygon","coordinates":[[[39.33063,-5.9527],[39.3299,-5.96355],[39.32587,-5.96909],[39.31115,-5.97397],[39.30469,-5.97895],[39.30087,-5.97833],[39.29981,-5.9738],[39.30335,-5.96563],[39.30325,-5.96099],[39.31204,-5.96079],[39.33063,-5.9527]]]},"properties":{"region":"Kaskazini Unguja","district":"Kaskazini A","ward":"Kinyasini","ward_code":"273"}},{"type":"Feature","geometry":{"type":"Polygon","coordinates":[[[39.35078,-5.93591],[39.35674,-5.95106],[39.35407,-5.95097],[39.33024,-5.96082],[39.33104,-5.95639],[39.33047,-5.95132],[39.32685,-5.94149],[39.31688,-5.9359],[39.31435,-5.92942],[39.31417,-5.91445],[39.33104,-5.9093],[39.33744,-5.9062],[39.34264,-5.90602],[39.34617,-5.92667],[39.35078,-5.93591]]]},"properties":{"region":"Kaskazini Unguja","district":"Kaskazini A","ward":"Kandwi","ward_code":"281"}},{"type":"Feature","geometry":{"type":"Polygon","coordinates":[[[39.28288,-5.91452],[39.31417,-5.91445],[39.31435,-5.92942],[39.29993,-5.93115],[39.29786,-5.935],[39.29861,-5.93618],[39.28492,-5.93656],[39.28288,-5.91452]]]},"properties":{"region":"Kaskazini Unguja","district":"Kaskazini A","ward":"Chaani Masingini","ward_code":"221"}},{"type":"Feature","geometry":{"type":"Polygon","coordinates":[[[39.31435,-5.92942],[39.31688,-5.93591],[39.30472,-5.93559],[39.30068,-5.93653],[39.29861,-5.93618],[39.29786,-5.935],[39.3001,-5.93111],[39.31435,-5.92942]]]},"properties":{"region":"Kaskazini Unguja","district":"Kaskazini A","ward":"Mchenza Shauri","ward_code":"231"}},{"type":"Feature","geometry":{"type":"Polygon","coordinates":[[[39.30472,-5.93559],[39.31688,-5.9359],[39.32685,-5.94149],[39.30516,-5.94739],[39.29897,-5.94756],[39.29962,-5.94382],[39.29708,-5.94471],[39.29234,-5.94458],[39.29286,-5.93606],[39.30068,-5.93653],[39.30472,-5.93559]]]},"properties":{"region":"Kaskazini Unguja","district":"Kaskazini A","ward":"Chaani Kubwa","ward_code":"241"}},{"type":"Feature","geometry":{"type":"Polygon","coordinates":[[[39.26876,-5.86911],[39.27222,-5.8724],[39.27297,-5.87582],[39.27557,-5.87927],[39.27582,-5.88289],[39.2777,-5.88721],[39.27791,-5.89239],[39.27247,-5.8907],[39.26486,-5.88477],[39.25719,-5.88159],[39.25549,-5.87963],[39.24902,-5.87806],[39.2491,-5.8761],[39.24998,-5.87568],[39.25351,-5.87433],[39.2536,-5.87535],[39.25688,-5.87439],[39.25792,-5.87223],[39.26405,-5.87115],[39.26668,-5.86872],[39.26876,-5.86911]]]},"properties":{"region":"Kaskazini Unguja","district":"Kaskazini A","ward":"Mkokotoni","ward_code":"013"}},{"type":"Feature","geometry":{"type":"Polygon","coordinates":[[[39.25618,-5.88029],[39.25719,-5.88159],[39.26486,-5.88477],[39.25572,-5.89307],[39.24664,-5.89217],[39.22283,-5.892],[39.23465,-5.88009],[39.23805,-5.88037],[39.24908,-5.87804],[39.25618,-5.88029]]]},"properties":{"region":"Kaskazini Unguja","district":"Kaskazini A","ward":"Mto wa Pwani","ward_code":"023"}},{"type":"Feature","geometry":{"type":"Polygon","coordinates":[[[39.27804,-5.89295],[39.28143,-5.90748],[39.26194,-5.90816],[39.25312,-5.90771],[39.24079,-5.90161],[39.23902,-5.89916],[39.23539,-5.89732],[39.2333,-5.8948],[39.22975,-5.89542],[39.22791,-5.89322],[39.2229,-5.89342],[39.22264,-5.89248],[39.23439,-5.89184],[39.25572,-5.89307],[39.26486,-5.88477],[39.27247,-5.8907],[39.27804,-5.89295]]]},"properties":{"region":"Kaskazini Unguja","district":"Kaskazini A","ward":"Pale","ward_code":"031"}},{"type":"Feature","geometry":{"type":"Polygon","coordinates":[[[39.24148,-5.9189],[39.24944,-5.92084],[39.24714,-5.93448],[39.23743,-5.92982],[39.23604,-5.92586],[39.20861,-5.91427],[39.21431,-5.91019],[39.22296,-5.91675],[39.24148,-5.9189]]]},"properties":{"region":"Kaskazini Unguja","district":"Kaskazini A","ward":"Mchangani","ward_code":"061"}},{"type":"Feature","geometry":{"type":"Polygon","coordinates":[[[39.25312,-5.90771],[39.28143,-5.90748],[39.28336,-5.9195],[39.24944,-5.92084],[39.2439,-5.91958],[39.23702,-5.91118],[39.24079,-5.90161],[39.25312,-5.90771]]]},"properties":{"region":"Kaskazini Unguja","district":"Kaskazini A","ward":"Kipange","ward_code":"161"}},{"type":"Feature","geometry":{"type":"Polygon","coordinates":[[[39.22791,-5.89322],[39.22975,-5.89542],[39.2333,-5.8948],[39.23539,-5.89732],[39.23902,-5.89916],[39.24079,-5.90161],[39.23702,-5.91118],[39.24326,-5.91881],[39.23524,-5.91873],[39.22296,-5.91675],[39.21431,-5.91019],[39.21822,-5.90819],[39.22093,-5.90532],[39.2244,-5.8966],[39.2229,-5.89342],[39.22791,-5.89322]]]},"properties":{"region":"Kaskazini Unguja","district":"Kaskazini A","ward":"Muwanda","ward_code":"441"}},{"type":"Feature","geometry":{"type":"MultiPolygon","coordinates":[[[[39.22163,-5.76697],[39.22659,-5.77224],[39.22566,-5.79342],[39.2281,-5.80094],[39.23904,-5.80922],[39.24023,-5.8093],[39.24146,-5.80703],[39.24321,-5.80755],[39.23896,-5.81344],[39.23872,-5.81889],[39.23593,-5.82195],[39.23382,-5.82179],[39.23227,-5.81984],[39.23389,-5.81428],[39.23156,-5.81853],[39.23033,-5.81973],[39.22944,-5.81937],[39.22905,-5.82086],[39.2302,-5.82138],[39.2274,-5.82138],[39.22629,-5.81549],[39.2269,-5.80949],[39.22393,-5.80873],[39.22254,-5.78734],[39.22049,-5.77379],[39.22044,-5.7683],[39.2207,-5.76708],[39.22163,-5.76697]]],[[[39.22209,-5.76049],[39.21978,-5.76324],[39.21827,-5.7613],[39.22013,-5.75557],[39.22213,-5.75874],[39.22209,-5.76049]]]]},"properties":{"region":"Kaskazini Unguja","district":"Kaskazini A","ward":"Gomani","ward_code":"051"}},{"type":"Feature","geometry":{"type":"MultiPolygon","coordinates":[[[[39.21554,-5.821],[39.23002,-5.82155],[39.2293,-5.82212],[39.23031,-5.82247],[39.22982,-5.82612],[39.23411,-5.83286],[39.23534,-5.83728],[39.23458,-5.83854],[39.23339,-5.84029],[39.2135,-5.83949],[39.21357,-5.83118],[39.21554,-5.821]]],[[[39.25457,-5.82061],[39.25095,-5.82456],[39.24907,-5.82986],[39.24704,-5.82586],[39.24917,-5.82421],[39.24893,-5.82208],[39.25006,-5.82244],[39.25344,-5.81595],[39.25457,-5.81707],[39.25457,-5.82061]]]]},"properties":{"region":"Kaskazini Unguja","district":"Kaskazini A","ward":"Uvivini","ward_code":"321"}},{"type":"Feature","geometry":{"type":"Polygon","coordinates":[[[39.22055,-5.76702],[39.2205,-5.77396],[39.22254,-5.78734],[39.22393,-5.80873],[39.2269,-5.80949],[39.22629,-5.81549],[39.2274,-5.82138],[39.21554,-5.821],[39.21583,-5.80531],[39.21683,-5.80138],[39.21602,-5.7967],[39.21709,-5.7892],[39.21587,-5.77927],[39.22055,-5.76702]]]},"properties":{"region":"Kaskazini Unguja","district":"Kaskazini A","ward":"Mtakuja","ward_code":"361"}},{"type":"Feature","geometry":{"type":"MultiPolygon","coordinates":[[[[39.20841,-5.87346],[39.20751,-5.87382],[39.20656,-5.87259],[39.20787,-5.86984],[39.20841,-5.87346]]],[[[39.24049,-5.85516],[39.24114,-5.85599],[39.23984,-5.8556],[39.24049,-5.85516]]],[[[39.23566,-5.85618],[39.2304,-5.8582],[39.22086,-5.85801],[39.21845,-5.85718],[39.21663,-5.85946],[39.21154,-5.84533],[39.2135,-5.83949],[39.23306,-5.84015],[39.23612,-5.84141],[39.23701,-5.84256],[39.23659,-5.84708],[39.23793,-5.85265],[39.2358,-5.85473],[39.23566,-5.85618]]]]},"properties":{"region":"Kaskazini Unguja","district":"Kaskazini A","ward":"Jongowe","ward_code":"371"}},{"type":"Feature","geometry":{"type":"Polygon","coordinates":[[[39.26031,-5.97169],[39.25601,-5.97938],[39.25305,-5.98064],[39.25186,-5.97908],[39.24912,-5.97913],[39.22886,-5.96794],[39.23412,-5.96086],[39.247,-5.95906],[39.2601,-5.9605],[39.26165,-5.96102],[39.26031,-5.97169]]]},"properties":{"region":"Kaskazini Unguja","district":"Kaskazini B","ward":"Mnyimbi","ward_code":"111"}},{"type":"Feature","geometry":{"type":"Polygon","coordinates":[[[39.23918,-5.94706],[39.2473,-5.94711],[39.25401,-5.94877],[39.25789,-5.94805],[39.25849,-5.96006],[39.247,-5.95906],[39.23412,-5.96086],[39.2391,-5.94904],[39.23918,-5.94706]]]},"properties":{"region":"Kaskazini Unguja","district":"Kaskazini B","ward":"Donge Mbiji","ward_code":"151"}},{"type":"Feature","geometry":{"type":"Polygon","coordinates":[[[39.26436,-5.93427],[39.26113,-5.9397],[39.25633,-5.93868],[39.25461,-5.94335],[39.25518,-5.94868],[39.2473,-5.94711],[39.23918,-5.94706],[39.24756,-5.93389],[39.25431,-5.93344],[39.26436,-5.93427]]]},"properties":{"region":"Kaskazini Unguja","district":"Kaskazini B","ward":"Donge Pwani","ward_code":"171"}},{"type":"Feature","geometry":{"type":"Polygon","coordinates":[[[39.22886,-5.96794],[39.24912,-5.97913],[39.25186,-5.97908],[39.25305,-5.98064],[39.25601,-5.97938],[39.25843,-5.98527],[39.25792,-5.99286],[39.25539,-5.99281],[39.25192,-5.99098],[39.2502,-5.9929],[39.2473,-5.99311],[39.22861,-5.99108],[39.22122,-5.98704],[39.22356,-5.98295],[39.22495,-5.97735],[39.22864,-5.97206],[39.22886,-5.96794]]]},"properties":{"region":"Kaskazini Unguja","district":"Kaskazini B","ward":"Mkataleni","ward_code":"273"}},{"type":"Feature","geometry":{"type":"Polygon","coordinates":[[[39.25725,-5.93061],[39.259,-5.93391],[39.24756,-5.93389],[39.24944,-5.92084],[39.25842,-5.92068],[39.25725,-5.93061]]]},"properties":{"region":"Kaskazini Unguja","district":"Kaskazini B","ward":"Donge Mtambile","ward_code":"121"}},{"type":"Feature","geometry":{"type":"Polygon","coordinates":[[[39.28963,-5.96261],[39.29289,-5.96572],[39.28281,-5.97307],[39.27949,-5.97418],[39.27806,-5.97343],[39.27493,-5.97392],[39.27135,-5.97979],[39.26867,-5.97878],[39.26403,-5.97322],[39.26031,-5.97169],[39.26165,-5.96102],[39.25849,-5.96006],[39.25831,-5.95055],[39.29222,-5.94563],[39.29135,-5.95311],[39.28857,-5.95668],[39.28778,-5.96058],[39.28815,-5.96253],[39.28963,-5.96261]]]},"properties":{"region":"Kaskazini Unguja","district":"Kaskazini B","ward":"Donge Karange","ward_code":"141"}},{"type":"Feature","geometry":{"type":"Polygon","coordinates":[[[39.25553,-5.94866],[39.25461,-5.94335],[39.25633,-5.93868],[39.26113,-5.9397],[39.25869,-5.94726],[39.25553,-5.94866]]]},"properties":{"region":"Kaskazini Unguja","district":"Kaskazini B","ward":"Donge Vijibweni","ward_code":"161"}},{"type":"Feature","geometry":{"type":"Polygon","coordinates":[[[39.2847,-5.93604],[39.259,-5.93391],[39.25832,-5.93117],[39.25725,-5.93061],[39.25842,-5.92068],[39.28335,-5.9195],[39.2847,-5.93604]]]},"properties":{"region":"Kaskazini Unguja","district":"Kaskazini B","ward":"Njia ya Mtoni","ward_code":"281"}},{"type":"Feature","geometry":{"type":"Polygon","coordinates":[[[39.26436,-5.93427],[39.28492,-5.93656],[39.29286,-5.93606],[39.29222,-5.94563],[39.25831,-5.95055],[39.25787,-5.94805],[39.26113,-5.9397],[39.26436,-5.93427]]]},"properties":{"region":"Kaskazini Unguja","district":"Kaskazini B","ward":"Majenzi","ward_code":"311"}},{"type":"Feature","geometry":{"type":"Polygon","coordinates":[[[39.27124,-6.00077],[39.28444,-6.0001],[39.29012,-6.00647],[39.27352,-6.00723],[39.26858,-6.00938],[39.26629,-6.01303],[39.25768,-6.01535],[39.25622,-6.02519],[39.25823,-6.03294],[39.25164,-6.03422],[39.25135,-6.02658],[39.24849,-6.02252],[39.24618,-6.0209],[39.24693,-6.01856],[39.24517,-6.01639],[39.2502,-6.00572],[39.25234,-6.00602],[39.25684,-6.00194],[39.26381,-6.00314],[39.26617,-6.00165],[39.26845,-6.00247],[39.27124,-6.00077]]]},"properties":{"region":"Kaskazini Unguja","district":"Kaskazini B","ward":"Kitope","ward_code":"093"}},{"type":"Feature","geometry":{"type":"Polygon","coordinates":[[[39.3296,-6.00863],[39.33729,-6.00953],[39.35883,-6.00886],[39.36141,-6.01498],[39.36233,-6.02243],[39.36465,-6.0283],[39.33861,-6.03199],[39.33339,-6.03466],[39.32968,-6.03492],[39.31824,-6.03135],[39.29503,-6.02659],[39.29857,-6.0194],[39.3015,-6.01025],[39.30885,-6.01115],[39.31228,-6.01257],[39.31813,-6.01264],[39.31939,-6.01139],[39.32227,-6.012],[39.32579,-6.01048],[39.32791,-6.0107],[39.3296,-6.00863]]]},"properties":{"region":"Kaskazini Unguja","district":"Kaskazini B","ward":"Kilombero","ward_code":"211"}},{"type":"Feature","geometry":{"type":"Polygon","coordinates":[[[39.29515,-6.02635],[39.28227,-6.02789],[39.27118,-6.02726],[39.25823,-6.03294],[39.25622,-6.02519],[39.25711,-6.01697],[39.25768,-6.01535],[39.26026,-6.01406],[39.26629,-6.01303],[39.26858,-6.00938],[39.27352,-6.00723],[39.29065,-6.00652],[39.29708,-6.00947],[39.3015,-6.01025],[39.29857,-6.0194],[39.29515,-6.02635]]]},"properties":{"region":"Kaskazini Unguja","district":"Kaskazini B","ward":"Mbaleni","ward_code":"251"}},{"type":"Feature","geometry":{"type":"Polygon","coordinates":[[[39.2459,-6.01638],[39.24693,-6.01856],[39.24618,-6.0209],[39.24849,-6.02252],[39.25135,-6.02658],[39.25164,-6.03422],[39.24084,-6.03834],[39.23072,-6.03901],[39.23606,-6.0329],[39.23894,-6.02563],[39.24472,-6.01678],[39.2459,-6.01638]]]},"properties":{"region":"Kaskazini Unguja","district":"Kaskazini B","ward":"Kwagube","ward_code":"301"}},{"type":"Feature","geometry":{"type":"Polygon","coordinates":[[[39.22919,-5.99091],[39.2502,-5.9929],[39.25192,-5.99098],[39.25539,-5.99281],[39.25792,-5.99286],[39.25781,-6.0023],[39.25684,-6.00194],[39.25234,-6.00602],[39.24119,-6.00431],[39.23928,-6.00314],[39.23887,-6.00133],[39.22761,-5.99423],[39.22919,-5.99091]]]},"properties":{"region":"Kaskazini Unguja","district":"Kaskazini B","ward":"Mahonda","ward_code":"103"}},{"type":"Feature","geometry":{"type":"Polygon","coordinates":[[[39.27067,-5.97942],[39.27223,-5.97884],[39.27379,-5.97486],[39.27763,-5.99265],[39.28444,-6.0001],[39.27403,-6.00025],[39.26845,-6.00247],[39.26617,-6.00165],[39.26381,-6.00314],[39.26011,-6.00198],[39.25781,-6.0023],[39.25843,-5.98527],[39.25601,-5.97938],[39.26031,-5.97169],[39.26403,-5.97322],[39.26806,-5.97845],[39.27067,-5.97942]]]},"properties":{"region":"Kaskazini Unguja","district":"Kaskazini B","ward":"Kinduni","ward_code":"131"}},{"type":"Feature","geometry":{"type":"Polygon","coordinates":[[[39.23886,-6.0258],[39.23731,-6.03078],[39.22977,-6.026],[39.21952,-6.02349],[39.22808,-6.01345],[39.24119,-6.00431],[39.2502,-6.00572],[39.24601,-6.01559],[39.23886,-6.0258]]]},"properties":{"region":"Kaskazini Unguja","district":"Kaskazini B","ward":"Matetema","ward_code":"231"}},{"type":"Feature","geometry":{"type":"Polygon","coordinates":[[[39.34869,-5.95303],[39.35616,-6.00179],[39.35883,-6.00886],[39.33404,-6.00902],[39.33268,-6.00706],[39.33052,-5.99802],[39.32744,-5.99381],[39.32489,-5.99251],[39.31901,-5.99263],[39.31157,-5.9908],[39.311,-5.98716],[39.31214,-5.97966],[39.31309,-5.97982],[39.31434,-5.97817],[39.3148,-5.97405],[39.3174,-5.97221],[39.32587,-5.96909],[39.3299,-5.96355],[39.33024,-5.96082],[39.34869,-5.95303]]]},"properties":{"region":"Kaskazini Unguja","district":"Kaskazini B","ward":"Upenja","ward_code":"181"}},{"type":"Feature","geometry":{"type":"Polygon","coordinates":[[[39.36598,-5.94841],[39.36941,-5.95542],[39.3722,-5.96725],[39.37678,-5.97973],[39.37809,-5.98742],[39.38401,-6.00248],[39.39499,-6.01376],[39.39853,-6.01886],[39.40049,-6.01951],[39.40122,-6.02159],[39.39815,-6.02149],[39.39573,-6.02392],[39.39415,-6.02429],[39.36465,-6.0283],[39.36233,-6.02243],[39.36141,-6.01498],[39.35616,-6.00179],[39.34869,-5.95303],[39.35407,-5.95097],[39.36217,-5.95005],[39.36598,-5.94841]]]},"properties":{"region":"Kaskazini Unguja","district":"Kaskazini B","ward":"Kiwengwa","ward_code":"193"}},{"type":"Feature","geometry":{"type":"Polygon","coordinates":[[[39.31467,-5.99192],[39.32489,-5.99251],[39.32744,-5.99381],[39.33052,-5.99802],[39.33376,-6.00872],[39.33014,-6.00832],[39.32791,-6.0107],[39.32579,-6.01048],[39.32227,-6.012],[39.31939,-6.01139],[39.31832,-6.01259],[39.31477,-6.01276],[39.2982,-6.00978],[39.30029,-5.99075],[39.31157,-5.9908],[39.31467,-5.99192]]]},"properties":{"region":"Kaskazini Unguja","district":"Kaskazini B","ward":"Pangeni","ward_code":"201"}},{"type":"Feature","geometry":{"type":"Polygon","coordinates":[[[39.29304,-5.96535],[39.30335,-5.96563],[39.29981,-5.9738],[39.30095,-5.97771],[39.3008,-5.98741],[39.2982,-6.00978],[39.29012,-6.00647],[39.27763,-5.99265],[39.27379,-5.97486],[39.27493,-5.97392],[39.27806,-5.97343],[39.27949,-5.97418],[39.28281,-5.97307],[39.29304,-5.96535]]]},"properties":{"region":"Kaskazini Unguja","district":"Kaskazini B","ward":"Mgambo","ward_code":"221"}},{"type":"Feature","geometry":{"type":"Polygon","coordinates":[[[39.31386,-5.97874],[39.31214,-5.97966],[39.311,-5.98716],[39.31157,-5.9908],[39.30029,-5.99075],[39.30087,-5.97833],[39.30469,-5.97895],[39.31115,-5.97397],[39.3174,-5.97221],[39.3148,-5.97405],[39.31386,-5.97874]]]},"properties":{"region":"Kaskazini Unguja","district":"Kaskazini B","ward":"Kisongoni","ward_code":"291"}},{"type":"Feature","geometry":{"type":"Polygon","coordinates":[[[39.18183,-5.9572],[39.2147,-5.95702],[39.23535,-5.9574],[39.23412,-5.96086],[39.22886,-5.96794],[39.22864,-5.97206],[39.20855,-5.97062],[39.18422,-5.97099],[39.18328,-5.96197],[39.18183,-5.9572]]]},"properties":{"region":"Kaskazini Unguja","district":"Kaskazini B","ward":"Misufini","ward_code":"013"}},{"type":"Feature","geometry":{"type":"Polygon","coordinates":[[[39.18165,-5.94864],[39.1973,-5.95001],[39.23853,-5.95015],[39.23535,-5.9574],[39.18183,-5.9572],[39.18165,-5.94864]]]},"properties":{"region":"Kaskazini Unguja","district":"Kaskazini B","ward":"Makoba","ward_code":"021"}},{"type":"Feature","geometry":{"type":"MultiPolygon","coordinates":[[[[39.2436,-5.93319],[39.23301,-5.93839],[39.22155,-5.93886],[39.2073,-5.93807],[39.20623,-5.9188],[39.20861,-5.91427],[39.23604,-5.92586],[39.23743,-5.92982],[39.2436,-5.93319]]],[[[39.2062,-5.91298],[39.20498,-5.91593],[39.20389,-5.91462],[39.20427,-5.91146],[39.2062,-5.91298]]]]},"properties":{"region":"Kaskazini Unguja","district":"Kaskazini B","ward":"Kiongwe Kidogo","ward_code":"061"}},{"type":"Feature","geometry":{"type":"Polygon","coordinates":[[[39.21172,-5.97085],[39.22864,-5.97206],[39.22495,-5.97735],[39.22356,-5.98295],[39.22122,-5.98704],[39.22854,-5.99138],[39.21795,-5.99142],[39.21433,-5.99229],[39.20689,-5.99155],[39.20952,-5.98273],[39.19558,-5.98251],[39.18493,-5.98435],[39.18344,-5.97892],[39.18422,-5.97099],[39.21172,-5.97085]]]},"properties":{"region":"Kaskazini Unguja","district":"Kaskazini B","ward":"Kidanzini","ward_code":"241"}},{"type":"Feature","geometry":{"type":"Polygon","coordinates":[[[39.1965,-5.89884],[39.19998,-5.90005],[39.20156,-5.90706],[39.19837,-5.91344],[39.1989,-5.91581],[39.20324,-5.92264],[39.20287,-5.92574],[39.20528,-5.93197],[39.20612,-5.93821],[39.23301,-5.93839],[39.2435,-5.93323],[39.24714,-5.93448],[39.23918,-5.94706],[39.23853,-5.95015],[39.1973,-5.95001],[39.1948,-5.94915],[39.18165,-5.94864],[39.18239,-5.94572],[39.1866,-5.93841],[39.18719,-5.9348],[39.18668,-5.92742],[39.1837,-5.91758],[39.18424,-5.90759],[39.19393,-5.89629],[39.19515,-5.896],[39.1965,-5.89884]]]},"properties":{"region":"Kaskazini Unguja","district":"Kaskazini B","ward":"Mafufuni","ward_code":"261"}},{"type":"Feature","geometry":{"type":"Polygon","coordinates":[[[39.19558,-5.98251],[39.20952,-5.98273],[39.20611,-5.99643],[39.21546,-6.00071],[39.21224,-6.00219],[39.20639,-6.00308],[39.19895,-6.00203],[39.18886,-6.00221],[39.18861,-6.00036],[39.18542,-5.99753],[39.18419,-5.99384],[39.1854,-5.99102],[39.18472,-5.98488],[39.19558,-5.98251]]]},"properties":{"region":"Kaskazini Unguja","district":"Kaskazini B","ward":"Mangapwani","ward_code":"031"}},{"type":"Feature","geometry":{"type":"Polygon","coordinates":[[[39.21546,-6.00071],[39.21682,-6.01547],[39.2133,-6.01587],[39.20229,-6.02042],[39.19445,-6.02224],[39.19143,-6.01013],[39.18903,-6.00609],[39.18886,-6.00221],[39.19895,-6.00203],[39.20639,-6.00308],[39.21224,-6.00219],[39.21546,-6.00071]]]},"properties":{"region":"Kaskazini Unguja","district":"Kaskazini B","ward":"Fujoni","ward_code":"041"}},{"type":"Feature","geometry":{"type":"Polygon","coordinates":[[[39.21871,-6.03181],[39.22171,-6.0371],[39.2149,-6.03599],[39.20909,-6.03353],[39.20386,-6.03375],[39.20351,-6.03179],[39.19783,-6.02787],[39.19445,-6.02224],[39.20229,-6.02042],[39.2133,-6.01587],[39.21682,-6.01547],[39.21952,-6.02349],[39.21871,-6.03181]]]},"properties":{"region":"Kaskazini Unguja","district":"Kaskazini B","ward":"Kiombamvua","ward_code":"053"}},{"type":"Feature","geometry":{"type":"Polygon","coordinates":[[[39.22975,-6.02599],[39.2373,-6.03079],[39.23053,-6.03929],[39.22234,-6.03999],[39.22106,-6.03485],[39.21871,-6.03181],[39.21952,-6.02349],[39.22975,-6.02599]]]},"properties":{"region":"Kaskazini Unguja","district":"Kaskazini B","ward":"Mkadini","ward_code":"071"}},{"type":"Feature","geometry":{"type":"Polygon","coordinates":[[[39.21433,-5.99229],[39.22854,-5.99138],[39.22761,-5.99423],[39.23887,-6.00133],[39.23928,-6.00314],[39.24119,-6.00431],[39.22808,-6.01345],[39.21952,-6.02349],[39.21584,-6.01072],[39.21546,-6.00071],[39.20611,-5.99643],[39.20689,-5.99155],[39.21433,-5.99229]]]},"properties":{"region":"Kaskazini Unguja","district":"Kaskazini B","ward":"Zingwezingwe","ward_code":"081"}}]}