{"type":"FeatureCollection","features":[{"type":"Feature","geometry":{"type":"Polygon","coordinates":[[[39.32465,-6.05504],[39.32626,-6.05932],[39.3253,-6.06521],[39.32553,-6.07497],[39.30616,-6.07495],[39.30529,-6.07243],[39.30032,-6.06912],[39.29607,-6.06761],[39.27738,-6.06709],[39.28191,-6.05706],[39.28361,-6.0553],[39.30627,-6.053],[39.32225,-6.05273],[39.32465,-6.05504]]]},"properties":{"region":"Kusini Unguja","district":"Kati","ward":"Kiboje Muembe Shauri","ward_code":"051"}},{"type":"Feature","geometry":{"type":"Polygon","coordinates":[[[39.31638,-6.09667],[39.29279,-6.09751],[39.29282,-6.08051],[39.30074,-6.07575],[39.30616,-6.07495],[39.32553,-6.07497],[39.32425,-6.08218],[39.31606,-6.09279],[39.31638,-6.09667]]]},"properties":{"region":"Kusini Unguja","district":"Kati","ward":"Kiboje Mkwajuni","ward_code":"071"}},{"type":"Feature","geometry":{"type":"Polygon","coordinates":[[[39.30627,-6.053],[39.28361,-6.0553],[39.28594,-6.05309],[39.28625,-6.04843],[39.27956,-6.03247],[39.2788,-6.02795],[39.29503,-6.02659],[39.2986,-6.03026],[39.30116,-6.03587],[39.30606,-6.04016],[39.30899,-6.04553],[39.31108,-6.04647],[39.31193,-6.04989],[39.3148,-6.0529],[39.30627,-6.053]]]},"properties":{"region":"Kusini Unguja","district":"Kati","ward":"Ghana","ward_code":"081"}},{"type":"Feature","geometry":{"type":"Polygon","coordinates":[[[39.33501,-6.09993],[39.32722,-6.09781],[39.31638,-6.09667],[39.31606,-6.09279],[39.3229,-6.08398],[39.33823,-6.08459],[39.33501,-6.09993]]]},"properties":{"region":"Kusini Unguja","district":"Kati","ward":"Mgeni Haji","ward_code":"101"}},{"type":"Feature","geometry":{"type":"Polygon","coordinates":[[[39.32563,-6.06896],[39.3305,-6.07122],[39.34215,-6.07067],[39.33823,-6.08459],[39.3229,-6.08398],[39.32532,-6.07798],[39.32563,-6.06896]]]},"properties":{"region":"Kusini Unguja","district":"Kati","ward":"Uzini","ward_code":"111"}},{"type":"Feature","geometry":{"type":"Polygon","coordinates":[[[39.34491,-6.06181],[39.34215,-6.07067],[39.3305,-6.07122],[39.32563,-6.06896],[39.32612,-6.06181],[39.34491,-6.06181]]]},"properties":{"region":"Kusini Unguja","district":"Kati","ward":"Mitakawani","ward_code":"121"}},{"type":"Feature","geometry":{"type":"Polygon","coordinates":[[[39.34902,-6.05068],[39.34491,-6.06181],[39.32612,-6.06181],[39.32592,-6.05721],[39.32225,-6.05273],[39.34902,-6.05068]]]},"properties":{"region":"Kusini Unguja","district":"Kati","ward":"Tunduni","ward_code":"131"}},{"type":"Feature","geometry":{"type":"Polygon","coordinates":[[[39.3935,-6.0842],[39.34526,-6.09343],[39.33623,-6.09362],[39.34262,-6.06825],[39.34902,-6.05068],[39.38852,-6.05075],[39.3935,-6.0842]]]},"properties":{"region":"Kusini Unguja","district":"Kati","ward":"Bambi","ward_code":"141"}},{"type":"Feature","geometry":{"type":"Polygon","coordinates":[[[39.3935,-6.0842],[39.39589,-6.10499],[39.34395,-6.11359],[39.34311,-6.10818],[39.34318,-6.09345],[39.3935,-6.0842]]]},"properties":{"region":"Kusini Unguja","district":"Kati","ward":"Pagali","ward_code":"151"}},{"type":"Feature","geometry":{"type":"Polygon","coordinates":[[[39.39589,-6.10499],[39.40086,-6.15013],[39.4007,-6.15574],[39.34512,-6.15595],[39.34842,-6.13444],[39.34395,-6.11359],[39.39589,-6.10499]]]},"properties":{"region":"Kusini Unguja","district":"Kati","ward":"Umbuji","ward_code":"161"}},{"type":"Feature","geometry":{"type":"Polygon","coordinates":[[[39.32962,-6.0349],[39.33339,-6.03466],[39.33861,-6.03199],[39.34923,-6.03048],[39.34258,-6.05144],[39.3148,-6.0529],[39.31193,-6.04989],[39.31108,-6.04647],[39.30899,-6.04553],[39.30606,-6.04016],[39.30116,-6.03587],[39.2986,-6.03026],[39.29503,-6.02659],[39.31824,-6.03135],[39.32962,-6.0349]]]},"properties":{"region":"Kusini Unguja","district":"Kati","ward":"Mchangani Shamba","ward_code":"171"}},{"type":"Feature","geometry":{"type":"Polygon","coordinates":[[[39.34306,-6.10514],[39.33637,-6.10522],[39.33494,-6.10032],[39.33623,-6.09362],[39.34318,-6.09345],[39.34306,-6.10514]]]},"properties":{"region":"Kusini Unguja","district":"Kati","ward":"Mpapa","ward_code":"371"}},{"type":"Feature","geometry":{"type":"Polygon","coordinates":[[[39.38433,-6.02551],[39.38852,-6.05075],[39.34902,-6.05068],[39.34258,-6.05144],[39.34923,-6.03048],[39.38433,-6.02551]]]},"properties":{"region":"Kusini Unguja","district":"Kati","ward":"Kijibwe Mtu","ward_code":"411"}},{"type":"Feature","geometry":{"type":"Polygon","coordinates":[[[39.30892,-6.09697],[39.30878,-6.13009],[39.3114,-6.13701],[39.30414,-6.137],[39.29114,-6.1394],[39.29094,-6.13587],[39.29232,-6.13542],[39.29254,-6.12988],[39.29137,-6.12583],[39.29138,-6.12006],[39.29338,-6.11115],[39.29279,-6.09751],[39.30892,-6.09697]]]},"properties":{"region":"Kusini Unguja","district":"Kati","ward":"Kidimni","ward_code":"031"}},{"type":"Feature","geometry":{"type":"Polygon","coordinates":[[[39.29279,-6.09228],[39.29314,-6.11245],[39.27522,-6.11245],[39.27448,-6.11079],[39.27753,-6.10459],[39.27708,-6.10251],[39.27823,-6.10065],[39.27758,-6.0989],[39.27822,-6.09385],[39.27718,-6.09237],[39.29279,-6.09228]]]},"properties":{"region":"Kusini Unguja","district":"Kati","ward":"Machui","ward_code":"041"}},{"type":"Feature","geometry":{"type":"Polygon","coordinates":[[[39.29387,-6.06705],[39.30032,-6.06912],[39.30605,-6.07301],[39.30616,-6.07495],[39.30074,-6.07575],[39.29282,-6.08051],[39.29279,-6.09228],[39.27725,-6.09233],[39.27697,-6.08873],[39.27504,-6.08642],[39.27599,-6.08319],[39.27502,-6.07576],[39.27738,-6.06709],[39.29387,-6.06705]]]},"properties":{"region":"Kusini Unguja","district":"Kati","ward":"Miwani","ward_code":"061"}},{"type":"Feature","geometry":{"type":"Polygon","coordinates":[[[39.27453,-6.11304],[39.29314,-6.11245],[39.29138,-6.12006],[39.29137,-6.12583],[39.29254,-6.12988],[39.29232,-6.13542],[39.29094,-6.13587],[39.29114,-6.1394],[39.2838,-6.14249],[39.27368,-6.14367],[39.27118,-6.1459],[39.26909,-6.1461],[39.26903,-6.14537],[39.27049,-6.14502],[39.27009,-6.14396],[39.27099,-6.144],[39.27151,-6.13707],[39.27249,-6.13522],[39.27121,-6.13426],[39.26999,-6.12953],[39.27265,-6.12693],[39.2717,-6.12185],[39.27408,-6.12095],[39.27451,-6.11752],[39.27595,-6.11587],[39.27453,-6.11304]]]},"properties":{"region":"Kusini Unguja","district":"Kati","ward":"Koani","ward_code":"093"}},{"type":"Feature","geometry":{"type":"Polygon","coordinates":[[[39.36107,-6.18722],[39.35989,-6.17209],[39.36194,-6.15551],[39.4007,-6.15574],[39.40068,-6.17312],[39.37974,-6.17623],[39.37774,-6.18014],[39.37175,-6.18481],[39.36107,-6.18722]]]},"properties":{"region":"Kusini Unguja","district":"Kati","ward":"Jendele","ward_code":"201"}},{"type":"Feature","geometry":{"type":"Polygon","coordinates":[[[39.43515,-6.15034],[39.43808,-6.15943],[39.43767,-6.17035],[39.43573,-6.17086],[39.4357,-6.17267],[39.43442,-6.17278],[39.43224,-6.17488],[39.42755,-6.17459],[39.42329,-6.1793],[39.41981,-6.18136],[39.41471,-6.18837],[39.40256,-6.17613],[39.40068,-6.17312],[39.40076,-6.15051],[39.43515,-6.15034]]]},"properties":{"region":"Kusini Unguja","district":"Kati","ward":"Chwaka","ward_code":"211"}},{"type":"Feature","geometry":{"type":"Polygon","coordinates":[[[39.3972,-6.11619],[39.42786,-6.11569],[39.42559,-6.11791],[39.42557,-6.13557],[39.42655,-6.14016],[39.42873,-6.14413],[39.43375,-6.14788],[39.43515,-6.15034],[39.40076,-6.15051],[39.3972,-6.11619]]]},"properties":{"region":"Kusini Unguja","district":"Kati","ward":"Marumbi","ward_code":"221"}},{"type":"Feature","geometry":{"type":"Polygon","coordinates":[[[39.39202,-6.0715],[39.43145,-6.07141],[39.42757,-6.08172],[39.42583,-6.0899],[39.426,-6.09648],[39.42523,-6.09674],[39.42601,-6.09648],[39.42868,-6.11298],[39.42801,-6.11566],[39.3972,-6.11619],[39.39202,-6.0715]]]},"properties":{"region":"Kusini Unguja","district":"Kati","ward":"Uroa","ward_code":"231"}},{"type":"Feature","geometry":{"type":"Polygon","coordinates":[[[39.39794,-6.02162],[39.40122,-6.02159],[39.40527,-6.02608],[39.41074,-6.03861],[39.40827,-6.04598],[39.41078,-6.05138],[39.41539,-6.05577],[39.42045,-6.05515],[39.42637,-6.05804],[39.42718,-6.06408],[39.4291,-6.06251],[39.43157,-6.06482],[39.43141,-6.0714],[39.39202,-6.0715],[39.38433,-6.02551],[39.39566,-6.02394],[39.39794,-6.02162]]]},"properties":{"region":"Kusini Unguja","district":"Kati","ward":"Pongwe","ward_code":"241"}},{"type":"Feature","geometry":{"type":"Polygon","coordinates":[[[39.34145,-6.17893],[39.34721,-6.17738],[39.36036,-6.17728],[39.36107,-6.18722],[39.35637,-6.20022],[39.35022,-6.21348],[39.33394,-6.20275],[39.32889,-6.19558],[39.32847,-6.18538],[39.33011,-6.18247],[39.33654,-6.17674],[39.34145,-6.17893]]]},"properties":{"region":"Kusini Unguja","district":"Kati","ward":"Ndijani Mseweni","ward_code":"191"}},{"type":"Feature","geometry":{"type":"Polygon","coordinates":[[[39.40732,-6.20182],[39.40266,-6.22638],[39.37244,-6.22305],[39.35022,-6.21348],[39.35637,-6.20022],[39.36107,-6.18722],[39.37175,-6.18481],[39.37774,-6.18014],[39.37974,-6.17623],[39.39461,-6.17368],[39.40068,-6.17312],[39.40256,-6.17613],[39.4146,-6.18826],[39.41385,-6.19393],[39.40732,-6.20182]]]},"properties":{"region":"Kusini Unguja","district":"Kati","ward":"Cheju","ward_code":"281"}},{"type":"Feature","geometry":{"type":"Polygon","coordinates":[[[39.44435,-6.17911],[39.45058,-6.19133],[39.45309,-6.19314],[39.45321,-6.19735],[39.45644,-6.20182],[39.4531,-6.2054],[39.45377,-6.20577],[39.45331,-6.20929],[39.45591,-6.21444],[39.45432,-6.22753],[39.44144,-6.22892],[39.4358,-6.23342],[39.4312,-6.24299],[39.42968,-6.25095],[39.40365,-6.25176],[39.40266,-6.22638],[39.40721,-6.20212],[39.41327,-6.1957],[39.41464,-6.19299],[39.41562,-6.19317],[39.4148,-6.19145],[39.41664,-6.19272],[39.41744,-6.19697],[39.41687,-6.19279],[39.41771,-6.19155],[39.41917,-6.19116],[39.41967,-6.19482],[39.42181,-6.19442],[39.42074,-6.19325],[39.4228,-6.19054],[39.42136,-6.18807],[39.42344,-6.18923],[39.42662,-6.18784],[39.42758,-6.18826],[39.42688,-6.18753],[39.42822,-6.18595],[39.43195,-6.18434],[39.43357,-6.19012],[39.43244,-6.19358],[39.43443,-6.18978],[39.43513,-6.19019],[39.4338,-6.18773],[39.4352,-6.18684],[39.43641,-6.18197],[39.43799,-6.18231],[39.44134,-6.18114],[39.44435,-6.17911]]]},"properties":{"region":"Kusini Unguja","district":"Kati","ward":"Charawe","ward_code":"341"}},{"type":"Feature","geometry":{"type":"Polygon","coordinates":[[[39.47765,-6.17875],[39.48073,-6.18426],[39.47927,-6.18659],[39.47667,-6.18716],[39.4758,-6.18898],[39.47885,-6.19241],[39.4778,-6.19048],[39.4786,-6.18951],[39.48216,-6.19002],[39.48256,-6.19827],[39.48487,-6.19741],[39.48488,-6.1957],[39.48622,-6.19514],[39.48791,-6.19586],[39.48783,-6.19715],[39.48972,-6.1974],[39.48984,-6.19893],[39.49067,-6.19753],[39.49104,-6.19916],[39.49211,-6.1989],[39.4915,-6.19532],[39.49327,-6.19749],[39.49294,-6.19528],[39.49387,-6.19544],[39.49168,-6.19436],[39.4905,-6.1925],[39.49232,-6.19328],[39.49243,-6.19211],[39.4941,-6.19141],[39.49481,-6.18633],[39.49601,-6.18612],[39.5024,-6.19072],[39.46947,-6.24304],[39.46508,-6.25306],[39.46513,-6.26119],[39.42589,-6.26112],[39.42572,-6.2557],[39.42755,-6.2557],[39.4287,-6.25327],[39.42841,-6.25106],[39.42968,-6.25095],[39.4312,-6.24299],[39.4358,-6.23342],[39.44144,-6.22892],[39.45432,-6.22753],[39.45591,-6.21444],[39.45438,-6.21151],[39.45503,-6.20943],[39.45847,-6.20467],[39.45946,-6.20472],[39.45835,-6.20296],[39.45906,-6.20253],[39.46194,-6.20506],[39.4599,-6.20235],[39.45714,-6.20115],[39.45626,-6.19865],[39.45684,-6.19608],[39.46203,-6.19612],[39.46291,-6.19727],[39.46336,-6.19615],[39.46433,-6.19614],[39.4663,-6.19745],[39.46539,-6.19597],[39.46998,-6.19488],[39.46361,-6.19457],[39.46174,-6.19294],[39.46525,-6.19197],[39.46241,-6.1917],[39.46249,-6.19044],[39.46359,-6.18812],[39.46436,-6.18939],[39.46486,-6.18871],[39.4659,-6.18455],[39.46759,-6.18509],[39.46815,-6.18375],[39.46921,-6.18398],[39.4682,-6.18546],[39.46933,-6.18496],[39.47023,-6.18602],[39.47033,-6.18478],[39.47391,-6.18336],[39.47285,-6.18162],[39.47557,-6.18268],[39.47346,-6.18041],[39.47477,-6.17406],[39.47613,-6.17282],[39.47765,-6.17875]]]},"properties":{"region":"Kusini Unguja","district":"Kati","ward":"Ukongoroni","ward_code":"351"}},{"type":"Feature","geometry":{"type":"Polygon","coordinates":[[[39.42841,-6.25106],[39.4287,-6.25327],[39.42755,-6.2557],[39.42572,-6.2557],[39.42566,-6.25684],[39.42597,-6.26249],[39.42777,-6.26685],[39.4268,-6.27165],[39.42947,-6.28737],[39.42572,-6.29712],[39.41909,-6.30206],[39.41271,-6.30129],[39.40888,-6.30421],[39.40763,-6.30565],[39.40712,-6.31066],[39.40437,-6.31637],[39.39651,-6.31462],[39.38963,-6.31001],[39.39073,-6.30524],[39.38929,-6.2907],[39.38901,-6.25196],[39.42841,-6.25106]]]},"properties":{"region":"Kusini Unguja","district":"Kati","ward":"Pete","ward_code":"361"}},{"type":"Feature","geometry":{"type":"Polygon","coordinates":[[[39.36036,-6.17728],[39.34721,-6.17738],[39.34167,-6.17898],[39.33802,-6.17715],[39.34239,-6.16668],[39.34512,-6.15595],[39.36194,-6.15551],[39.35989,-6.17209],[39.36036,-6.17728]]]},"properties":{"region":"Kusini Unguja","district":"Kati","ward":"Ndijani Muembe Punda","ward_code":"391"}},{"type":"Feature","geometry":{"type":"Polygon","coordinates":[[[39.40365,-6.25176],[39.38901,-6.25196],[39.38918,-6.25741],[39.36678,-6.25729],[39.33926,-6.22896],[39.34339,-6.22623],[39.35023,-6.21348],[39.37244,-6.22305],[39.40266,-6.22638],[39.40365,-6.25176]]]},"properties":{"region":"Kusini Unguja","district":"Kati","ward":"Zuwiyani","ward_code":"421"}},{"type":"Feature","geometry":{"type":"Polygon","coordinates":[[[39.33637,-6.10522],[39.34306,-6.10514],[39.34323,-6.10968],[39.34832,-6.13505],[39.32983,-6.13574],[39.32226,-6.1344],[39.31507,-6.13097],[39.30878,-6.13009],[39.30892,-6.09697],[39.31638,-6.09667],[39.32722,-6.09781],[39.33494,-6.10032],[39.33637,-6.10522]]]},"properties":{"region":"Kusini Unguja","district":"Kati","ward":"Dunga Bweni","ward_code":"013"}},{"type":"Feature","geometry":{"type":"Polygon","coordinates":[[[39.31175,-6.14249],[39.31141,-6.14719],[39.31008,-6.14815],[39.30992,-6.14962],[39.30953,-6.17036],[39.27867,-6.16981],[39.27608,-6.16083],[39.27488,-6.15946],[39.27333,-6.15939],[39.27313,-6.15747],[39.27141,-6.15601],[39.27196,-6.1547],[39.27065,-6.15202],[39.27051,-6.14805],[39.26909,-6.1461],[39.27118,-6.1459],[39.27368,-6.14367],[39.2838,-6.14249],[39.2911,-6.13941],[39.30414,-6.137],[39.3114,-6.13701],[39.31048,-6.13827],[39.31175,-6.14249]]]},"properties":{"region":"Kusini Unguja","district":"Kati","ward":"Ubago","ward_code":"021"}},{"type":"Feature","geometry":{"type":"Polygon","coordinates":[[[39.32151,-6.13413],[39.32983,-6.13574],[39.34832,-6.13505],[39.34409,-6.16093],[39.32973,-6.15797],[39.30928,-6.15924],[39.31008,-6.14815],[39.31141,-6.14719],[39.31181,-6.1422],[39.31048,-6.13827],[39.3115,-6.13724],[39.30878,-6.13009],[39.31537,-6.13105],[39.32151,-6.13413]]]},"properties":{"region":"Kusini Unguja","district":"Kati","ward":"Dunga Kiembeni","ward_code":"181"}},{"type":"Feature","geometry":{"type":"Polygon","coordinates":[[[39.30953,-6.17036],[39.31152,-6.17579],[39.31108,-6.17981],[39.31482,-6.18132],[39.31127,-6.2126],[39.30976,-6.21783],[39.30783,-6.21789],[39.30773,-6.22499],[39.30419,-6.21982],[39.29935,-6.21504],[39.29102,-6.20987],[39.28635,-6.20489],[39.28507,-6.19282],[39.27863,-6.18508],[39.27627,-6.18407],[39.27459,-6.18069],[39.27427,-6.17726],[39.27532,-6.17485],[39.27502,-6.17307],[39.27662,-6.17072],[39.27867,-6.16981],[39.30953,-6.17036]]]},"properties":{"region":"Kusini Unguja","district":"Kati","ward":"Jumbi","ward_code":"252"}},{"type":"Feature","geometry":{"type":"Polygon","coordinates":[[[39.32272,-6.18452],[39.32694,-6.18445],[39.32681,-6.18513],[39.32847,-6.18538],[39.32889,-6.19558],[39.3331,-6.20191],[39.35022,-6.21348],[39.34295,-6.22661],[39.32627,-6.23619],[39.31261,-6.23929],[39.30997,-6.23704],[39.30956,-6.22885],[39.30773,-6.22499],[39.30783,-6.21789],[39.30976,-6.21783],[39.31127,-6.2126],[39.31482,-6.18132],[39.32272,-6.18452]]]},"properties":{"region":"Kusini Unguja","district":"Kati","ward":"Tunguu","ward_code":"262"}},{"type":"Feature","geometry":{"type":"Polygon","coordinates":[[[39.33182,-6.15847],[39.34409,-6.16093],[39.33802,-6.17715],[39.33654,-6.17674],[39.33011,-6.18247],[39.32847,-6.18538],[39.32681,-6.18513],[39.32694,-6.18445],[39.32255,-6.18449],[39.31913,-6.18253],[39.31202,-6.18077],[39.31108,-6.17981],[39.31133,-6.175],[39.3093,-6.16997],[39.30928,-6.15924],[39.33182,-6.15847]]]},"properties":{"region":"Kusini Unguja","district":"Kati","ward":"Binguni","ward_code":"271"}},{"type":"Feature","geometry":{"type":"Polygon","coordinates":[[[39.33939,-6.22868],[39.36678,-6.25729],[39.36482,-6.26319],[39.36541,-6.26143],[39.35208,-6.2614],[39.34543,-6.27101],[39.33784,-6.2719],[39.33377,-6.26205],[39.33097,-6.25913],[39.328,-6.25282],[39.32397,-6.25208],[39.32387,-6.25117],[39.31799,-6.24806],[39.31671,-6.24475],[39.31894,-6.2453],[39.3157,-6.23904],[39.32627,-6.23619],[39.33939,-6.22868]]]},"properties":{"region":"Kusini Unguja","district":"Kati","ward":"Bungi","ward_code":"291"}},{"type":"Feature","geometry":{"type":"Polygon","coordinates":[[[39.38566,-6.29717],[39.38693,-6.30105],[39.38656,-6.30665],[39.38751,-6.31218],[39.38853,-6.31347],[39.38402,-6.31653],[39.38257,-6.31895],[39.37944,-6.31926],[39.37816,-6.31851],[39.37755,-6.32274],[39.37961,-6.32931],[39.37787,-6.33157],[39.37629,-6.32647],[39.3764,-6.32284],[39.37179,-6.31906],[39.37308,-6.31825],[39.37031,-6.31656],[39.36959,-6.31702],[39.36793,-6.31386],[39.36577,-6.31228],[39.37357,-6.30074],[39.38566,-6.29717]]]},"properties":{"region":"Kusini Unguja","district":"Kati","ward":"Unguja Ukuu Kaepwani","ward_code":"301"}},{"type":"Feature","geometry":{"type":"MultiPolygon","coordinates":[[[[39.31687,-6.31163],[39.31853,-6.31406],[39.31726,-6.31368],[39.31687,-6.31163]]],[[[39.36541,-6.26143],[39.35334,-6.29842],[39.35332,-6.30082],[39.35227,-6.3001],[39.35059,-6.30113],[39.35514,-6.30987],[39.35429,-6.31131],[39.34854,-6.3053],[39.34231,-6.29114],[39.33777,-6.27173],[39.34543,-6.27101],[39.35208,-6.2614],[39.36541,-6.26143]]]]},"properties":{"region":"Kusini Unguja","district":"Kati","ward":"Kikungwi","ward_code":"311"}},{"type":"Feature","geometry":{"type":"Polygon","coordinates":[[[39.4015,-6.32733],[39.4044,-6.32847],[39.40458,-6.33253],[39.40601,-6.33366],[39.40543,-6.33507],[39.40728,-6.33553],[39.41026,-6.33839],[39.38348,-6.33897],[39.38388,-6.33766],[39.38253,-6.33664],[39.38193,-6.33316],[39.3832,-6.32798],[39.38842,-6.32795],[39.39185,-6.32586],[39.39538,-6.3202],[39.39925,-6.32337],[39.4015,-6.32733]]]},"properties":{"region":"Kusini Unguja","district":"Kati","ward":"Uzi","ward_code":"321"}},{"type":"Feature","geometry":{"type":"MultiPolygon","coordinates":[[[[39.34407,-6.43744],[39.3398,-6.43851],[39.33895,-6.43371],[39.33671,-6.43326],[39.33447,-6.42988],[39.3321,-6.42358],[39.33163,-6.41757],[39.33518,-6.41746],[39.3393,-6.41954],[39.34158,-6.42375],[39.34407,-6.43744]]],[[[39.32602,-6.4101],[39.32751,-6.41283],[39.32516,-6.4109],[39.32602,-6.4101]]],[[[39.29257,-6.38084],[39.29575,-6.3869],[39.28294,-6.37759],[39.28185,-6.37571],[39.28252,-6.37419],[39.28763,-6.3724],[39.29014,-6.37843],[39.29257,-6.38084]]],[[[39.28929,-6.36447],[39.28813,-6.36782],[39.28612,-6.36648],[39.2887,-6.36419],[39.28769,-6.36319],[39.28838,-6.36255],[39.28929,-6.36447]]],[[[39.3101,-6.3535],[39.31009,-6.35582],[39.30711,-6.35445],[39.3068,-6.35222],[39.3101,-6.3535]]],[[[39.35644,-6.35655],[39.35628,-6.36213],[39.35355,-6.36161],[39.34967,-6.35718],[39.34837,-6.35418],[39.34949,-6.35152],[39.35644,-6.35655]]],[[[39.30439,-6.3501],[39.30636,-6.35416],[39.30405,-6.35328],[39.30439,-6.3501]]],[[[39.33928,-6.34579],[39.33855,-6.34756],[39.33436,-6.3468],[39.33126,-6.34217],[39.33186,-6.33922],[39.33801,-6.34351],[39.33928,-6.34579]]],[[[39.41146,-6.34252],[39.41481,-6.34599],[39.41616,-6.34999],[39.41598,-6.3675],[39.41401,-6.36972],[39.41445,-6.37207],[39.41254,-6.37241],[39.41294,-6.37415],[39.41133,-6.3737],[39.40986,-6.37485],[39.41088,-6.3798],[39.40914,-6.38423],[39.40903,-6.38745],[39.41022,-6.39003],[39.40949,-6.3923],[39.40298,-6.38413],[39.40391,-6.38203],[39.4031,-6.37814],[39.40039,-6.37255],[39.39864,-6.36537],[39.39164,-6.36386],[39.39098,-6.36855],[39.38878,-6.36832],[39.38922,-6.36627],[39.38733,-6.36498],[39.38578,-6.35721],[39.38708,-6.35153],[39.38908,-6.34825],[39.38667,-6.34362],[39.38511,-6.34455],[39.38633,-6.34283],[39.38372,-6.33921],[39.41026,-6.33839],[39.41146,-6.34252]]]]},"properties":{"region":"Kusini Unguja","district":"Kati","ward":"Ng'ambwa","ward_code":"331"}},{"type":"Feature","geometry":{"type":"Polygon","coordinates":[[[39.38882,-6.25739],[39.38929,-6.2907],[39.35585,-6.2904],[39.36677,-6.2573],[39.38882,-6.25739]]]},"properties":{"region":"Kusini Unguja","district":"Kati","ward":"Unguja Ukuu Kaebona","ward_code":"381"}},{"type":"Feature","geometry":{"type":"Polygon","coordinates":[[[39.35585,-6.2904],[39.38929,-6.2907],[39.39073,-6.30524],[39.38652,-6.30464],[39.38693,-6.30105],[39.38566,-6.29717],[39.38088,-6.29828],[39.37357,-6.30074],[39.36561,-6.31226],[39.36467,-6.30951],[39.36136,-6.30584],[39.35334,-6.3003],[39.35585,-6.2904]]]},"properties":{"region":"Kusini Unguja","district":"Kati","ward":"Tindini","ward_code":"401"}},{"type":"Feature","geometry":{"type":"Polygon","coordinates":[[[39.50145,-6.12464],[39.50505,-6.12485],[39.50763,-6.12741],[39.50956,-6.12669],[39.51081,-6.12759],[39.51919,-6.15344],[39.52044,-6.15372],[39.52417,-6.16039],[39.52541,-6.16539],[39.52823,-6.17017],[39.52925,-6.1758],[39.50897,-6.17717],[39.5106,-6.17442],[39.50882,-6.1768],[39.507,-6.1768],[39.50335,-6.17094],[39.50347,-6.16195],[39.49649,-6.14736],[39.49335,-6.14584],[39.49469,-6.14736],[39.49344,-6.14949],[39.49129,-6.14984],[39.48891,-6.14849],[39.48971,-6.1408],[39.49303,-6.13447],[39.49092,-6.12827],[39.4918,-6.12468],[39.49639,-6.12259],[39.50145,-6.12464]]]},"properties":{"region":"Kusini Unguja","district":"Kusini","ward":"Michamvi","ward_code":"131"}},{"type":"Feature","geometry":{"type":"Polygon","coordinates":[[[39.46508,-6.25306],[39.53621,-6.25571],[39.53696,-6.27947],[39.53969,-6.29223],[39.51169,-6.29431],[39.50236,-6.29389],[39.46706,-6.29568],[39.46494,-6.28341],[39.46508,-6.25306]]]},"properties":{"region":"Kusini Unguja","district":"Kusini","ward":"Paje","ward_code":"153"}},{"type":"Feature","geometry":{"type":"Polygon","coordinates":[[[39.47281,-6.23783],[39.53482,-6.23893],[39.53621,-6.25571],[39.46508,-6.25306],[39.46947,-6.24304],[39.47281,-6.23783]]]},"properties":{"region":"Kusini Unguja","district":"Kusini","ward":"Bwejuu","ward_code":"173"}},{"type":"Feature","geometry":{"type":"Polygon","coordinates":[[[39.52925,-6.1758],[39.53478,-6.18719],[39.53572,-6.19218],[39.53321,-6.22394],[39.53482,-6.23893],[39.47281,-6.23783],[39.5024,-6.19072],[39.50435,-6.19317],[39.5063,-6.19873],[39.50847,-6.19974],[39.50666,-6.19822],[39.5071,-6.19098],[39.50646,-6.18968],[39.50998,-6.19007],[39.51258,-6.19151],[39.51114,-6.18884],[39.50644,-6.18826],[39.50522,-6.18307],[39.50593,-6.18198],[39.50883,-6.18437],[39.51005,-6.18466],[39.50988,-6.18329],[39.51114,-6.18386],[39.51303,-6.1877],[39.51095,-6.18161],[39.51186,-6.18083],[39.50991,-6.18061],[39.50666,-6.17766],[39.52925,-6.1758]]]},"properties":{"region":"Kusini Unguja","district":"Kusini","ward":"Dongwe","ward_code":"211"}},{"type":"Feature","geometry":{"type":"Polygon","coordinates":[[[39.4938,-6.37098],[39.48772,-6.36269],[39.4836,-6.35468],[39.48066,-6.3465],[39.47688,-6.32861],[39.5239,-6.32459],[39.54992,-6.32366],[39.55724,-6.34289],[39.55995,-6.34575],[39.56549,-6.35599],[39.5695,-6.36742],[39.57087,-6.3691],[39.4938,-6.37098]]]},"properties":{"region":"Kusini Unguja","district":"Kusini","ward":"Jambiani Kikadini","ward_code":"051"}},{"type":"Feature","geometry":{"type":"Polygon","coordinates":[[[39.53969,-6.29223],[39.54283,-6.30127],[39.54383,-6.30782],[39.54992,-6.32366],[39.5239,-6.32459],[39.47688,-6.32861],[39.47282,-6.31265],[39.46706,-6.29568],[39.50236,-6.29389],[39.51169,-6.29431],[39.53721,-6.29218],[39.53969,-6.29223]]]},"properties":{"region":"Kusini Unguja","district":"Kusini","ward":"Jambiani Kibigija","ward_code":"161"}},{"type":"Feature","geometry":{"type":"Polygon","coordinates":[[[39.46537,-6.28596],[39.46706,-6.29568],[39.42615,-6.29855],[39.42969,-6.28746],[39.4268,-6.27165],[39.42777,-6.26685],[39.42589,-6.26112],[39.46513,-6.26119],[39.46537,-6.28596]]]},"properties":{"region":"Kusini Unguja","district":"Kusini","ward":"Kitogani","ward_code":"181"}},{"type":"Feature","geometry":{"type":"Polygon","coordinates":[[[39.46706,-6.29568],[39.47688,-6.32861],[39.44601,-6.33191],[39.42445,-6.33165],[39.42138,-6.32758],[39.41527,-6.32349],[39.41369,-6.32368],[39.41159,-6.31944],[39.41161,-6.31657],[39.41372,-6.31438],[39.41496,-6.30868],[39.41633,-6.30811],[39.41982,-6.30286],[39.4243,-6.3003],[39.42526,-6.30068],[39.42615,-6.29855],[39.46706,-6.29568]]]},"properties":{"region":"Kusini Unguja","district":"Kusini","ward":"Muungoni","ward_code":"201"}},{"type":"Feature","geometry":{"type":"Polygon","coordinates":[[[39.51175,-6.40145],[39.57677,-6.40147],[39.57433,-6.41025],[39.55343,-6.4112],[39.5477,-6.41184],[39.54719,-6.41314],[39.5317,-6.41244],[39.50702,-6.4179],[39.51175,-6.40145]]]},"properties":{"region":"Kusini Unguja","district":"Kusini","ward":"Nganani","ward_code":"013"}},{"type":"Feature","geometry":{"type":"Polygon","coordinates":[[[39.55427,-6.41639],[39.55368,-6.41846],[39.55393,-6.42099],[39.55492,-6.42187],[39.55465,-6.42924],[39.56228,-6.43904],[39.55636,-6.44647],[39.53784,-6.43692],[39.54627,-6.42622],[39.55165,-6.4223],[39.55086,-6.41712],[39.55427,-6.41639]]]},"properties":{"region":"Kusini Unguja","district":"Kusini","ward":"Mzuri","ward_code":"031"}},{"type":"Feature","geometry":{"type":"Polygon","coordinates":[[[39.57311,-6.36875],[39.57512,-6.37676],[39.57779,-6.37799],[39.58037,-6.38439],[39.57988,-6.38983],[39.57677,-6.40147],[39.51175,-6.40145],[39.51154,-6.39751],[39.50928,-6.39227],[39.4938,-6.37098],[39.57204,-6.36953],[39.57311,-6.36875]]]},"properties":{"region":"Kusini Unguja","district":"Kusini","ward":"Kajengwa","ward_code":"041"}},{"type":"Feature","geometry":{"type":"Polygon","coordinates":[[[39.55135,-6.4117],[39.55165,-6.4223],[39.54627,-6.42622],[39.53784,-6.43692],[39.49882,-6.43694],[39.50702,-6.4179],[39.5317,-6.41244],[39.54719,-6.41314],[39.5477,-6.41184],[39.55135,-6.4117]]]},"properties":{"region":"Kusini Unguja","district":"Kusini","ward":"Kijini","ward_code":"182"}},{"type":"Feature","geometry":{"type":"Polygon","coordinates":[[[39.57433,-6.41025],[39.57219,-6.4146],[39.55625,-6.41517],[39.55086,-6.41712],[39.55158,-6.4116],[39.57433,-6.41025]]]},"properties":{"region":"Kusini Unguja","district":"Kusini","ward":"Kiongoni","ward_code":"192"}},{"type":"Feature","geometry":{"type":"Polygon","coordinates":[[[39.56836,-6.42524],[39.5682,-6.4301],[39.56228,-6.43904],[39.55465,-6.42924],[39.55492,-6.42187],[39.55393,-6.42099],[39.55368,-6.41846],[39.55448,-6.41639],[39.55625,-6.41517],[39.57219,-6.4146],[39.57072,-6.41673],[39.56836,-6.42524]]]},"properties":{"region":"Kusini Unguja","district":"Kusini","ward":"Tasani","ward_code":"201"}},{"type":"Feature","geometry":{"type":"Polygon","coordinates":[[[39.55636,-6.44647],[39.54465,-6.45628],[39.5327,-6.46783],[39.5161,-6.47628],[39.50782,-6.47816],[39.50434,-6.47657],[39.49815,-6.47591],[39.50111,-6.44229],[39.49882,-6.43694],[39.53784,-6.43692],[39.55636,-6.44647]]]},"properties":{"region":"Kusini Unguja","district":"Kusini","ward":"Mtende","ward_code":"061"}},{"type":"Feature","geometry":{"type":"Polygon","coordinates":[[[39.4768,-6.43784],[39.47547,-6.42532],[39.46512,-6.39224],[39.50928,-6.39227],[39.51154,-6.39751],[39.51175,-6.40145],[39.50702,-6.4179],[39.49882,-6.43694],[39.4768,-6.43784]]]},"properties":{"region":"Kusini Unguja","district":"Kusini","ward":"Kibuteni","ward_code":"071"}},{"type":"Feature","geometry":{"type":"Polygon","coordinates":[[[39.46512,-6.39224],[39.47547,-6.42532],[39.47677,-6.43785],[39.46199,-6.43843],[39.46223,-6.43775],[39.46045,-6.43655],[39.4564,-6.42927],[39.45702,-6.42336],[39.45547,-6.42187],[39.45538,-6.41822],[39.45125,-6.41173],[39.44442,-6.40643],[39.4418,-6.40165],[39.43999,-6.39236],[39.46512,-6.39224]]]},"properties":{"region":"Kusini Unguja","district":"Kusini","ward":"Kizimkazi Dimbani","ward_code":"081"}},{"type":"Feature","geometry":{"type":"Polygon","coordinates":[[[39.49882,-6.43694],[39.50111,-6.44229],[39.50091,-6.44629],[39.4979,-6.47529],[39.49543,-6.47586],[39.49528,-6.47712],[39.48806,-6.474],[39.48664,-6.47067],[39.48328,-6.46994],[39.48372,-6.46817],[39.47987,-6.46293],[39.47373,-6.45581],[39.46577,-6.44946],[39.46275,-6.44135],[39.46129,-6.43983],[39.46199,-6.43843],[39.47896,-6.43773],[39.49882,-6.43694]]]},"properties":{"region":"Kusini Unguja","district":"Kusini","ward":"Kizimkazi Mkunguni","ward_code":"091"}},{"type":"Feature","geometry":{"type":"Polygon","coordinates":[[[39.47688,-6.32861],[39.48066,-6.3465],[39.4836,-6.35468],[39.45467,-6.35458],[39.43295,-6.35567],[39.43319,-6.35171],[39.43051,-6.34456],[39.43081,-6.34328],[39.42668,-6.338],[39.42542,-6.33499],[39.42573,-6.33307],[39.42445,-6.33165],[39.44601,-6.33191],[39.47688,-6.32861]]]},"properties":{"region":"Kusini Unguja","district":"Kusini","ward":"Muyuni A","ward_code":"101"}},{"type":"Feature","geometry":{"type":"Polygon","coordinates":[[[39.48772,-6.36269],[39.4938,-6.37098],[39.46883,-6.36997],[39.43415,-6.37099],[39.43295,-6.35567],[39.45467,-6.35458],[39.4836,-6.35468],[39.48772,-6.36269]]]},"properties":{"region":"Kusini Unguja","district":"Kusini","ward":"Muyuni B","ward_code":"111"}},{"type":"Feature","geometry":{"type":"Polygon","coordinates":[[[39.4938,-6.37098],[39.50928,-6.39227],[39.43999,-6.39236],[39.43412,-6.37613],[39.43415,-6.37099],[39.46883,-6.36997],[39.4938,-6.37098]]]},"properties":{"region":"Kusini Unguja","district":"Kusini","ward":"Muyuni C","ward_code":"121"}}]}