{"type":"FeatureCollection","features":[{"type":"Feature","geometry":{"type":"Polygon","coordinates":[[[39.77448,-5.25426],[39.77966,-5.25502],[39.78055,-5.26348],[39.77557,-5.27512],[39.7704,-5.27597],[39.7692,-5.27519],[39.76781,-5.27183],[39.76298,-5.2702],[39.76366,-5.26946],[39.76205,-5.26714],[39.76351,-5.26775],[39.76277,-5.26521],[39.76029,-5.26478],[39.75937,-5.2657],[39.75823,-5.26501],[39.75778,-5.25982],[39.75501,-5.2575],[39.75706,-5.25802],[39.75653,-5.25686],[39.7576,-5.25679],[39.75828,-5.25771],[39.75776,-5.25819],[39.75822,-5.25911],[39.75904,-5.2569],[39.75996,-5.25767],[39.76349,-5.25733],[39.77448,-5.25426]]]},"properties":{"region":"Kusini Pemba","district":"Chake Chake","ward":"Chanjaani","ward_code":"012"}},{"type":"Feature","geometry":{"type":"Polygon","coordinates":[[[39.74962,-5.25564],[39.75324,-5.25615],[39.75449,-5.25898],[39.75711,-5.26096],[39.7571,-5.26273],[39.75601,-5.26331],[39.75599,-5.2638],[39.75768,-5.26326],[39.7583,-5.26562],[39.76277,-5.26521],[39.76351,-5.26775],[39.76205,-5.26714],[39.76366,-5.26946],[39.76298,-5.2702],[39.76781,-5.27183],[39.7692,-5.27519],[39.7704,-5.27597],[39.76698,-5.27955],[39.76492,-5.28485],[39.75963,-5.29292],[39.75609,-5.29009],[39.75337,-5.28941],[39.75149,-5.28544],[39.72924,-5.28679],[39.72917,-5.28257],[39.72758,-5.27855],[39.73325,-5.27182],[39.73391,-5.26895],[39.74291,-5.26511],[39.74641,-5.26148],[39.74732,-5.25761],[39.74962,-5.25564]]]},"properties":{"region":"Kusini Pemba","district":"Chake Chake","ward":"Shungi","ward_code":"091"}},{"type":"Feature","geometry":{"type":"Polygon","coordinates":[[[39.77544,-5.24236],[39.77988,-5.24383],[39.78007,-5.24597],[39.77888,-5.24714],[39.7783,-5.25075],[39.77966,-5.25502],[39.77448,-5.25426],[39.76349,-5.25733],[39.76011,-5.25759],[39.75916,-5.25683],[39.76335,-5.25254],[39.76907,-5.24957],[39.77096,-5.24412],[39.77366,-5.24437],[39.77544,-5.24236]]]},"properties":{"region":"Kusini Pemba","district":"Chake Chake","ward":"Madungu","ward_code":"202"}},{"type":"Feature","geometry":{"type":"Polygon","coordinates":[[[39.75869,-5.22068],[39.76313,-5.21893],[39.76542,-5.22097],[39.76712,-5.22064],[39.77027,-5.22766],[39.77238,-5.23564],[39.7742,-5.23807],[39.7728,-5.2401],[39.76963,-5.23972],[39.76759,-5.24405],[39.76495,-5.24485],[39.76304,-5.24291],[39.75989,-5.24532],[39.75666,-5.24594],[39.75659,-5.24423],[39.75938,-5.24443],[39.75807,-5.2434],[39.75578,-5.24395],[39.75511,-5.24256],[39.75627,-5.23875],[39.75864,-5.23716],[39.75858,-5.23645],[39.75606,-5.23829],[39.75354,-5.24221],[39.75217,-5.24132],[39.75036,-5.242],[39.74978,-5.24042],[39.74889,-5.24184],[39.74733,-5.24151],[39.74629,-5.24077],[39.7472,-5.23898],[39.74705,-5.2378],[39.74552,-5.24037],[39.74458,-5.23891],[39.74587,-5.23923],[39.74817,-5.2345],[39.7479,-5.23181],[39.75026,-5.22712],[39.7509,-5.22102],[39.75445,-5.2167],[39.75869,-5.22068]]]},"properties":{"region":"Kusini Pemba","district":"Chake Chake","ward":"Tibirinzi","ward_code":"132"}},{"type":"Feature","geometry":{"type":"Polygon","coordinates":[[[39.76996,-5.2402],[39.76887,-5.24606],[39.76731,-5.24649],[39.7679,-5.24262],[39.76996,-5.2402]]]},"properties":{"region":"Kusini Pemba","district":"Chake Chake","ward":"Chachani","ward_code":"142"}},{"type":"Feature","geometry":{"type":"Polygon","coordinates":[[[39.76323,-5.24306],[39.76495,-5.24485],[39.76759,-5.24405],[39.76731,-5.24649],[39.77002,-5.24816],[39.75921,-5.25649],[39.75377,-5.25362],[39.75327,-5.25259],[39.75443,-5.25234],[39.75205,-5.25182],[39.74953,-5.24918],[39.75027,-5.24789],[39.75531,-5.24816],[39.75659,-5.24688],[39.76149,-5.24597],[39.76024,-5.24462],[39.76323,-5.24306]]]},"properties":{"region":"Kusini Pemba","district":"Chake Chake","ward":"Kichungwani","ward_code":"252"}},{"type":"Feature","geometry":{"type":"Polygon","coordinates":[[[39.7742,-5.23807],[39.77544,-5.24236],[39.77417,-5.24396],[39.77096,-5.24412],[39.76987,-5.24747],[39.76822,-5.2466],[39.76925,-5.24118],[39.76997,-5.24123],[39.76963,-5.23972],[39.7728,-5.2401],[39.7742,-5.23807]]]},"properties":{"region":"Kusini Pemba","district":"Chake Chake","ward":"Msingini","ward_code":"262"}},{"type":"Feature","geometry":{"type":"Polygon","coordinates":[[[39.81158,-5.22607],[39.81439,-5.23641],[39.81435,-5.24124],[39.81334,-5.24675],[39.81098,-5.24934],[39.81011,-5.25214],[39.80855,-5.2527],[39.80514,-5.2515],[39.80227,-5.25393],[39.79955,-5.25346],[39.79733,-5.25423],[39.79419,-5.25186],[39.79201,-5.24763],[39.7879,-5.24968],[39.78305,-5.24802],[39.77905,-5.24791],[39.78007,-5.24597],[39.78011,-5.242],[39.78168,-5.24071],[39.78103,-5.23985],[39.7845,-5.2373],[39.78968,-5.23048],[39.79142,-5.22653],[39.81158,-5.22607]]]},"properties":{"region":"Kusini Pemba","district":"Chake Chake","ward":"Wawi","ward_code":"022"}},{"type":"Feature","geometry":{"type":"Polygon","coordinates":[[[39.78968,-5.23048],[39.7845,-5.2373],[39.78103,-5.23985],[39.78168,-5.24071],[39.78044,-5.24132],[39.77976,-5.24323],[39.77711,-5.24306],[39.77489,-5.24161],[39.77436,-5.23771],[39.77739,-5.23623],[39.77704,-5.23407],[39.77953,-5.23393],[39.78423,-5.23048],[39.78383,-5.22841],[39.78501,-5.2262],[39.79142,-5.22653],[39.78968,-5.23048]]]},"properties":{"region":"Kusini Pemba","district":"Chake Chake","ward":"Wara","ward_code":"152"}},{"type":"Feature","geometry":{"type":"Polygon","coordinates":[[[39.78304,-5.22459],[39.78553,-5.22592],[39.78383,-5.22841],[39.78423,-5.23048],[39.77953,-5.23393],[39.77704,-5.23407],[39.77767,-5.23541],[39.777,-5.23665],[39.7742,-5.23807],[39.77332,-5.23753],[39.76919,-5.22489],[39.77888,-5.22564],[39.78304,-5.22459]]]},"properties":{"region":"Kusini Pemba","district":"Chake Chake","ward":"Mkoroshoni","ward_code":"272"}},{"type":"Feature","geometry":{"type":"Polygon","coordinates":[[[39.81807,-5.24486],[39.82067,-5.2452],[39.82254,-5.24738],[39.82193,-5.24906],[39.82379,-5.25037],[39.8233,-5.25241],[39.82604,-5.25523],[39.83056,-5.26529],[39.83286,-5.26417],[39.83247,-5.26746],[39.83386,-5.27136],[39.83581,-5.27154],[39.83679,-5.2703],[39.83628,-5.27436],[39.833,-5.27259],[39.8319,-5.27088],[39.83218,-5.26947],[39.83119,-5.26932],[39.83092,-5.27101],[39.82994,-5.27109],[39.82611,-5.27761],[39.82369,-5.2767],[39.81612,-5.27832],[39.81595,-5.27669],[39.81451,-5.27638],[39.81318,-5.27852],[39.81179,-5.27559],[39.81248,-5.27069],[39.81073,-5.26988],[39.8082,-5.26623],[39.80434,-5.26602],[39.80056,-5.26199],[39.79839,-5.26108],[39.79372,-5.26223],[39.79419,-5.26035],[39.79348,-5.25886],[39.7967,-5.25742],[39.79765,-5.25424],[39.79955,-5.25346],[39.80227,-5.25393],[39.80514,-5.2515],[39.80855,-5.2527],[39.81011,-5.25214],[39.81098,-5.24934],[39.81445,-5.24733],[39.81598,-5.24231],[39.81899,-5.24345],[39.81807,-5.24486]]]},"properties":{"region":"Kusini Pemba","district":"Chake Chake","ward":"Mvumoni","ward_code":"161"}},{"type":"Feature","geometry":{"type":"Polygon","coordinates":[[[39.79173,-5.24757],[39.79419,-5.25186],[39.79777,-5.25516],[39.7967,-5.25742],[39.79348,-5.25886],[39.79419,-5.26035],[39.79372,-5.26223],[39.78504,-5.26376],[39.77991,-5.26125],[39.78006,-5.25683],[39.7783,-5.25075],[39.77905,-5.24791],[39.78305,-5.24802],[39.7879,-5.24968],[39.79173,-5.24757]]]},"properties":{"region":"Kusini Pemba","district":"Chake Chake","ward":"Mgogoni","ward_code":"211"}},{"type":"Feature","geometry":{"type":"Polygon","coordinates":[[[39.81366,-5.23494],[39.84692,-5.23407],[39.84579,-5.23652],[39.84482,-5.23652],[39.84499,-5.23779],[39.84402,-5.2379],[39.84452,-5.23873],[39.84332,-5.23993],[39.84421,-5.24091],[39.84106,-5.24275],[39.84295,-5.24423],[39.84208,-5.24756],[39.84266,-5.24968],[39.84168,-5.25052],[39.8415,-5.25257],[39.83488,-5.26241],[39.8314,-5.26212],[39.83135,-5.26083],[39.82687,-5.25488],[39.82374,-5.25232],[39.82403,-5.25004],[39.82224,-5.2492],[39.82267,-5.24725],[39.82067,-5.2452],[39.81789,-5.24476],[39.81899,-5.24345],[39.81598,-5.24231],[39.81445,-5.24733],[39.81286,-5.24761],[39.81435,-5.24124],[39.81366,-5.23494]]]},"properties":{"region":"Kusini Pemba","district":"Chake Chake","ward":"Kibokoni","ward_code":"241"}},{"type":"Feature","geometry":{"type":"Polygon","coordinates":[[[39.77922,-5.20791],[39.78334,-5.20823],[39.78222,-5.20985],[39.78232,-5.21394],[39.78136,-5.21564],[39.78276,-5.21853],[39.78115,-5.22266],[39.78136,-5.22486],[39.77888,-5.22564],[39.76919,-5.22489],[39.76712,-5.22064],[39.76893,-5.21921],[39.77,-5.21555],[39.76898,-5.21231],[39.77017,-5.2111],[39.77361,-5.21068],[39.77922,-5.20791]]]},"properties":{"region":"Kusini Pemba","district":"Chake Chake","ward":"Gombani","ward_code":"312"}},{"type":"Feature","geometry":{"type":"Polygon","coordinates":[[[39.81182,-5.18457],[39.83741,-5.18486],[39.85358,-5.18644],[39.85608,-5.18676],[39.85633,-5.18904],[39.85575,-5.19184],[39.82797,-5.19173],[39.81945,-5.19331],[39.81559,-5.20084],[39.80905,-5.2007],[39.80298,-5.2031],[39.80064,-5.20286],[39.79882,-5.19688],[39.80019,-5.18746],[39.80603,-5.17611],[39.81182,-5.18457]]]},"properties":{"region":"Kusini Pemba","district":"Chake Chake","ward":"Ole","ward_code":"291"}},{"type":"Feature","geometry":{"type":"Polygon","coordinates":[[[39.79882,-5.19688],[39.80064,-5.20286],[39.798,-5.20299],[39.79455,-5.20747],[39.79211,-5.20863],[39.79158,-5.20162],[39.79041,-5.19885],[39.79184,-5.19591],[39.79043,-5.19016],[39.79147,-5.18479],[39.79137,-5.17706],[39.7899,-5.1726],[39.78915,-5.16301],[39.80061,-5.16475],[39.79841,-5.16761],[39.79902,-5.17171],[39.80017,-5.17376],[39.80603,-5.17611],[39.80019,-5.18746],[39.79882,-5.19688]]]},"properties":{"region":"Kusini Pemba","district":"Chake Chake","ward":"Mchanga Mrima","ward_code":"301"}},{"type":"Feature","geometry":{"type":"Polygon","coordinates":[[[39.81423,-5.1689],[39.81875,-5.17124],[39.82733,-5.16977],[39.82729,-5.16888],[39.82855,-5.16884],[39.83573,-5.1718],[39.85232,-5.17512],[39.85272,-5.17709],[39.85188,-5.17821],[39.84946,-5.17944],[39.84675,-5.17916],[39.85048,-5.18012],[39.85151,-5.17938],[39.85495,-5.18079],[39.85608,-5.18676],[39.83741,-5.18486],[39.81182,-5.18457],[39.80699,-5.17684],[39.80017,-5.17376],[39.79861,-5.17029],[39.8078,-5.16936],[39.80806,-5.17014],[39.81423,-5.1689]]]},"properties":{"region":"Kusini Pemba","district":"Chake Chake","ward":"Mjini Ole","ward_code":"321"}},{"type":"Feature","geometry":{"type":"Polygon","coordinates":[[[39.85308,-5.21059],[39.84954,-5.21855],[39.84727,-5.21934],[39.84813,-5.22185],[39.84665,-5.22261],[39.84764,-5.22261],[39.84811,-5.22765],[39.84547,-5.22835],[39.84687,-5.23075],[39.84804,-5.23102],[39.84692,-5.23407],[39.82199,-5.23482],[39.81994,-5.23396],[39.81366,-5.23494],[39.81128,-5.22435],[39.81471,-5.21504],[39.81315,-5.21005],[39.81343,-5.20785],[39.85301,-5.20667],[39.85234,-5.20797],[39.85308,-5.21059]]]},"properties":{"region":"Kusini Pemba","district":"Chake Chake","ward":"Vitongoji","ward_code":"073"}},{"type":"Feature","geometry":{"type":"Polygon","coordinates":[[[39.80905,-5.2007],[39.81269,-5.20418],[39.81377,-5.21344],[39.81471,-5.21504],[39.81227,-5.2203],[39.81158,-5.22607],[39.79178,-5.22657],[39.78136,-5.22486],[39.78115,-5.22266],[39.78276,-5.21853],[39.78136,-5.21564],[39.78232,-5.21394],[39.78222,-5.20985],[39.78334,-5.20823],[39.78702,-5.20895],[39.79364,-5.2083],[39.798,-5.20299],[39.80298,-5.2031],[39.80905,-5.2007]]]},"properties":{"region":"Kusini Pemba","district":"Chake Chake","ward":"Ng'ambwa","ward_code":"081"}},{"type":"Feature","geometry":{"type":"Polygon","coordinates":[[[39.82797,-5.19173],[39.85572,-5.19184],[39.85272,-5.20087],[39.85064,-5.20158],[39.85272,-5.20414],[39.85301,-5.20667],[39.81343,-5.20785],[39.81269,-5.20418],[39.80988,-5.20125],[39.81559,-5.20084],[39.81945,-5.19331],[39.82797,-5.19173]]]},"properties":{"region":"Kusini Pemba","district":"Chake Chake","ward":"Uwandani","ward_code":"191"}},{"type":"Feature","geometry":{"type":"Polygon","coordinates":[[[39.83201,-5.27407],[39.83515,-5.27547],[39.83535,-5.27807],[39.8297,-5.29233],[39.82829,-5.29364],[39.82933,-5.29483],[39.82817,-5.2955],[39.82894,-5.29632],[39.82834,-5.29889],[39.8266,-5.30168],[39.82669,-5.30366],[39.82334,-5.30813],[39.82183,-5.31547],[39.82002,-5.31454],[39.81629,-5.3054],[39.81367,-5.30559],[39.81326,-5.30653],[39.80669,-5.30483],[39.80455,-5.30303],[39.79213,-5.30116],[39.79056,-5.29662],[39.7943,-5.29319],[39.79068,-5.29158],[39.78999,-5.28286],[39.79485,-5.2856],[39.80001,-5.28631],[39.80529,-5.28491],[39.80684,-5.28152],[39.8097,-5.27936],[39.80873,-5.27741],[39.81154,-5.27769],[39.81257,-5.27684],[39.81331,-5.27851],[39.81471,-5.27638],[39.81595,-5.27669],[39.81623,-5.27854],[39.82357,-5.27763],[39.82647,-5.27856],[39.82997,-5.27419],[39.83201,-5.27407]]]},"properties":{"region":"Kusini Pemba","district":"Chake Chake","ward":"Pujini","ward_code":"033"}},{"type":"Feature","geometry":{"type":"Polygon","coordinates":[[[39.78277,-5.31398],[39.7793,-5.31477],[39.77767,-5.31691],[39.77558,-5.31716],[39.77032,-5.32207],[39.75684,-5.31669],[39.76167,-5.30125],[39.7592,-5.29673],[39.75954,-5.29451],[39.76265,-5.2875],[39.76492,-5.28485],[39.76584,-5.28138],[39.7704,-5.27597],[39.77525,-5.27954],[39.77575,-5.28184],[39.77963,-5.28559],[39.7804,-5.28893],[39.78236,-5.29153],[39.78208,-5.2933],[39.78411,-5.29485],[39.78667,-5.30004],[39.78723,-5.30527],[39.78529,-5.31126],[39.78277,-5.31398]]]},"properties":{"region":"Kusini Pemba","district":"Chake Chake","ward":"Matale","ward_code":"171"}},{"type":"Feature","geometry":{"type":"Polygon","coordinates":[[[39.79787,-5.26099],[39.80434,-5.26602],[39.8082,-5.26623],[39.81268,-5.27141],[39.81187,-5.27747],[39.80845,-5.27758],[39.8097,-5.27936],[39.80684,-5.28152],[39.80529,-5.28491],[39.79915,-5.28648],[39.79485,-5.2856],[39.79023,-5.28313],[39.78727,-5.27857],[39.78463,-5.27779],[39.78244,-5.27424],[39.77661,-5.27262],[39.78087,-5.26198],[39.78585,-5.26378],[39.79114,-5.26317],[39.79787,-5.26099]]]},"properties":{"region":"Kusini Pemba","district":"Chake Chake","ward":"Mfikiwa","ward_code":"281"}},{"type":"Feature","geometry":{"type":"Polygon","coordinates":[[[39.75149,-5.28544],[39.75337,-5.28941],[39.75609,-5.29009],[39.75902,-5.29288],[39.76017,-5.29271],[39.7592,-5.29673],[39.76167,-5.30125],[39.75684,-5.31669],[39.75415,-5.31803],[39.74423,-5.3134],[39.74126,-5.31539],[39.73102,-5.3181],[39.72735,-5.32209],[39.72526,-5.32288],[39.72178,-5.32311],[39.71803,-5.32159],[39.71846,-5.31461],[39.71625,-5.31096],[39.71904,-5.30492],[39.72118,-5.30289],[39.7206,-5.30079],[39.71821,-5.30028],[39.71588,-5.29832],[39.71616,-5.2959],[39.71855,-5.29356],[39.71812,-5.29142],[39.71878,-5.29104],[39.71757,-5.29029],[39.7186,-5.2873],[39.72135,-5.28562],[39.7223,-5.28604],[39.72212,-5.28708],[39.75149,-5.28544]]]},"properties":{"region":"Kusini Pemba","district":"Chake Chake","ward":"Chonga","ward_code":"101"}},{"type":"Feature","geometry":{"type":"Polygon","coordinates":[[[39.70416,-5.28248],[39.70468,-5.28446],[39.7083,-5.28703],[39.71538,-5.28315],[39.71621,-5.28622],[39.71861,-5.28776],[39.71757,-5.29029],[39.71878,-5.29104],[39.71812,-5.29142],[39.71855,-5.29356],[39.71616,-5.2959],[39.71588,-5.29832],[39.71821,-5.30028],[39.7206,-5.30079],[39.72118,-5.30289],[39.71904,-5.30492],[39.71625,-5.31096],[39.71846,-5.31461],[39.71803,-5.32159],[39.71391,-5.32078],[39.71201,-5.31945],[39.70912,-5.31603],[39.70746,-5.31226],[39.70094,-5.28493],[39.70098,-5.28253],[39.70416,-5.28248]]]},"properties":{"region":"Kusini Pemba","district":"Chake Chake","ward":"Mgelema","ward_code":"111"}},{"type":"Feature","geometry":{"type":"Polygon","coordinates":[[[39.72789,-5.24246],[39.73039,-5.24608],[39.73132,-5.246],[39.73098,-5.24692],[39.73205,-5.24811],[39.73328,-5.24804],[39.73261,-5.2469],[39.73331,-5.24626],[39.73407,-5.24686],[39.73803,-5.24592],[39.7374,-5.24724],[39.73777,-5.24939],[39.73797,-5.24683],[39.73882,-5.2466],[39.74186,-5.25005],[39.74249,-5.24927],[39.74498,-5.25054],[39.74548,-5.25211],[39.74657,-5.25093],[39.74678,-5.25278],[39.74754,-5.25299],[39.74726,-5.25139],[39.75011,-5.25437],[39.74732,-5.25761],[39.74615,-5.26178],[39.74146,-5.2661],[39.73391,-5.26895],[39.73325,-5.27182],[39.72758,-5.27855],[39.72917,-5.28257],[39.72924,-5.28679],[39.72212,-5.28708],[39.7223,-5.28604],[39.72135,-5.28562],[39.7186,-5.2873],[39.71548,-5.28211],[39.7091,-5.28452],[39.70553,-5.2799],[39.70378,-5.27973],[39.70286,-5.28105],[39.70163,-5.28025],[39.69797,-5.281],[39.69596,-5.28038],[39.69122,-5.27492],[39.69129,-5.27343],[39.68972,-5.27241],[39.69116,-5.26625],[39.68702,-5.25944],[39.68705,-5.25253],[39.68854,-5.25202],[39.69007,-5.25335],[39.69049,-5.25246],[39.69166,-5.25254],[39.69401,-5.25495],[39.69737,-5.25631],[39.70096,-5.25602],[39.70259,-5.2569],[39.70571,-5.25572],[39.70732,-5.25705],[39.70768,-5.25524],[39.71061,-5.25538],[39.71229,-5.25412],[39.71499,-5.256],[39.71504,-5.25468],[39.71332,-5.254],[39.71366,-5.25312],[39.71146,-5.25186],[39.71143,-5.25066],[39.71347,-5.2504],[39.71461,-5.25124],[39.71659,-5.25046],[39.71729,-5.25113],[39.71715,-5.25009],[39.71944,-5.2491],[39.7196,-5.24796],[39.72112,-5.24791],[39.72139,-5.24598],[39.72391,-5.2443],[39.72438,-5.24294],[39.72789,-5.24246]]]},"properties":{"region":"Kusini Pemba","district":"Chake Chake","ward":"Kilindi","ward_code":"121"}},{"type":"Feature","geometry":{"type":"Polygon","coordinates":[[[39.76531,-5.15855],[39.78249,-5.16286],[39.78915,-5.16301],[39.7899,-5.1726],[39.7858,-5.17383],[39.78468,-5.1765],[39.78469,-5.18319],[39.78316,-5.18552],[39.78084,-5.18621],[39.77556,-5.1851],[39.77337,-5.18552],[39.77245,-5.18631],[39.77261,-5.18994],[39.74853,-5.19293],[39.74763,-5.19461],[39.74632,-5.19457],[39.74677,-5.19629],[39.74462,-5.19826],[39.7437,-5.19737],[39.74468,-5.19693],[39.741,-5.19415],[39.73944,-5.19643],[39.73831,-5.19615],[39.73844,-5.19105],[39.73438,-5.18772],[39.73623,-5.18587],[39.74089,-5.1847],[39.74184,-5.18521],[39.74065,-5.18684],[39.74181,-5.18572],[39.74265,-5.18625],[39.74281,-5.18516],[39.74645,-5.18329],[39.74625,-5.18059],[39.74848,-5.18177],[39.74718,-5.18039],[39.74807,-5.17931],[39.74769,-5.17683],[39.74969,-5.17524],[39.74969,-5.17407],[39.74669,-5.17204],[39.7465,-5.17076],[39.75503,-5.1636],[39.76169,-5.16183],[39.76531,-5.15855]]]},"properties":{"region":"Kusini Pemba","district":"Chake Chake","ward":"Ziwani","ward_code":"041"}},{"type":"Feature","geometry":{"type":"Polygon","coordinates":[[[39.77951,-5.19399],[39.77807,-5.19973],[39.78026,-5.20112],[39.78056,-5.20791],[39.77697,-5.20854],[39.77361,-5.21068],[39.77017,-5.2111],[39.76944,-5.21224],[39.76553,-5.21107],[39.76544,-5.20628],[39.76175,-5.19963],[39.75502,-5.20002],[39.75215,-5.20269],[39.74979,-5.20337],[39.74563,-5.20064],[39.74562,-5.19902],[39.74791,-5.19833],[39.74605,-5.19761],[39.74732,-5.19674],[39.74601,-5.19501],[39.7467,-5.1942],[39.74763,-5.19461],[39.74853,-5.19293],[39.77778,-5.18956],[39.77762,-5.19197],[39.77951,-5.19399]]]},"properties":{"region":"Kusini Pemba","district":"Chake Chake","ward":"Kwale","ward_code":"061"}},{"type":"Feature","geometry":{"type":"Polygon","coordinates":[[[39.79137,-5.17706],[39.79043,-5.19016],[39.79184,-5.19591],[39.79041,-5.19885],[39.79158,-5.20162],[39.79211,-5.20863],[39.79017,-5.20811],[39.78702,-5.20895],[39.78056,-5.20791],[39.78026,-5.20112],[39.77807,-5.19973],[39.77943,-5.19355],[39.77762,-5.19197],[39.77778,-5.18956],[39.77261,-5.18994],[39.77245,-5.18631],[39.77556,-5.1851],[39.78084,-5.18621],[39.78316,-5.18552],[39.78469,-5.18319],[39.78468,-5.1765],[39.7858,-5.17383],[39.7899,-5.1726],[39.79137,-5.17706]]]},"properties":{"region":"Kusini Pemba","district":"Chake Chake","ward":"Mbuzini","ward_code":"221"}},{"type":"Feature","geometry":{"type":"MultiPolygon","coordinates":[[[[39.61236,-5.24068],[39.61218,-5.24171],[39.60844,-5.24266],[39.60632,-5.24454],[39.60371,-5.24306],[39.60217,-5.24354],[39.59841,-5.24711],[39.59586,-5.25209],[39.59511,-5.25172],[39.59859,-5.23954],[39.60099,-5.24074],[39.60157,-5.23866],[39.60456,-5.2354],[39.60773,-5.23519],[39.61236,-5.24068]]],[[[39.65232,-5.18669],[39.65699,-5.18865],[39.66446,-5.19692],[39.6644,-5.19907],[39.66175,-5.20311],[39.66424,-5.2075],[39.66663,-5.20953],[39.66988,-5.21028],[39.67366,-5.21397],[39.68139,-5.21467],[39.68203,-5.21377],[39.68072,-5.21187],[39.68176,-5.21038],[39.68428,-5.21137],[39.68815,-5.21093],[39.68739,-5.20595],[39.68948,-5.20296],[39.69172,-5.2064],[39.69597,-5.20877],[39.69939,-5.20721],[39.70306,-5.207],[39.70484,-5.20452],[39.705,-5.2064],[39.7072,-5.20864],[39.70748,-5.20796],[39.71157,-5.20797],[39.71597,-5.20551],[39.717,-5.20807],[39.71634,-5.21005],[39.71782,-5.21157],[39.71938,-5.21154],[39.7209,-5.21012],[39.72177,-5.21058],[39.72157,-5.20965],[39.72406,-5.20999],[39.72508,-5.21131],[39.72535,-5.21318],[39.72229,-5.22011],[39.72351,-5.22563],[39.72033,-5.22684],[39.71997,-5.22991],[39.71724,-5.22991],[39.71599,-5.22825],[39.70846,-5.22447],[39.70627,-5.22223],[39.70471,-5.21859],[39.70122,-5.21677],[39.70107,-5.21565],[39.68918,-5.21517],[39.6845,-5.2168],[39.67994,-5.21679],[39.67567,-5.21828],[39.67353,-5.21788],[39.66938,-5.21394],[39.65716,-5.20713],[39.65587,-5.20757],[39.65193,-5.20587],[39.64878,-5.20292],[39.64795,-5.20112],[39.64854,-5.19201],[39.64754,-5.18863],[39.65232,-5.18669]]]]},"properties":{"region":"Kusini Pemba","district":"Chake Chake","ward":"Ndagoni","ward_code":"051"}},{"type":"Feature","geometry":{"type":"Polygon","coordinates":[[[39.72367,-5.19858],[39.72734,-5.20229],[39.72911,-5.20157],[39.73114,-5.20336],[39.73001,-5.20517],[39.73173,-5.20719],[39.73056,-5.20787],[39.73056,-5.20929],[39.73091,-5.20797],[39.73271,-5.20712],[39.73336,-5.20892],[39.73385,-5.20892],[39.73319,-5.20649],[39.73457,-5.20548],[39.73702,-5.20626],[39.73783,-5.20802],[39.73806,-5.20705],[39.73911,-5.20746],[39.73869,-5.20925],[39.73903,-5.20837],[39.74261,-5.20747],[39.74723,-5.21253],[39.75445,-5.2167],[39.7509,-5.22102],[39.75026,-5.22712],[39.7479,-5.23181],[39.74817,-5.2345],[39.74589,-5.23846],[39.74512,-5.23732],[39.74472,-5.23849],[39.73887,-5.23798],[39.73617,-5.23943],[39.73648,-5.23672],[39.73825,-5.23523],[39.73701,-5.23565],[39.73685,-5.23329],[39.73648,-5.23537],[39.73538,-5.2349],[39.73325,-5.23851],[39.73001,-5.23615],[39.72839,-5.23679],[39.72447,-5.2352],[39.72433,-5.23393],[39.7217,-5.23128],[39.71868,-5.23409],[39.71713,-5.23016],[39.71997,-5.22991],[39.72033,-5.22684],[39.72372,-5.22514],[39.72229,-5.22011],[39.72531,-5.21202],[39.72464,-5.21039],[39.72163,-5.20924],[39.723,-5.20809],[39.72367,-5.20573],[39.72225,-5.20338],[39.72279,-5.19945],[39.72367,-5.19858]]]},"properties":{"region":"Kusini Pemba","district":"Chake Chake","ward":"Wesha","ward_code":"181"}},{"type":"Feature","geometry":{"type":"Polygon","coordinates":[[[39.74496,-5.20112],[39.74977,-5.20359],[39.75502,-5.20002],[39.76175,-5.19963],[39.76544,-5.20628],[39.76553,-5.21107],[39.76883,-5.21189],[39.76993,-5.21403],[39.76893,-5.21921],[39.76593,-5.22105],[39.76313,-5.21893],[39.75869,-5.22068],[39.75413,-5.21637],[39.74723,-5.21253],[39.74401,-5.20823],[39.7399,-5.20774],[39.73824,-5.2063],[39.74095,-5.20531],[39.74399,-5.19954],[39.74496,-5.20112]]]},"properties":{"region":"Kusini Pemba","district":"Chake Chake","ward":"Michungwani","ward_code":"231"}},{"type":"Feature","geometry":{"type":"Polygon","coordinates":[[[39.75354,-5.33753],[39.74703,-5.34034],[39.74736,-5.34176],[39.74603,-5.34306],[39.74568,-5.34552],[39.72963,-5.33482],[39.72723,-5.33136],[39.72679,-5.32765],[39.72772,-5.32125],[39.73102,-5.3181],[39.74126,-5.31539],[39.74423,-5.3134],[39.75415,-5.31803],[39.75429,-5.32002],[39.75245,-5.322],[39.75413,-5.32474],[39.75279,-5.32706],[39.75247,-5.32954],[39.75343,-5.33182],[39.7527,-5.33274],[39.75435,-5.33388],[39.75354,-5.33753]]]},"properties":{"region":"Kusini Pemba","district":"Mkoani","ward":"Ngwachani","ward_code":"151"}},{"type":"Feature","geometry":{"type":"Polygon","coordinates":[[[39.69126,-5.28182],[39.69132,-5.28367],[39.69134,-5.28438],[39.69073,-5.28463],[39.69088,-5.28615],[39.69162,-5.28351],[39.69389,-5.28272],[39.69774,-5.28322],[39.69884,-5.28202],[39.69935,-5.28324],[39.70023,-5.28251],[39.70483,-5.30189],[39.6748,-5.31387],[39.67175,-5.3138],[39.67147,-5.31465],[39.6701,-5.31339],[39.66908,-5.30884],[39.668,-5.30833],[39.6679,-5.30423],[39.66542,-5.29967],[39.6641,-5.29934],[39.66274,-5.29594],[39.66097,-5.29514],[39.65982,-5.29294],[39.654,-5.28925],[39.661,-5.28454],[39.66345,-5.28508],[39.66435,-5.28419],[39.66772,-5.28433],[39.67092,-5.28771],[39.67549,-5.28925],[39.67629,-5.29074],[39.67976,-5.29139],[39.68031,-5.29274],[39.68045,-5.29154],[39.68632,-5.28942],[39.68571,-5.28856],[39.6874,-5.2877],[39.6873,-5.286],[39.68987,-5.28241],[39.69126,-5.28182]]]},"properties":{"region":"Kusini Pemba","district":"Mkoani","ward":"Wambaa","ward_code":"171"}},{"type":"Feature","geometry":{"type":"Polygon","coordinates":[[[39.70483,-5.30189],[39.70912,-5.31603],[39.71201,-5.31945],[39.71391,-5.32078],[39.71803,-5.32159],[39.71764,-5.32471],[39.71627,-5.32583],[39.71653,-5.32794],[39.71466,-5.33011],[39.71305,-5.33862],[39.7106,-5.33988],[39.70836,-5.34334],[39.69896,-5.34437],[39.69791,-5.34696],[39.69573,-5.34622],[39.69583,-5.34539],[39.69429,-5.3459],[39.69297,-5.3437],[39.69147,-5.34391],[39.69083,-5.34213],[39.68787,-5.34225],[39.68696,-5.33982],[39.68595,-5.33985],[39.68107,-5.33504],[39.68116,-5.33226],[39.67953,-5.32987],[39.68022,-5.32853],[39.67763,-5.32167],[39.67108,-5.31975],[39.67224,-5.31773],[39.67193,-5.31387],[39.6748,-5.31387],[39.70483,-5.30189]]]},"properties":{"region":"Kusini Pemba","district":"Mkoani","ward":"Chumbageni","ward_code":"221"}},{"type":"Feature","geometry":{"type":"Polygon","coordinates":[[[39.72178,-5.32311],[39.72735,-5.32209],[39.72723,-5.33136],[39.72963,-5.33482],[39.74568,-5.34552],[39.74254,-5.34959],[39.74234,-5.3541],[39.74142,-5.35515],[39.73665,-5.35387],[39.72793,-5.35608],[39.72231,-5.35583],[39.71614,-5.35892],[39.71342,-5.35816],[39.71025,-5.35414],[39.71016,-5.35118],[39.71185,-5.34686],[39.70899,-5.34284],[39.7106,-5.33988],[39.71305,-5.33862],[39.71466,-5.33011],[39.71653,-5.32794],[39.71627,-5.32583],[39.71764,-5.32471],[39.71803,-5.32159],[39.72178,-5.32311]]]},"properties":{"region":"Kusini Pemba","district":"Mkoani","ward":"Mgagadu","ward_code":"311"}},{"type":"Feature","geometry":{"type":"Polygon","coordinates":[[[39.78254,-5.32738],[39.78794,-5.32417],[39.79083,-5.32357],[39.79239,-5.32187],[39.79711,-5.32213],[39.79824,-5.32405],[39.79999,-5.32309],[39.80326,-5.32375],[39.80284,-5.32524],[39.80446,-5.32754],[39.80086,-5.33465],[39.80206,-5.33533],[39.80314,-5.33455],[39.80298,-5.33662],[39.80079,-5.33995],[39.79907,-5.33939],[39.79762,-5.34134],[39.79623,-5.34016],[39.79654,-5.34097],[39.79859,-5.34167],[39.79814,-5.34281],[39.79771,-5.34268],[39.79716,-5.34277],[39.79674,-5.34311],[39.79621,-5.34393],[39.79745,-5.34278],[39.80097,-5.34366],[39.80241,-5.34287],[39.80329,-5.34433],[39.80292,-5.34605],[39.80791,-5.34779],[39.80733,-5.34854],[39.80854,-5.34955],[39.80818,-5.35342],[39.80914,-5.35377],[39.80931,-5.35655],[39.80623,-5.36129],[39.80638,-5.36233],[39.80974,-5.363],[39.80707,-5.3671],[39.80668,-5.36461],[39.80586,-5.36459],[39.80434,-5.3686],[39.80357,-5.36851],[39.80368,-5.37001],[39.80551,-5.37142],[39.80509,-5.37201],[39.80143,-5.37094],[39.79963,-5.37219],[39.79955,-5.3694],[39.79648,-5.369],[39.79406,-5.36989],[39.79363,-5.37293],[39.79214,-5.37308],[39.7921,-5.37512],[39.78646,-5.36757],[39.78692,-5.36417],[39.77057,-5.35703],[39.77216,-5.35355],[39.76784,-5.34855],[39.76857,-5.3413],[39.76411,-5.33695],[39.75282,-5.33292],[39.75343,-5.33182],[39.75247,-5.32954],[39.75279,-5.32706],[39.75413,-5.32474],[39.75245,-5.322],[39.75429,-5.32002],[39.75415,-5.31803],[39.75692,-5.31666],[39.78254,-5.32738]]]},"properties":{"region":"Kusini Pemba","district":"Mkoani","ward":"Chambani","ward_code":"161"}},{"type":"Feature","geometry":{"type":"Polygon","coordinates":[[[39.7649,-5.3374],[39.7687,-5.34158],[39.76784,-5.34855],[39.77216,-5.35355],[39.77057,-5.35703],[39.73739,-5.36287],[39.74343,-5.35617],[39.74193,-5.3532],[39.74218,-5.35051],[39.74561,-5.34576],[39.74603,-5.34306],[39.74736,-5.34176],[39.74703,-5.34034],[39.75354,-5.33753],[39.75434,-5.3338],[39.7649,-5.3374]]]},"properties":{"region":"Kusini Pemba","district":"Mkoani","ward":"Ukutini","ward_code":"211"}},{"type":"Feature","geometry":{"type":"Polygon","coordinates":[[[39.78459,-5.27757],[39.78678,-5.27804],[39.78999,-5.28286],[39.79076,-5.29177],[39.7943,-5.29319],[39.79056,-5.29662],[39.79213,-5.30116],[39.80455,-5.30303],[39.80669,-5.30483],[39.81326,-5.30653],[39.81367,-5.30559],[39.81629,-5.3054],[39.81783,-5.30798],[39.81802,-5.31112],[39.81945,-5.3125],[39.81878,-5.31689],[39.81949,-5.31761],[39.818,-5.31857],[39.81941,-5.31929],[39.81959,-5.32184],[39.814,-5.32371],[39.81642,-5.32543],[39.81482,-5.32563],[39.81373,-5.3247],[39.81307,-5.32518],[39.81437,-5.32671],[39.81277,-5.32532],[39.81219,-5.3231],[39.81123,-5.32372],[39.81069,-5.32635],[39.80942,-5.32628],[39.81148,-5.32717],[39.81039,-5.32941],[39.81046,-5.33302],[39.80838,-5.3356],[39.80612,-5.33129],[39.80554,-5.3249],[39.80379,-5.32503],[39.80362,-5.32356],[39.79999,-5.32309],[39.79824,-5.32405],[39.79711,-5.32213],[39.79239,-5.32187],[39.79083,-5.32357],[39.78794,-5.32417],[39.78262,-5.3274],[39.77032,-5.32207],[39.77558,-5.31716],[39.77767,-5.31691],[39.7793,-5.31477],[39.78342,-5.31337],[39.78529,-5.31126],[39.78725,-5.30407],[39.78667,-5.30004],[39.78411,-5.29485],[39.78208,-5.2933],[39.78236,-5.29153],[39.7804,-5.28893],[39.77963,-5.28559],[39.77575,-5.28184],[39.77525,-5.27954],[39.7704,-5.27597],[39.77524,-5.27536],[39.77661,-5.27262],[39.78244,-5.27424],[39.78459,-5.27757]]]},"properties":{"region":"Kusini Pemba","district":"Mkoani","ward":"Dodo","ward_code":"361"}},{"type":"Feature","geometry":{"type":"Polygon","coordinates":[[[39.74307,-5.41065],[39.74572,-5.41194],[39.7458,-5.41308],[39.74663,-5.41262],[39.74619,-5.41362],[39.74766,-5.41315],[39.74935,-5.41577],[39.74787,-5.41652],[39.74935,-5.4198],[39.75116,-5.42012],[39.76348,-5.43395],[39.76273,-5.43548],[39.75971,-5.43527],[39.76052,-5.43682],[39.75897,-5.43721],[39.7596,-5.43845],[39.75635,-5.4398],[39.75244,-5.443],[39.75127,-5.44218],[39.74981,-5.44354],[39.74794,-5.44302],[39.74829,-5.44076],[39.74708,-5.43904],[39.74513,-5.43972],[39.74598,-5.43985],[39.74554,-5.4413],[39.74168,-5.43957],[39.74166,-5.43727],[39.73921,-5.43211],[39.73967,-5.43112],[39.73875,-5.43168],[39.73846,-5.42943],[39.73914,-5.4276],[39.74091,-5.42661],[39.74312,-5.41576],[39.74197,-5.41165],[39.74307,-5.41065]]]},"properties":{"region":"Kusini Pemba","district":"Mkoani","ward":"Mwambe","ward_code":"113"}},{"type":"Feature","geometry":{"type":"Polygon","coordinates":[[[39.739,-5.43344],[39.7411,-5.43719],[39.74109,-5.43947],[39.74225,-5.44124],[39.74347,-5.44146],[39.74317,-5.44431],[39.7446,-5.44782],[39.74399,-5.45145],[39.74052,-5.45395],[39.73885,-5.45172],[39.73535,-5.4529],[39.73353,-5.45512],[39.7348,-5.45661],[39.73416,-5.45847],[39.73223,-5.45897],[39.73004,-5.45746],[39.72763,-5.4594],[39.72615,-5.46215],[39.72831,-5.46439],[39.72789,-5.46646],[39.7294,-5.47171],[39.72467,-5.47399],[39.72355,-5.47305],[39.72478,-5.4712],[39.72281,-5.46998],[39.72489,-5.46798],[39.72197,-5.46887],[39.72126,-5.46801],[39.72208,-5.45953],[39.72065,-5.4538],[39.72108,-5.45],[39.72246,-5.45114],[39.72325,-5.45423],[39.7236,-5.45158],[39.72459,-5.45151],[39.72628,-5.4537],[39.72776,-5.45098],[39.73137,-5.45004],[39.73177,-5.44851],[39.73329,-5.44876],[39.73332,-5.44463],[39.72942,-5.44101],[39.73522,-5.43588],[39.73552,-5.43468],[39.73726,-5.43544],[39.73786,-5.43432],[39.73686,-5.43361],[39.739,-5.43344]]]},"properties":{"region":"Kusini Pemba","district":"Mkoani","ward":"Shamiani","ward_code":"271"}},{"type":"Feature","geometry":{"type":"Polygon","coordinates":[[[39.7517,-5.40533],[39.75187,-5.4068],[39.75418,-5.4083],[39.7531,-5.40825],[39.75348,-5.40932],[39.75446,-5.40894],[39.75605,-5.41073],[39.75988,-5.41149],[39.76028,-5.41291],[39.76324,-5.41267],[39.76444,-5.41382],[39.7666,-5.41375],[39.76736,-5.41607],[39.76671,-5.41781],[39.7676,-5.41928],[39.76868,-5.4196],[39.77036,-5.41843],[39.77115,-5.42106],[39.77247,-5.42115],[39.77366,-5.42295],[39.76685,-5.42895],[39.76437,-5.43382],[39.76347,-5.43394],[39.7516,-5.4207],[39.75149,-5.41879],[39.74954,-5.41807],[39.75008,-5.41607],[39.74934,-5.41385],[39.74831,-5.41376],[39.74747,-5.41206],[39.74307,-5.41065],[39.74317,-5.4089],[39.74572,-5.4084],[39.74679,-5.40659],[39.74976,-5.40764],[39.75015,-5.4056],[39.7517,-5.40533]]]},"properties":{"region":"Kusini Pemba","district":"Mkoani","ward":"Jombwe","ward_code":"281"}},{"type":"Feature","geometry":{"type":"Polygon","coordinates":[[[39.74197,-5.41165],[39.74312,-5.41576],[39.74091,-5.42661],[39.73941,-5.42753],[39.73683,-5.42418],[39.73601,-5.4134],[39.73668,-5.41188],[39.74044,-5.41097],[39.74197,-5.41165]]]},"properties":{"region":"Kusini Pemba","district":"Mkoani","ward":"Mchakwe","ward_code":"351"}},{"type":"Feature","geometry":{"type":"MultiPolygon","coordinates":[[[[39.75758,-5.39214],[39.75918,-5.39155],[39.75983,-5.39285],[39.76142,-5.39251],[39.76458,-5.39482],[39.76613,-5.3933],[39.76676,-5.39465],[39.76482,-5.39749],[39.76759,-5.39865],[39.77037,-5.39761],[39.77241,-5.39864],[39.77108,-5.40033],[39.76824,-5.40064],[39.7676,-5.40163],[39.76596,-5.40069],[39.76568,-5.40096],[39.76733,-5.40219],[39.7662,-5.40413],[39.76725,-5.40525],[39.76603,-5.4067],[39.76651,-5.40732],[39.7635,-5.40856],[39.75982,-5.4086],[39.75822,-5.4101],[39.7555,-5.40737],[39.75532,-5.408],[39.75411,-5.40712],[39.75372,-5.40467],[39.75288,-5.4045],[39.75373,-5.40139],[39.75186,-5.39903],[39.75358,-5.39618],[39.75256,-5.39421],[39.75337,-5.39228],[39.75779,-5.38843],[39.75703,-5.39079],[39.75758,-5.39214]]],[[[39.79267,-5.37835],[39.79479,-5.38513],[39.79189,-5.3878],[39.78954,-5.39188],[39.7928,-5.39243],[39.79472,-5.39447],[39.79428,-5.39551],[39.79258,-5.39682],[39.78969,-5.40206],[39.78471,-5.4068],[39.78205,-5.41178],[39.78008,-5.41274],[39.78032,-5.41413],[39.77467,-5.42126],[39.77335,-5.42124],[39.77024,-5.41785],[39.768,-5.41897],[39.76739,-5.41385],[39.7668,-5.41286],[39.76474,-5.41262],[39.7638,-5.41103],[39.76423,-5.40936],[39.76784,-5.40749],[39.76874,-5.40557],[39.76783,-5.40409],[39.76844,-5.40277],[39.77078,-5.40232],[39.77471,-5.3987],[39.77442,-5.39646],[39.77647,-5.39294],[39.78066,-5.39],[39.78161,-5.39094],[39.78138,-5.38972],[39.78301,-5.38752],[39.78475,-5.38683],[39.78566,-5.38491],[39.78939,-5.38379],[39.79005,-5.38139],[39.79267,-5.37835]]]]},"properties":{"region":"Kusini Pemba","district":"Mkoani","ward":"Kiwani","ward_code":"121"}},{"type":"Feature","geometry":{"type":"Polygon","coordinates":[[[39.78646,-5.36757],[39.79153,-5.37458],[39.78854,-5.3775],[39.78832,-5.38043],[39.78358,-5.38133],[39.78326,-5.38086],[39.78412,-5.38025],[39.78394,-5.37974],[39.78282,-5.38097],[39.78365,-5.38189],[39.78202,-5.38441],[39.78235,-5.38565],[39.77988,-5.38929],[39.77791,-5.38719],[39.77849,-5.38643],[39.77625,-5.38566],[39.77709,-5.38336],[39.77607,-5.38065],[39.77499,-5.38061],[39.7747,-5.37914],[39.77291,-5.37914],[39.77453,-5.37942],[39.77418,-5.38031],[39.77634,-5.38251],[39.77519,-5.38521],[39.77681,-5.38663],[39.77694,-5.38834],[39.77736,-5.38749],[39.77796,-5.38833],[39.77779,-5.39075],[39.77632,-5.39037],[39.77419,-5.39275],[39.77479,-5.39361],[39.77319,-5.39372],[39.77411,-5.39427],[39.77294,-5.39698],[39.76864,-5.39651],[39.76777,-5.39768],[39.76571,-5.39685],[39.7671,-5.39487],[39.7664,-5.39306],[39.7653,-5.39262],[39.7644,-5.39409],[39.76135,-5.39231],[39.75983,-5.39285],[39.75918,-5.39155],[39.75739,-5.392],[39.75703,-5.39079],[39.75804,-5.38888],[39.75542,-5.38463],[39.75335,-5.38466],[39.754,-5.38093],[39.75201,-5.37945],[39.75116,-5.37641],[39.75201,-5.37115],[39.74949,-5.36929],[39.74908,-5.36751],[39.75117,-5.3654],[39.7527,-5.36144],[39.752,-5.36038],[39.77057,-5.35703],[39.78692,-5.36417],[39.78646,-5.36757]]]},"properties":{"region":"Kusini Pemba","district":"Mkoani","ward":"Mtangani","ward_code":"201"}},{"type":"Feature","geometry":{"type":"Polygon","coordinates":[[[39.7527,-5.36144],[39.75117,-5.3654],[39.74908,-5.36751],[39.74949,-5.36929],[39.75201,-5.37115],[39.75116,-5.37641],[39.75201,-5.37945],[39.754,-5.38093],[39.75335,-5.38466],[39.75542,-5.38463],[39.7577,-5.38843],[39.75443,-5.39099],[39.75256,-5.39421],[39.75358,-5.39618],[39.75188,-5.39938],[39.75373,-5.40139],[39.75253,-5.40455],[39.75317,-5.40563],[39.75187,-5.40441],[39.74935,-5.40508],[39.74974,-5.40722],[39.74847,-5.40759],[39.74698,-5.4064],[39.74561,-5.40832],[39.74163,-5.40955],[39.73793,-5.40775],[39.73506,-5.40331],[39.72624,-5.39643],[39.72486,-5.39223],[39.72971,-5.38438],[39.73123,-5.38371],[39.73208,-5.37937],[39.73486,-5.37759],[39.73673,-5.37767],[39.73673,-5.37519],[39.73504,-5.37217],[39.73724,-5.36993],[39.73689,-5.36328],[39.752,-5.36038],[39.7527,-5.36144]]]},"properties":{"region":"Kusini Pemba","district":"Mkoani","ward":"Kendwa","ward_code":"291"}},{"type":"Feature","geometry":{"type":"MultiPolygon","coordinates":[[[[39.66967,-5.47161],[39.66926,-5.47404],[39.66793,-5.47372],[39.66669,-5.47136],[39.66967,-5.47161]]],[[[39.6591,-5.45175],[39.66205,-5.45346],[39.66188,-5.45428],[39.65951,-5.45327],[39.66062,-5.45435],[39.65996,-5.45495],[39.66261,-5.45609],[39.66644,-5.46133],[39.66751,-5.46145],[39.66694,-5.46295],[39.66778,-5.46338],[39.66622,-5.46403],[39.66813,-5.4641],[39.66781,-5.46748],[39.66874,-5.46923],[39.66656,-5.46833],[39.66582,-5.46578],[39.66143,-5.46185],[39.65984,-5.45868],[39.65778,-5.45792],[39.65635,-5.45359],[39.65708,-5.45303],[39.65782,-5.45454],[39.65929,-5.45453],[39.65832,-5.4523],[39.6591,-5.45175]]],[[[39.58303,-5.41025],[39.58894,-5.41354],[39.58901,-5.41462],[39.59071,-5.41476],[39.59006,-5.4177],[39.59189,-5.41709],[39.59273,-5.41847],[39.59348,-5.41824],[39.59504,-5.42164],[39.59489,-5.41741],[39.59709,-5.41869],[39.59807,-5.41771],[39.598,-5.41607],[39.59942,-5.41736],[39.59997,-5.41981],[39.59853,-5.41309],[39.59893,-5.41123],[39.60101,-5.41756],[39.60378,-5.4198],[39.60778,-5.42872],[39.6039,-5.43468],[39.60623,-5.43367],[39.60766,-5.4367],[39.60731,-5.43323],[39.60953,-5.43056],[39.61184,-5.43011],[39.61243,-5.43441],[39.61324,-5.43324],[39.61374,-5.43419],[39.61499,-5.42603],[39.61613,-5.42662],[39.61747,-5.42831],[39.61816,-5.43284],[39.61768,-5.43806],[39.61593,-5.43903],[39.61748,-5.43888],[39.61849,-5.4363],[39.61888,-5.43837],[39.61733,-5.44089],[39.61478,-5.44116],[39.61502,-5.44299],[39.61293,-5.44306],[39.61364,-5.44403],[39.6128,-5.44511],[39.61641,-5.44498],[39.61608,-5.44669],[39.61464,-5.44688],[39.61402,-5.44744],[39.61515,-5.44693],[39.61641,-5.44866],[39.61821,-5.44839],[39.61734,-5.44972],[39.61851,-5.44988],[39.61807,-5.45034],[39.61995,-5.45224],[39.6214,-5.44514],[39.62529,-5.44329],[39.62792,-5.44518],[39.62692,-5.44801],[39.62847,-5.44984],[39.62836,-5.44754],[39.62901,-5.44776],[39.63035,-5.45102],[39.63063,-5.45577],[39.63188,-5.45232],[39.6333,-5.45585],[39.63283,-5.45164],[39.6345,-5.44691],[39.63741,-5.44769],[39.63509,-5.45332],[39.63796,-5.44994],[39.63949,-5.45189],[39.63876,-5.44942],[39.64078,-5.44754],[39.64657,-5.4481],[39.64976,-5.45129],[39.65059,-5.45452],[39.65124,-5.45301],[39.65056,-5.451],[39.65302,-5.45112],[39.65544,-5.45692],[39.65461,-5.46041],[39.6508,-5.46227],[39.65036,-5.46453],[39.6511,-5.4661],[39.65013,-5.46817],[39.65007,-5.4657],[39.6486,-5.46499],[39.64995,-5.46907],[39.64765,-5.47176],[39.64581,-5.47145],[39.64511,-5.47303],[39.64562,-5.4739],[39.64588,-5.47186],[39.64775,-5.47213],[39.64845,-5.47105],[39.64978,-5.47103],[39.64884,-5.4819],[39.6505,-5.48698],[39.64717,-5.48618],[39.6413,-5.47937],[39.6359,-5.48],[39.63514,-5.48045],[39.63598,-5.48231],[39.63261,-5.48107],[39.6337,-5.47982],[39.63224,-5.47581],[39.63379,-5.46971],[39.63293,-5.46924],[39.63332,-5.46633],[39.63195,-5.46616],[39.63211,-5.46468],[39.63056,-5.46623],[39.6286,-5.46594],[39.62889,-5.46316],[39.62546,-5.46255],[39.62559,-5.46136],[39.62522,-5.46244],[39.62107,-5.46182],[39.61955,-5.46312],[39.61818,-5.46254],[39.61822,-5.46157],[39.61773,-5.46216],[39.61724,-5.46126],[39.61824,-5.45986],[39.61672,-5.45937],[39.61726,-5.45733],[39.61566,-5.4554],[39.6151,-5.45266],[39.61312,-5.45366],[39.61297,-5.45264],[39.61188,-5.45269],[39.61164,-5.45471],[39.61102,-5.45317],[39.60716,-5.45186],[39.60467,-5.45431],[39.60547,-5.46025],[39.6026,-5.46053],[39.60447,-5.45807],[39.59979,-5.45178],[39.60352,-5.45341],[39.60331,-5.45249],[39.60435,-5.45224],[39.60259,-5.45102],[39.60252,-5.44901],[39.60529,-5.44813],[39.60239,-5.44779],[39.60329,-5.44405],[39.60119,-5.44305],[39.6026,-5.44245],[39.60265,-5.44125],[39.60192,-5.44128],[39.60269,-5.43922],[39.60169,-5.43884],[39.60295,-5.43715],[39.6019,-5.43798],[39.60117,-5.43729],[39.60004,-5.43859],[39.60036,-5.43781],[39.59809,-5.43544],[39.59261,-5.43377],[39.59497,-5.43199],[39.59874,-5.43166],[39.59758,-5.43093],[39.59847,-5.42986],[39.59638,-5.43101],[39.59519,-5.43029],[39.59641,-5.42895],[39.59222,-5.43098],[39.59194,-5.42995],[39.59419,-5.42743],[39.59077,-5.42921],[39.59104,-5.42836],[39.58644,-5.42407],[39.57424,-5.41662],[39.57315,-5.41681],[39.57196,-5.41502],[39.57344,-5.41272],[39.57085,-5.41362],[39.57005,-5.41211],[39.57727,-5.41205],[39.58057,-5.41338],[39.58196,-5.41528],[39.58015,-5.41154],[39.58303,-5.41025]]],[[[39.56562,-5.39828],[39.56843,-5.39899],[39.56805,-5.39994],[39.56991,-5.40041],[39.57237,-5.40344],[39.57109,-5.40544],[39.57172,-5.40719],[39.57378,-5.4083],[39.57311,-5.40893],[39.57079,-5.40869],[39.56973,-5.40742],[39.56901,-5.4098],[39.56273,-5.40201],[39.56562,-5.39828]]]]},"properties":{"region":"Kusini Pemba","district":"Mkoani","ward":"Kisiwa Panza","ward_code":"081"}},{"type":"Feature","geometry":{"type":"Polygon","coordinates":[[[39.70865,-5.41931],[39.70925,-5.42317],[39.71061,-5.42263],[39.71127,-5.42419],[39.70724,-5.42888],[39.698,-5.42965],[39.69278,-5.43135],[39.68691,-5.43674],[39.68312,-5.4339],[39.68325,-5.43282],[39.67781,-5.43213],[39.67458,-5.42564],[39.67625,-5.42343],[39.67496,-5.41969],[39.67577,-5.41665],[39.69272,-5.41175],[39.69496,-5.41167],[39.70865,-5.41931]]]},"properties":{"region":"Kusini Pemba","district":"Mkoani","ward":"Kangani","ward_code":"091"}},{"type":"Feature","geometry":{"type":"Polygon","coordinates":[[[39.72437,-5.40758],[39.72585,-5.41013],[39.73481,-5.41176],[39.73405,-5.41553],[39.73519,-5.41679],[39.73441,-5.41894],[39.73226,-5.41952],[39.73161,-5.4221],[39.72981,-5.42235],[39.72929,-5.42413],[39.73114,-5.42494],[39.73178,-5.42894],[39.73449,-5.4292],[39.73659,-5.4322],[39.736,-5.43267],[39.7358,-5.43168],[39.73554,-5.43371],[39.73444,-5.43328],[39.73218,-5.43459],[39.73249,-5.43655],[39.73041,-5.43776],[39.72932,-5.4398],[39.72252,-5.43496],[39.72127,-5.43196],[39.72065,-5.43249],[39.71824,-5.43045],[39.71585,-5.43267],[39.71632,-5.4406],[39.71534,-5.44008],[39.71248,-5.43302],[39.71102,-5.43251],[39.71018,-5.43046],[39.70977,-5.43335],[39.70835,-5.43417],[39.70762,-5.43326],[39.70777,-5.42887],[39.71096,-5.42556],[39.71102,-5.42245],[39.71201,-5.42092],[39.71184,-5.4186],[39.70941,-5.41691],[39.7092,-5.41558],[39.70986,-5.41389],[39.71105,-5.414],[39.71067,-5.41075],[39.7142,-5.40797],[39.72437,-5.40758]]]},"properties":{"region":"Kusini Pemba","district":"Mkoani","ward":"Kengeja","ward_code":"103"}},{"type":"Feature","geometry":{"type":"Polygon","coordinates":[[[39.70724,-5.42923],[39.70623,-5.42968],[39.70732,-5.43026],[39.70639,-5.43033],[39.70654,-5.43187],[39.70364,-5.43181],[39.70471,-5.43274],[39.70455,-5.43395],[39.70172,-5.43512],[39.70174,-5.4392],[39.70461,-5.43878],[39.70559,-5.43764],[39.70645,-5.44023],[39.7094,-5.44111],[39.71115,-5.44427],[39.71167,-5.4438],[39.71456,-5.44639],[39.71486,-5.45072],[39.71419,-5.45178],[39.71392,-5.45094],[39.71323,-5.45169],[39.713,-5.45084],[39.71189,-5.45113],[39.70947,-5.45294],[39.70915,-5.45423],[39.70494,-5.45583],[39.70199,-5.45518],[39.70299,-5.45218],[39.70248,-5.45103],[39.70326,-5.4507],[39.70262,-5.45071],[39.70278,-5.44809],[39.70132,-5.44809],[39.70087,-5.44681],[39.69967,-5.44652],[39.69912,-5.44429],[39.69801,-5.44469],[39.69721,-5.44368],[39.69782,-5.44253],[39.69278,-5.44113],[39.69115,-5.44207],[39.68689,-5.4368],[39.69278,-5.43135],[39.698,-5.42965],[39.70724,-5.42923]]]},"properties":{"region":"Kusini Pemba","district":"Mkoani","ward":"Kuukuu","ward_code":"251"}},{"type":"Feature","geometry":{"type":"Polygon","coordinates":[[[39.71374,-5.38848],[39.72002,-5.38854],[39.72267,-5.39191],[39.72486,-5.39223],[39.72624,-5.39643],[39.73506,-5.40331],[39.73793,-5.40775],[39.74326,-5.40947],[39.743,-5.41078],[39.74197,-5.41165],[39.74044,-5.41097],[39.73673,-5.41188],[39.72732,-5.41058],[39.72505,-5.40976],[39.72397,-5.40706],[39.72369,-5.40787],[39.7142,-5.40797],[39.71067,-5.41075],[39.71105,-5.414],[39.70947,-5.41456],[39.70334,-5.4041],[39.70008,-5.40284],[39.69947,-5.39611],[39.70223,-5.39409],[39.7028,-5.39145],[39.71374,-5.38848]]]},"properties":{"region":"Kusini Pemba","district":"Mkoani","ward":"Mkungu","ward_code":"321"}},{"type":"Feature","geometry":{"type":"Polygon","coordinates":[[[39.73593,-5.41422],[39.73683,-5.42418],[39.73941,-5.42753],[39.73742,-5.43303],[39.73449,-5.4292],[39.73178,-5.42894],[39.73114,-5.42494],[39.72929,-5.42413],[39.72981,-5.42235],[39.73161,-5.4221],[39.73226,-5.41952],[39.73441,-5.41894],[39.73519,-5.41679],[39.73405,-5.41553],[39.73481,-5.41176],[39.73668,-5.41188],[39.73593,-5.41422]]]},"properties":{"region":"Kusini Pemba","district":"Mkoani","ward":"Chole","ward_code":"341"}},{"type":"Feature","geometry":{"type":"Polygon","coordinates":[[[39.69707,-5.36706],[39.69986,-5.36858],[39.70281,-5.36854],[39.7075,-5.36356],[39.71301,-5.36881],[39.71362,-5.37073],[39.71134,-5.37535],[39.71308,-5.3779],[39.71607,-5.37879],[39.71669,-5.38465],[39.71573,-5.38551],[39.71717,-5.38849],[39.71374,-5.38848],[39.7028,-5.39145],[39.70025,-5.38862],[39.69484,-5.3898],[39.69289,-5.38594],[39.69172,-5.38589],[39.69005,-5.3879],[39.68511,-5.3872],[39.68066,-5.38782],[39.68133,-5.38429],[39.68027,-5.37846],[39.68108,-5.37504],[39.68331,-5.37221],[39.68951,-5.36876],[39.68903,-5.36272],[39.69075,-5.36009],[39.69707,-5.36706]]]},"properties":{"region":"Kusini Pemba","district":"Mkoani","ward":"Mtambile","ward_code":"133"}},{"type":"Feature","geometry":{"type":"Polygon","coordinates":[[[39.68682,-5.34101],[39.68815,-5.34297],[39.69011,-5.34248],[39.69422,-5.34607],[39.69572,-5.34536],[39.69573,-5.34622],[39.69791,-5.34696],[39.69896,-5.34437],[39.70899,-5.34284],[39.71016,-5.34363],[39.71185,-5.34686],[39.71016,-5.35118],[39.71025,-5.35414],[39.71342,-5.35816],[39.71614,-5.35892],[39.71661,-5.36245],[39.71424,-5.3669],[39.71169,-5.36805],[39.7075,-5.36356],[39.70281,-5.36854],[39.69986,-5.36858],[39.69716,-5.36719],[39.69075,-5.36009],[39.6921,-5.35706],[39.68834,-5.3518],[39.68601,-5.3527],[39.6823,-5.34738],[39.68349,-5.34584],[39.68546,-5.34625],[39.68486,-5.34555],[39.68682,-5.34101]]]},"properties":{"region":"Kusini Pemba","district":"Mkoani","ward":"Mizingani","ward_code":"141"}},{"type":"Feature","geometry":{"type":"Polygon","coordinates":[[[39.69337,-5.38784],[39.69494,-5.38985],[39.70017,-5.38861],[39.70209,-5.38986],[39.70312,-5.39254],[39.69947,-5.39611],[39.70023,-5.39858],[39.69952,-5.40133],[39.70028,-5.40316],[39.70354,-5.40439],[39.70963,-5.41477],[39.70923,-5.41663],[39.71184,-5.4186],[39.71196,-5.42125],[39.71098,-5.4228],[39.70859,-5.42245],[39.70865,-5.41931],[39.69496,-5.41167],[39.6868,-5.413],[39.6844,-5.41474],[39.67577,-5.41665],[39.67799,-5.41192],[39.67751,-5.41004],[39.67623,-5.4103],[39.67439,-5.40834],[39.67606,-5.40657],[39.67529,-5.40466],[39.67657,-5.40519],[39.67574,-5.40258],[39.67813,-5.39962],[39.67813,-5.39669],[39.67925,-5.39661],[39.6785,-5.39549],[39.67953,-5.39376],[39.67944,-5.38802],[39.68511,-5.3872],[39.69005,-5.3879],[39.69184,-5.38587],[39.69333,-5.38616],[39.69337,-5.38784]]]},"properties":{"region":"Kusini Pemba","district":"Mkoani","ward":"Mjimbini","ward_code":"261"}},{"type":"Feature","geometry":{"type":"Polygon","coordinates":[[[39.73665,-5.35387],[39.74142,-5.35515],[39.74234,-5.3541],[39.74353,-5.3554],[39.73665,-5.36364],[39.73724,-5.36993],[39.73504,-5.37217],[39.73673,-5.37519],[39.73673,-5.37767],[39.73486,-5.37759],[39.73208,-5.37937],[39.73123,-5.38371],[39.72971,-5.38438],[39.72886,-5.38687],[39.72618,-5.38922],[39.72513,-5.3921],[39.72314,-5.39219],[39.72002,-5.38854],[39.71727,-5.38837],[39.71579,-5.3857],[39.71669,-5.38465],[39.71607,-5.37879],[39.71308,-5.3779],[39.71134,-5.37535],[39.71362,-5.37073],[39.71335,-5.36923],[39.71169,-5.36805],[39.71424,-5.3669],[39.71661,-5.36245],[39.71614,-5.35892],[39.7194,-5.35672],[39.72406,-5.35565],[39.72793,-5.35608],[39.73665,-5.35387]]]},"properties":{"region":"Kusini Pemba","district":"Mkoani","ward":"Minazini","ward_code":"301"}},{"type":"Feature","geometry":{"type":"Polygon","coordinates":[[[39.64387,-5.34073],[39.64753,-5.34095],[39.6493,-5.34585],[39.65314,-5.34835],[39.65302,-5.35477],[39.64957,-5.35706],[39.65045,-5.36217],[39.64961,-5.36322],[39.64824,-5.36116],[39.64553,-5.36153],[39.64422,-5.35767],[39.64552,-5.35551],[39.64163,-5.35003],[39.64219,-5.34693],[39.64298,-5.34687],[39.64205,-5.34645],[39.64247,-5.34283],[39.64387,-5.34073]]]},"properties":{"region":"Kusini Pemba","district":"Mkoani","ward":"Ng'ombeni","ward_code":"012"}},{"type":"Feature","geometry":{"type":"Polygon","coordinates":[[[39.65508,-5.31951],[39.65513,-5.3272],[39.65932,-5.33155],[39.65978,-5.33335],[39.66335,-5.33546],[39.663,-5.34015],[39.66547,-5.34412],[39.66393,-5.34615],[39.653,-5.34814],[39.6493,-5.34585],[39.64753,-5.34095],[39.64278,-5.34045],[39.64249,-5.34128],[39.64219,-5.34011],[39.64304,-5.33884],[39.64779,-5.33803],[39.64833,-5.33627],[39.65,-5.33617],[39.65199,-5.33147],[39.65161,-5.32736],[39.65342,-5.32426],[39.65325,-5.32284],[39.65455,-5.32336],[39.65508,-5.31951]]]},"properties":{"region":"Kusini Pemba","district":"Mkoani","ward":"Makombeni","ward_code":"021"}},{"type":"Feature","geometry":{"type":"Polygon","coordinates":[[[39.67133,-5.33458],[39.67535,-5.34052],[39.67854,-5.34058],[39.67599,-5.33905],[39.67724,-5.33798],[39.67648,-5.33662],[39.67703,-5.33557],[39.67953,-5.33856],[39.67954,-5.33776],[39.68115,-5.34104],[39.68304,-5.34135],[39.68163,-5.34055],[39.68182,-5.33888],[39.68437,-5.34109],[39.6811,-5.34613],[39.682,-5.35044],[39.67763,-5.34889],[39.67717,-5.35102],[39.67496,-5.35194],[39.67648,-5.35353],[39.67599,-5.35477],[39.67747,-5.35421],[39.67577,-5.35648],[39.67658,-5.36143],[39.66808,-5.36559],[39.66173,-5.36369],[39.65938,-5.36593],[39.65511,-5.36611],[39.65718,-5.35493],[39.65756,-5.34976],[39.65673,-5.34746],[39.66487,-5.34559],[39.66547,-5.34412],[39.66427,-5.34267],[39.66525,-5.34142],[39.66389,-5.3402],[39.66351,-5.33829],[39.66402,-5.33938],[39.6641,-5.33789],[39.66552,-5.33821],[39.66612,-5.33947],[39.66604,-5.33805],[39.66818,-5.33722],[39.66895,-5.33566],[39.66983,-5.33603],[39.66916,-5.33545],[39.66972,-5.33473],[39.67133,-5.33458]]]},"properties":{"region":"Kusini Pemba","district":"Mkoani","ward":"Mbuguani","ward_code":"183"}},{"type":"Feature","geometry":{"type":"Polygon","coordinates":[[[39.65718,-5.35493],[39.65387,-5.37309],[39.65089,-5.37534],[39.65072,-5.37713],[39.6485,-5.37669],[39.64812,-5.37461],[39.6494,-5.37433],[39.6496,-5.37298],[39.65021,-5.37411],[39.65116,-5.37307],[39.64984,-5.37158],[39.6505,-5.37123],[39.64797,-5.36932],[39.65112,-5.36717],[39.64957,-5.35706],[39.65302,-5.35477],[39.653,-5.34814],[39.65673,-5.34746],[39.65756,-5.34976],[39.65718,-5.35493]]]},"properties":{"region":"Kusini Pemba","district":"Mkoani","ward":"Uweleni","ward_code":"192"}},{"type":"Feature","geometry":{"type":"Polygon","coordinates":[[[39.67812,-5.34932],[39.68115,-5.35131],[39.68292,-5.35105],[39.68311,-5.34963],[39.68713,-5.35347],[39.6873,-5.35228],[39.68838,-5.3519],[39.6921,-5.35706],[39.69062,-5.35933],[39.69091,-5.36078],[39.68903,-5.36272],[39.68951,-5.36876],[39.68331,-5.37221],[39.68108,-5.37504],[39.68027,-5.37846],[39.68131,-5.38407],[39.68076,-5.38669],[39.65616,-5.38575],[39.65448,-5.38481],[39.6503,-5.37806],[39.65089,-5.37534],[39.65438,-5.37189],[39.65511,-5.36611],[39.65938,-5.36593],[39.66173,-5.36369],[39.66808,-5.36559],[39.6764,-5.36163],[39.67577,-5.35648],[39.67747,-5.35421],[39.67601,-5.35457],[39.67669,-5.35352],[39.67515,-5.3522],[39.67761,-5.35105],[39.67812,-5.34932]]]},"properties":{"region":"Kusini Pemba","district":"Mkoani","ward":"Changaweni","ward_code":"332"}},{"type":"Feature","geometry":{"type":"MultiPolygon","coordinates":[[[[39.61308,-5.36956],[39.61711,-5.37141],[39.61785,-5.37296],[39.62075,-5.37318],[39.62405,-5.37622],[39.6248,-5.37567],[39.62966,-5.37841],[39.62983,-5.37994],[39.63193,-5.38151],[39.6325,-5.3834],[39.62861,-5.38919],[39.62223,-5.38784],[39.61921,-5.3819],[39.6159,-5.37892],[39.60717,-5.3792],[39.6044,-5.37778],[39.60377,-5.37579],[39.60647,-5.37266],[39.61123,-5.37129],[39.61308,-5.36956]]],[[[39.58334,-5.36809],[39.58249,-5.372],[39.57981,-5.37112],[39.58077,-5.36897],[39.58016,-5.36718],[39.58159,-5.36576],[39.58334,-5.36809]]],[[[39.58702,-5.36285],[39.58519,-5.36509],[39.58443,-5.36339],[39.58169,-5.36315],[39.58519,-5.36023],[39.58702,-5.36285]]]]},"properties":{"region":"Kusini Pemba","district":"Mkoani","ward":"Makoongwe","ward_code":"031"}},{"type":"Feature","geometry":{"type":"Polygon","coordinates":[[[39.64807,-5.36948],[39.64825,-5.3712],[39.64908,-5.3709],[39.65089,-5.37315],[39.65046,-5.3739],[39.64922,-5.37316],[39.64935,-5.3741],[39.64799,-5.37458],[39.64808,-5.37631],[39.65072,-5.37713],[39.65034,-5.37863],[39.65408,-5.38455],[39.65616,-5.38575],[39.66547,-5.38609],[39.66548,-5.38769],[39.66364,-5.38923],[39.66633,-5.39454],[39.66523,-5.39614],[39.65722,-5.39544],[39.65336,-5.39412],[39.64859,-5.39436],[39.64666,-5.39092],[39.64467,-5.39062],[39.64392,-5.38637],[39.64114,-5.38651],[39.64391,-5.37904],[39.6414,-5.37502],[39.64379,-5.37354],[39.64483,-5.37514],[39.64439,-5.37357],[39.64751,-5.37268],[39.64607,-5.37208],[39.64807,-5.36948]]]},"properties":{"region":"Kusini Pemba","district":"Mkoani","ward":"Shidi","ward_code":"041"}},{"type":"Feature","geometry":{"type":"Polygon","coordinates":[[[39.64324,-5.38648],[39.64426,-5.39086],[39.64666,-5.39092],[39.64859,-5.39436],[39.65019,-5.39466],[39.65068,-5.39635],[39.64932,-5.39832],[39.65015,-5.40096],[39.64657,-5.40324],[39.64228,-5.40351],[39.63918,-5.41107],[39.63345,-5.41129],[39.632,-5.41296],[39.63059,-5.40959],[39.63039,-5.40538],[39.63052,-5.40247],[39.6318,-5.4025],[39.63086,-5.40155],[39.63158,-5.40109],[39.63143,-5.39847],[39.63217,-5.39877],[39.63143,-5.39793],[39.63237,-5.39687],[39.63258,-5.39398],[39.63585,-5.39257],[39.63724,-5.3908],[39.63818,-5.39101],[39.63841,-5.38963],[39.64199,-5.3887],[39.64197,-5.387],[39.64324,-5.38648]]]},"properties":{"region":"Kusini Pemba","district":"Mkoani","ward":"Michenzani","ward_code":"061"}},{"type":"Feature","geometry":{"type":"Polygon","coordinates":[[[39.64577,-5.36168],[39.64824,-5.36116],[39.6494,-5.36323],[39.65045,-5.36217],[39.65112,-5.36717],[39.64538,-5.37099],[39.64505,-5.3729],[39.64389,-5.37179],[39.64314,-5.37305],[39.63971,-5.3724],[39.64113,-5.36609],[39.64431,-5.36273],[39.64519,-5.36009],[39.64577,-5.36168]]]},"properties":{"region":"Kusini Pemba","district":"Mkoani","ward":"Mbuyuni","ward_code":"232"}},{"type":"Feature","geometry":{"type":"Polygon","coordinates":[[[39.65035,-5.40101],[39.6531,-5.40224],[39.65321,-5.4055],[39.65438,-5.40783],[39.652,-5.40851],[39.65116,-5.40976],[39.64864,-5.4178],[39.64884,-5.42126],[39.64532,-5.42141],[39.64388,-5.42021],[39.63806,-5.42067],[39.63621,-5.41906],[39.63525,-5.42],[39.63227,-5.4155],[39.63316,-5.41144],[39.63918,-5.41107],[39.64228,-5.40351],[39.64657,-5.40324],[39.65035,-5.40101]]]},"properties":{"region":"Kusini Pemba","district":"Mkoani","ward":"Stahabu","ward_code":"241"}},{"type":"Feature","geometry":{"type":"Polygon","coordinates":[[[39.68076,-5.38669],[39.67892,-5.38923],[39.67954,-5.39356],[39.6785,-5.39549],[39.67925,-5.39661],[39.67813,-5.39669],[39.67813,-5.39962],[39.67574,-5.40258],[39.67657,-5.40519],[39.67529,-5.40466],[39.67606,-5.40657],[39.67439,-5.40834],[39.67623,-5.4103],[39.67751,-5.41004],[39.67805,-5.41236],[39.67792,-5.41347],[39.67658,-5.4139],[39.6767,-5.41601],[39.67497,-5.41953],[39.67625,-5.42343],[39.67459,-5.42546],[39.67724,-5.43175],[39.67462,-5.43152],[39.67443,-5.43219],[39.67098,-5.43031],[39.66857,-5.43184],[39.66825,-5.43069],[39.6668,-5.43096],[39.66685,-5.42939],[39.66513,-5.42849],[39.66569,-5.42733],[39.66792,-5.42676],[39.67068,-5.42445],[39.67028,-5.42079],[39.66624,-5.41663],[39.66536,-5.4135],[39.65426,-5.40833],[39.6531,-5.40224],[39.65015,-5.40096],[39.64939,-5.39876],[39.65068,-5.39635],[39.65019,-5.39466],[39.65336,-5.39412],[39.65722,-5.39544],[39.66523,-5.39614],[39.66633,-5.39454],[39.66364,-5.38923],[39.66548,-5.38769],[39.66547,-5.38609],[39.68076,-5.38669]]]},"properties":{"region":"Kusini Pemba","district":"Mkoani","ward":"Mkanyageni","ward_code":"053"}},{"type":"Feature","geometry":{"type":"Polygon","coordinates":[[[39.65355,-5.40829],[39.66536,-5.4135],[39.66624,-5.41663],[39.67028,-5.42079],[39.67068,-5.42445],[39.66521,-5.42805],[39.66674,-5.4295],[39.66658,-5.43102],[39.66812,-5.43088],[39.66783,-5.4321],[39.66542,-5.43334],[39.65747,-5.43319],[39.65174,-5.4357],[39.6462,-5.43581],[39.64479,-5.43694],[39.63801,-5.43474],[39.63574,-5.42815],[39.63676,-5.42742],[39.63563,-5.42739],[39.63445,-5.42378],[39.63448,-5.41957],[39.63581,-5.42074],[39.63629,-5.41915],[39.63806,-5.42067],[39.64388,-5.42021],[39.64532,-5.42141],[39.64884,-5.42126],[39.64864,-5.4178],[39.6497,-5.4164],[39.65005,-5.41273],[39.652,-5.40851],[39.65355,-5.40829]]]},"properties":{"region":"Kusini Pemba","district":"Mkoani","ward":"Chokocho","ward_code":"071"}}]}