{"type":"FeatureCollection","features":[{"type":"Feature","geometry":{"type":"MultiPolygon","coordinates":[[[[39.12752,-6.18917],[39.12524,-6.1899],[39.12427,-6.18798],[39.12752,-6.18917]]],[[[39.1884,-6.16017],[39.18972,-6.1633],[39.19058,-6.16349],[39.18841,-6.16526],[39.18661,-6.16478],[39.18559,-6.16317],[39.1884,-6.16017]]],[[[39.13604,-6.14979],[39.12891,-6.15312],[39.12725,-6.15234],[39.1318,-6.14675],[39.13359,-6.14626],[39.13548,-6.14706],[39.13604,-6.14979]]]]},"properties":{"region":"Mjini Magharibi","district":"Mjini","ward":"Shangani","ward_code":"012"}},{"type":"Feature","geometry":{"type":"Polygon","coordinates":[[[39.19449,-6.16091],[39.19325,-6.16414],[39.18972,-6.1633],[39.18956,-6.16156],[39.19449,-6.16091]]]},"properties":{"region":"Mjini Magharibi","district":"Mjini","ward":"Mkunazini","ward_code":"022"}},{"type":"Feature","geometry":{"type":"Polygon","coordinates":[[[39.19183,-6.15991],[39.19395,-6.16121],[39.18956,-6.16156],[39.18883,-6.1603],[39.19163,-6.15833],[39.19183,-6.15991]]]},"properties":{"region":"Mjini Magharibi","district":"Mjini","ward":"Kiponda","ward_code":"032"}},{"type":"Feature","geometry":{"type":"Polygon","coordinates":[[[39.19309,-6.15548],[39.19537,-6.15476],[39.19607,-6.15586],[39.19997,-6.15662],[39.20173,-6.15844],[39.20022,-6.15913],[39.19552,-6.15813],[39.19449,-6.16091],[39.19212,-6.16026],[39.19208,-6.15455],[39.19312,-6.15461],[39.19309,-6.15548]]]},"properties":{"region":"Mjini Magharibi","district":"Mjini","ward":"Malindi","ward_code":"042"}},{"type":"Feature","geometry":{"type":"Polygon","coordinates":[[[39.19905,-6.15899],[39.19896,-6.16238],[39.19671,-6.16094],[39.19449,-6.16091],[39.19552,-6.15813],[39.19905,-6.15899]]]},"properties":{"region":"Mjini Magharibi","district":"Mjini","ward":"Mchangani","ward_code":"052"}},{"type":"Feature","geometry":{"type":"Polygon","coordinates":[[[39.19449,-6.16091],[39.19671,-6.16094],[39.19859,-6.16271],[39.19714,-6.16242],[39.19548,-6.16475],[39.1932,-6.16427],[39.19449,-6.16091]]]},"properties":{"region":"Mjini Magharibi","district":"Mjini","ward":"Vikokotoni","ward_code":"262"}},{"type":"Feature","geometry":{"type":"Polygon","coordinates":[[[39.19905,-6.15899],[39.201,-6.16017],[39.20088,-6.16304],[39.19894,-6.16414],[39.19905,-6.15899]]]},"properties":{"region":"Mjini Magharibi","district":"Mjini","ward":"Mlandege","ward_code":"062"}},{"type":"Feature","geometry":{"type":"Polygon","coordinates":[[[39.20406,-6.15731],[39.20489,-6.16157],[39.20374,-6.16152],[39.20093,-6.16045],[39.20047,-6.15913],[39.20406,-6.15731]]]},"properties":{"region":"Mjini Magharibi","district":"Mjini","ward":"Gulioni","ward_code":"082"}},{"type":"Feature","geometry":{"type":"Polygon","coordinates":[[[39.2091,-6.15799],[39.20966,-6.16129],[39.20675,-6.16195],[39.20797,-6.15823],[39.2091,-6.15799]]]},"properties":{"region":"Mjini Magharibi","district":"Mjini","ward":"Makadara","ward_code":"092"}},{"type":"Feature","geometry":{"type":"Polygon","coordinates":[[[39.19868,-6.16238],[39.19892,-6.16518],[39.19548,-6.16475],[39.19714,-6.16242],[39.19868,-6.16238]]]},"properties":{"region":"Mjini Magharibi","district":"Mjini","ward":"Muembetanga","ward_code":"272"}},{"type":"Feature","geometry":{"type":"Polygon","coordinates":[[[39.20466,-6.15518],[39.20658,-6.15595],[39.20765,-6.15536],[39.20803,-6.15843],[39.20709,-6.16146],[39.20494,-6.16181],[39.20399,-6.15713],[39.20466,-6.15518]]]},"properties":{"region":"Mjini Magharibi","district":"Mjini","ward":"Mitiulaya","ward_code":"472"}},{"type":"Feature","geometry":{"type":"Polygon","coordinates":[[[39.21325,-6.15548],[39.21528,-6.15636],[39.21499,-6.16014],[39.21089,-6.15799],[39.20767,-6.15825],[39.2076,-6.15682],[39.20885,-6.15629],[39.21306,-6.1563],[39.21325,-6.15548]]]},"properties":{"region":"Mjini Magharibi","district":"Mjini","ward":"Shaurimoyo","ward_code":"102"}},{"type":"Feature","geometry":{"type":"Polygon","coordinates":[[[39.20768,-6.15196],[39.2121,-6.15293],[39.21194,-6.15477],[39.2132,-6.15538],[39.21306,-6.1563],[39.21091,-6.15579],[39.21079,-6.15662],[39.20781,-6.15668],[39.20765,-6.15536],[39.20658,-6.15595],[39.20461,-6.15518],[39.20456,-6.15403],[39.20768,-6.15196]]]},"properties":{"region":"Mjini Magharibi","district":"Mjini","ward":"Saateni","ward_code":"482"}},{"type":"Feature","geometry":{"type":"Polygon","coordinates":[[[39.22249,-6.15454],[39.22501,-6.15959],[39.22156,-6.15996],[39.21854,-6.15883],[39.2177,-6.15664],[39.22249,-6.15454]]]},"properties":{"region":"Mjini Magharibi","district":"Mjini","ward":"Kwamtipura","ward_code":"132"}},{"type":"Feature","geometry":{"type":"Polygon","coordinates":[[[39.21499,-6.16014],[39.21495,-6.16338],[39.21111,-6.16303],[39.21313,-6.15906],[39.21499,-6.16014]]]},"properties":{"region":"Mjini Magharibi","district":"Mjini","ward":"Mkele","ward_code":"322"}},{"type":"Feature","geometry":{"type":"Polygon","coordinates":[[[39.21748,-6.15655],[39.21854,-6.15883],[39.21496,-6.1579],[39.21528,-6.15636],[39.21748,-6.15655]]]},"properties":{"region":"Mjini Magharibi","district":"Mjini","ward":"Mboriborini","ward_code":"512"}},{"type":"Feature","geometry":{"type":"Polygon","coordinates":[[[39.2091,-6.15799],[39.21313,-6.15906],[39.21124,-6.16224],[39.20975,-6.16177],[39.2091,-6.15799]]]},"properties":{"region":"Mjini Magharibi","district":"Mjini","ward":"Mapinduzi","ward_code":"552"}},{"type":"Feature","geometry":{"type":"Polygon","coordinates":[[[39.21374,-6.1497],[39.21283,-6.1554],[39.21194,-6.15477],[39.2121,-6.15293],[39.2073,-6.15187],[39.20775,-6.151],[39.20924,-6.15102],[39.20903,-6.14997],[39.20989,-6.14953],[39.21374,-6.1497]]]},"properties":{"region":"Mjini Magharibi","district":"Mjini","ward":"Mwembe Makumbi","ward_code":"112"}},{"type":"Feature","geometry":{"type":"Polygon","coordinates":[[[39.21406,-6.13974],[39.2151,-6.14435],[39.2138,-6.14923],[39.20903,-6.14997],[39.2078,-6.14284],[39.20917,-6.14177],[39.21109,-6.13738],[39.21406,-6.13974]]]},"properties":{"region":"Mjini Magharibi","district":"Mjini","ward":"Maruhubi","ward_code":"492"}},{"type":"Feature","geometry":{"type":"Polygon","coordinates":[[[39.21481,-6.1541],[39.21528,-6.15636],[39.21428,-6.15652],[39.21283,-6.1554],[39.21417,-6.14815],[39.21546,-6.15032],[39.21563,-6.15287],[39.21481,-6.1541]]]},"properties":{"region":"Mjini Magharibi","district":"Mjini","ward":"Masumbani","ward_code":"502"}},{"type":"Feature","geometry":{"type":"Polygon","coordinates":[[[39.21539,-6.15074],[39.22121,-6.15056],[39.2229,-6.15457],[39.2218,-6.15431],[39.21885,-6.15669],[39.21528,-6.15636],[39.21539,-6.15074]]]},"properties":{"region":"Mjini Magharibi","district":"Mjini","ward":"Chumbuni","ward_code":"122"}},{"type":"Feature","geometry":{"type":"Polygon","coordinates":[[[39.22088,-6.1464],[39.22121,-6.15056],[39.21593,-6.15076],[39.21431,-6.14817],[39.21848,-6.14809],[39.21879,-6.14664],[39.22088,-6.1464]]]},"properties":{"region":"Mjini Magharibi","district":"Mjini","ward":"Karakana","ward_code":"402"}},{"type":"Feature","geometry":{"type":"Polygon","coordinates":[[[39.21459,-6.14085],[39.22088,-6.14176],[39.22088,-6.1464],[39.21879,-6.14664],[39.21848,-6.14809],[39.21417,-6.14815],[39.2151,-6.14435],[39.21459,-6.14085]]]},"properties":{"region":"Mjini Magharibi","district":"Mjini","ward":"Banko","ward_code":"562"}},{"type":"Feature","geometry":{"type":"Polygon","coordinates":[[[39.22059,-6.15972],[39.22501,-6.15959],[39.22642,-6.16303],[39.22065,-6.16271],[39.22059,-6.15972]]]},"properties":{"region":"Mjini Magharibi","district":"Mjini","ward":"Kilimahewa Juu","ward_code":"142"}},{"type":"Feature","geometry":{"type":"Polygon","coordinates":[[[39.21543,-6.15807],[39.22059,-6.15972],[39.22065,-6.16271],[39.21501,-6.16019],[39.21543,-6.15807]]]},"properties":{"region":"Mjini Magharibi","district":"Mjini","ward":"Kilimahewa Bondeni","ward_code":"412"}},{"type":"Feature","geometry":{"type":"Polygon","coordinates":[[[39.21525,-6.16024],[39.22151,-6.16307],[39.22642,-6.16303],[39.2267,-6.16505],[39.21495,-6.16338],[39.21525,-6.16024]]]},"properties":{"region":"Mjini Magharibi","district":"Mjini","ward":"Amani","ward_code":"152"}},{"type":"Feature","geometry":{"type":"Polygon","coordinates":[[[39.2267,-6.16505],[39.22464,-6.17082],[39.2196,-6.16967],[39.21946,-6.1638],[39.2267,-6.16505]]]},"properties":{"region":"Mjini Magharibi","district":"Mjini","ward":"Kwa Wazee","ward_code":"422"}},{"type":"Feature","geometry":{"type":"Polygon","coordinates":[[[39.21811,-6.16971],[39.22464,-6.17082],[39.21996,-6.17285],[39.21918,-6.17446],[39.2171,-6.17276],[39.21713,-6.1718],[39.21811,-6.16971]]]},"properties":{"region":"Mjini Magharibi","district":"Mjini","ward":"Nyerere","ward_code":"162"}},{"type":"Feature","geometry":{"type":"Polygon","coordinates":[[[39.21345,-6.16835],[39.21814,-6.16895],[39.21694,-6.17252],[39.21182,-6.16897],[39.21345,-6.16835]]]},"properties":{"region":"Mjini Magharibi","district":"Mjini","ward":"Sogea","ward_code":"342"}},{"type":"Feature","geometry":{"type":"Polygon","coordinates":[[[39.22407,-6.17113],[39.22269,-6.17642],[39.21918,-6.17446],[39.21996,-6.17285],[39.22407,-6.17113]]]},"properties":{"region":"Mjini Magharibi","district":"Mjini","ward":"Kwamtumwajeni","ward_code":"522"}},{"type":"Feature","geometry":{"type":"Polygon","coordinates":[[[39.22085,-6.18166],[39.21559,-6.17832],[39.2171,-6.17276],[39.22269,-6.17642],[39.22085,-6.18166]]]},"properties":{"region":"Mjini Magharibi","district":"Mjini","ward":"Magomeni","ward_code":"182"}},{"type":"Feature","geometry":{"type":"Polygon","coordinates":[[[39.21679,-6.17313],[39.21616,-6.1771],[39.21559,-6.17832],[39.21342,-6.17692],[39.21389,-6.17067],[39.21594,-6.17157],[39.21679,-6.17313]]]},"properties":{"region":"Mjini Magharibi","district":"Mjini","ward":"Meya","ward_code":"442"}},{"type":"Feature","geometry":{"type":"Polygon","coordinates":[[[39.22085,-6.18168],[39.21772,-6.19084],[39.21377,-6.18626],[39.216,-6.17858],[39.22085,-6.18168]]]},"properties":{"region":"Mjini Magharibi","district":"Mjini","ward":"Mpendae","ward_code":"192"}},{"type":"Feature","geometry":{"type":"Polygon","coordinates":[[[39.21128,-6.17617],[39.216,-6.17858],[39.21404,-6.18674],[39.21018,-6.18219],[39.21128,-6.17617]]]},"properties":{"region":"Mjini Magharibi","district":"Mjini","ward":"Kwabintiamrani","ward_code":"532"}},{"type":"Feature","geometry":{"type":"Polygon","coordinates":[[[39.20253,-6.17583],[39.2077,-6.18169],[39.20745,-6.18344],[39.20424,-6.18501],[39.19971,-6.17866],[39.19471,-6.17417],[39.19603,-6.17294],[39.19863,-6.17392],[39.20253,-6.17583]]]},"properties":{"region":"Mjini Magharibi","district":"Mjini","ward":"Kilimani","ward_code":"212"}},{"type":"Feature","geometry":{"type":"Polygon","coordinates":[[[39.21066,-6.18298],[39.21772,-6.19084],[39.21525,-6.19784],[39.21019,-6.19661],[39.20767,-6.19733],[39.20705,-6.19083],[39.20424,-6.18501],[39.20745,-6.18344],[39.20731,-6.17985],[39.20962,-6.18044],[39.21066,-6.18298]]]},"properties":{"region":"Mjini Magharibi","district":"Mjini","ward":"Migombani","ward_code":"432"}},{"type":"Feature","geometry":{"type":"Polygon","coordinates":[[[39.20646,-6.17499],[39.21128,-6.17617],[39.21018,-6.18219],[39.20911,-6.18003],[39.20731,-6.17985],[39.20714,-6.18094],[39.20543,-6.17861],[39.20646,-6.17499]]]},"properties":{"region":"Mjini Magharibi","district":"Mjini","ward":"Urusi","ward_code":"202"}},{"type":"Feature","geometry":{"type":"Polygon","coordinates":[[[39.21389,-6.17067],[39.21342,-6.17692],[39.20833,-6.1754],[39.2087,-6.17296],[39.21048,-6.17032],[39.21389,-6.17067]]]},"properties":{"region":"Mjini Magharibi","district":"Mjini","ward":"Jang'ombe","ward_code":"352"}},{"type":"Feature","geometry":{"type":"Polygon","coordinates":[[[39.21162,-6.17078],[39.20913,-6.16938],[39.2102,-6.16722],[39.21266,-6.16999],[39.21162,-6.17078]]]},"properties":{"region":"Mjini Magharibi","district":"Mjini","ward":"Kidongo Chekundu","ward_code":"362"}},{"type":"Feature","geometry":{"type":"Polygon","coordinates":[[[39.20253,-6.16925],[39.20913,-6.16938],[39.21048,-6.17032],[39.2087,-6.17296],[39.20833,-6.1754],[39.20376,-6.17456],[39.20337,-6.17268],[39.20207,-6.17248],[39.20253,-6.16925]]]},"properties":{"region":"Mjini Magharibi","district":"Mjini","ward":"Matarumbeta","ward_code":"372"}},{"type":"Feature","geometry":{"type":"Polygon","coordinates":[[[39.2059,-6.16502],[39.20628,-6.16972],[39.20253,-6.16925],[39.20349,-6.16572],[39.2059,-6.16502]]]},"properties":{"region":"Mjini Magharibi","district":"Mjini","ward":"Kwaalinatu","ward_code":"392"}},{"type":"Feature","geometry":{"type":"Polygon","coordinates":[[[39.20112,-6.16051],[39.20489,-6.16157],[39.2056,-6.16346],[39.20453,-6.16546],[39.20386,-6.16558],[39.20399,-6.16322],[39.20088,-6.16304],[39.20112,-6.16051]]]},"properties":{"region":"Mjini Magharibi","district":"Mjini","ward":"Muembeladu","ward_code":"072"}},{"type":"Feature","geometry":{"type":"Polygon","coordinates":[[[39.19971,-6.16712],[39.20258,-6.16851],[39.20239,-6.17087],[39.19844,-6.17055],[39.19723,-6.16945],[39.19844,-6.16933],[39.19971,-6.16712]]]},"properties":{"region":"Mjini Magharibi","district":"Mjini","ward":"Miembeni","ward_code":"222"}},{"type":"Feature","geometry":{"type":"Polygon","coordinates":[[[39.20259,-6.16845],[39.19919,-6.16702],[39.1992,-6.16522],[39.20349,-6.16572],[39.20259,-6.16845]]]},"properties":{"region":"Mjini Magharibi","district":"Mjini","ward":"Muembe Shauri","ward_code":"282"}},{"type":"Feature","geometry":{"type":"Polygon","coordinates":[[[39.20088,-6.16304],[39.20399,-6.16322],[39.20386,-6.16558],[39.19892,-6.16518],[39.19894,-6.16414],[39.20088,-6.16304]]]},"properties":{"region":"Mjini Magharibi","district":"Mjini","ward":"Rahaleo","ward_code":"292"}},{"type":"Feature","geometry":{"type":"Polygon","coordinates":[[[39.19873,-6.17053],[39.20239,-6.17087],[39.20207,-6.17248],[39.20337,-6.17268],[39.20376,-6.17456],[39.20646,-6.17499],[39.20556,-6.17853],[39.20407,-6.17867],[39.20273,-6.176],[39.19863,-6.17392],[39.19873,-6.17053]]]},"properties":{"region":"Mjini Magharibi","district":"Mjini","ward":"MwembeMadema","ward_code":"542"}},{"type":"Feature","geometry":{"type":"Polygon","coordinates":[[[39.19577,-6.16954],[39.19721,-6.16705],[39.19723,-6.16945],[39.19873,-6.17053],[39.19863,-6.17392],[39.19603,-6.17294],[39.19471,-6.17417],[39.1911,-6.17055],[39.19229,-6.16647],[39.19577,-6.16954]]]},"properties":{"region":"Mjini Magharibi","district":"Mjini","ward":"Kikwajuni Juu","ward_code":"232"}},{"type":"Feature","geometry":{"type":"Polygon","coordinates":[[[39.19483,-6.16558],[39.19721,-6.16705],[39.19605,-6.16951],[39.19408,-6.16876],[39.19229,-6.16647],[39.19267,-6.1655],[39.19483,-6.16558]]]},"properties":{"region":"Mjini Magharibi","district":"Mjini","ward":"Kikwajuni Bondeni","ward_code":"242"}},{"type":"Feature","geometry":{"type":"Polygon","coordinates":[[[39.19854,-6.16512],[39.19936,-6.16819],[39.19745,-6.16943],[39.19743,-6.16646],[39.19854,-6.16624],[39.19854,-6.16512]]]},"properties":{"region":"Mjini Magharibi","district":"Mjini","ward":"Kisima Majongoo","ward_code":"252"}},{"type":"Feature","geometry":{"type":"Polygon","coordinates":[[[39.19854,-6.16514],[39.19854,-6.16624],[39.19763,-6.16609],[39.19721,-6.16705],[39.19425,-6.16528],[39.19267,-6.1655],[39.1932,-6.16427],[39.19854,-6.16514]]]},"properties":{"region":"Mjini Magharibi","district":"Mjini","ward":"Kisiwandui","ward_code":"452"}},{"type":"Feature","geometry":{"type":"Polygon","coordinates":[[[39.19325,-6.16414],[39.1911,-6.17055],[39.18694,-6.16491],[39.18841,-6.16526],[39.19073,-6.16334],[39.19325,-6.16414]]]},"properties":{"region":"Mjini Magharibi","district":"Mjini","ward":"Mnazimmoja","ward_code":"462"}},{"type":"Feature","geometry":{"type":"Polygon","coordinates":[[[39.21946,-6.1638],[39.21958,-6.16983],[39.21811,-6.16971],[39.21785,-6.16876],[39.21603,-6.16926],[39.21345,-6.16835],[39.21497,-6.16637],[39.2149,-6.1634],[39.21946,-6.1638]]]},"properties":{"region":"Mjini Magharibi","district":"Mjini","ward":"Sebleni","ward_code":"172"}},{"type":"Feature","geometry":{"type":"Polygon","coordinates":[[[39.21098,-6.16299],[39.2149,-6.1634],[39.21505,-6.16592],[39.21428,-6.16752],[39.21182,-6.16897],[39.2102,-6.16722],[39.21098,-6.16299]]]},"properties":{"region":"Mjini Magharibi","district":"Mjini","ward":"Muungano","ward_code":"332"}},{"type":"Feature","geometry":{"type":"Polygon","coordinates":[[[39.21124,-6.16224],[39.21103,-6.16535],[39.2102,-6.16722],[39.20804,-6.16507],[39.20975,-6.16177],[39.21124,-6.16224]]]},"properties":{"region":"Mjini Magharibi","district":"Mjini","ward":"Kwaalimsha","ward_code":"302"}},{"type":"Feature","geometry":{"type":"Polygon","coordinates":[[[39.20966,-6.16129],[39.20804,-6.16507],[39.20705,-6.16448],[39.20453,-6.16546],[39.2056,-6.16346],[39.20494,-6.16181],[39.20966,-6.16129]]]},"properties":{"region":"Mjini Magharibi","district":"Mjini","ward":"Mikunguni","ward_code":"312"}},{"type":"Feature","geometry":{"type":"Polygon","coordinates":[[[39.2072,-6.16472],[39.2102,-6.16722],[39.20913,-6.16938],[39.20628,-6.16972],[39.2059,-6.16502],[39.2072,-6.16472]]]},"properties":{"region":"Mjini Magharibi","district":"Mjini","ward":"Kwahani","ward_code":"382"}},{"type":"Feature","geometry":{"type":"Polygon","coordinates":[[[39.22049,-6.09063],[39.22237,-6.09202],[39.22629,-6.09219],[39.22769,-6.09337],[39.21915,-6.09778],[39.21828,-6.10081],[39.21719,-6.10014],[39.21494,-6.10115],[39.21487,-6.0906],[39.22049,-6.09063]]]},"properties":{"region":"Mjini Magharibi","district":"Magharibi A","ward":"Bububu","ward_code":"032"}},{"type":"Feature","geometry":{"type":"Polygon","coordinates":[[[39.23935,-6.05694],[39.24271,-6.06055],[39.24554,-6.06164],[39.24633,-6.06369],[39.24742,-6.06349],[39.24971,-6.06578],[39.25353,-6.06564],[39.25475,-6.07985],[39.2531,-6.07991],[39.25211,-6.0881],[39.24086,-6.09095],[39.23584,-6.08996],[39.2339,-6.09126],[39.23212,-6.08387],[39.23418,-6.07923],[39.22475,-6.07923],[39.22485,-6.07661],[39.22704,-6.07232],[39.23136,-6.06843],[39.23127,-6.06697],[39.23536,-6.05871],[39.23935,-6.05694]]]},"properties":{"region":"Mjini Magharibi","district":"Magharibi A","ward":"Mbuzini","ward_code":"113"}},{"type":"Feature","geometry":{"type":"Polygon","coordinates":[[[39.23722,-6.08997],[39.23849,-6.10217],[39.2303,-6.1035],[39.22655,-6.10113],[39.22221,-6.10179],[39.22083,-6.10046],[39.21857,-6.10009],[39.21915,-6.09778],[39.23584,-6.08996],[39.23722,-6.08997]]]},"properties":{"region":"Mjini Magharibi","district":"Magharibi A","ward":"Kijichi","ward_code":"222"}},{"type":"Feature","geometry":{"type":"Polygon","coordinates":[[[39.25211,-6.0881],[39.25229,-6.0969],[39.25785,-6.09764],[39.26393,-6.09644],[39.26554,-6.10084],[39.27707,-6.10265],[39.27753,-6.10459],[39.27467,-6.11116],[39.23572,-6.1156],[39.23644,-6.11032],[39.23829,-6.10821],[39.23862,-6.09832],[39.23722,-6.08997],[39.24086,-6.09095],[39.25211,-6.0881]]]},"properties":{"region":"Mjini Magharibi","district":"Magharibi A","ward":"Dole","ward_code":"091"}},{"type":"Feature","geometry":{"type":"Polygon","coordinates":[[[39.2778,-6.09366],[39.27823,-6.10065],[39.27707,-6.10265],[39.26554,-6.10084],[39.26393,-6.09644],[39.25785,-6.09764],[39.25229,-6.0969],[39.25196,-6.08552],[39.2531,-6.07991],[39.25475,-6.07985],[39.25353,-6.06564],[39.2575,-6.06651],[39.27156,-6.07415],[39.27522,-6.07506],[39.27507,-6.08027],[39.27599,-6.08319],[39.27504,-6.08642],[39.27697,-6.08873],[39.27679,-6.0918],[39.2778,-6.09366]]]},"properties":{"region":"Mjini Magharibi","district":"Magharibi A","ward":"Kizimbani","ward_code":"101"}},{"type":"Feature","geometry":{"type":"Polygon","coordinates":[[[39.21719,-6.10014],[39.22083,-6.10046],[39.22221,-6.10179],[39.22655,-6.10113],[39.2303,-6.1035],[39.23849,-6.10217],[39.23829,-6.10821],[39.23323,-6.10609],[39.2276,-6.10754],[39.22666,-6.1057],[39.22413,-6.10462],[39.21848,-6.10633],[39.21417,-6.10489],[39.21494,-6.10115],[39.21719,-6.10014]]]},"properties":{"region":"Mjini Magharibi","district":"Magharibi A","ward":"Chemuchem","ward_code":"253"}},{"type":"Feature","geometry":{"type":"Polygon","coordinates":[[[39.22492,-6.05309],[39.23066,-6.05378],[39.23935,-6.05694],[39.23536,-6.05871],[39.23127,-6.06697],[39.23136,-6.06843],[39.22704,-6.07232],[39.22505,-6.07614],[39.22474,-6.07927],[39.21526,-6.07588],[39.21167,-6.0756],[39.20479,-6.06122],[39.20408,-6.05711],[39.20612,-6.05784],[39.22307,-6.05782],[39.22566,-6.05717],[39.22492,-6.05309]]]},"properties":{"region":"Mjini Magharibi","district":"Magharibi A","ward":"Chuini","ward_code":"043"}},{"type":"Feature","geometry":{"type":"Polygon","coordinates":[[[39.20909,-6.03353],[39.2149,-6.03599],[39.22172,-6.0371],[39.22566,-6.05717],[39.2211,-6.05815],[39.20612,-6.05784],[39.20408,-6.05711],[39.2029,-6.05542],[39.20279,-6.04752],[39.204,-6.04596],[39.20353,-6.04472],[39.20452,-6.04469],[39.20527,-6.04278],[39.20386,-6.03375],[39.20909,-6.03353]]]},"properties":{"region":"Mjini Magharibi","district":"Magharibi A","ward":"Kama","ward_code":"051"}},{"type":"Feature","geometry":{"type":"Polygon","coordinates":[[[39.21167,-6.0756],[39.22688,-6.07975],[39.2258,-6.08314],[39.22463,-6.0832],[39.22428,-6.0919],[39.22237,-6.09202],[39.2199,-6.09005],[39.21487,-6.0906],[39.21167,-6.0756]]]},"properties":{"region":"Mjini Magharibi","district":"Magharibi A","ward":"Kihinani","ward_code":"203"}},{"type":"Feature","geometry":{"type":"Polygon","coordinates":[[[39.2337,-6.0791],[39.23212,-6.08387],[39.2339,-6.09126],[39.22769,-6.09337],[39.22428,-6.0919],[39.22463,-6.0832],[39.2258,-6.08314],[39.22586,-6.08105],[39.22737,-6.07936],[39.2337,-6.0791]]]},"properties":{"region":"Mjini Magharibi","district":"Magharibi A","ward":"Kikaangoni","ward_code":"292"}},{"type":"Feature","geometry":{"type":"Polygon","coordinates":[[[39.24092,-6.03883],[39.23935,-6.05694],[39.23066,-6.05378],[39.22492,-6.05309],[39.22234,-6.03999],[39.24092,-6.03883]]]},"properties":{"region":"Mjini Magharibi","district":"Magharibi A","ward":"Mfenesini","ward_code":"063"}},{"type":"Feature","geometry":{"type":"Polygon","coordinates":[[[39.27956,-6.03247],[39.28453,-6.04458],[39.26798,-6.04184],[39.26397,-6.04493],[39.25849,-6.04746],[39.2575,-6.06651],[39.24971,-6.06578],[39.24742,-6.06349],[39.24633,-6.06369],[39.24554,-6.06164],[39.24271,-6.06055],[39.23935,-6.05694],[39.24084,-6.03834],[39.25125,-6.03432],[39.25823,-6.03294],[39.27118,-6.02726],[39.2788,-6.02795],[39.27956,-6.03247]]]},"properties":{"region":"Mjini Magharibi","district":"Magharibi A","ward":"Mwakaje","ward_code":"071"}},{"type":"Feature","geometry":{"type":"Polygon","coordinates":[[[39.26798,-6.04184],[39.28453,-6.04458],[39.28594,-6.04709],[39.28626,-6.05208],[39.28156,-6.05775],[39.27738,-6.06709],[39.27522,-6.07506],[39.27156,-6.07415],[39.2575,-6.06651],[39.25849,-6.04746],[39.26397,-6.04493],[39.26798,-6.04184]]]},"properties":{"region":"Mjini Magharibi","district":"Magharibi A","ward":"Bumbwisudi","ward_code":"121"}},{"type":"Feature","geometry":{"type":"Polygon","coordinates":[[[39.25828,-6.14131],[39.25894,-6.14207],[39.27121,-6.14185],[39.27099,-6.144],[39.27009,-6.14396],[39.27049,-6.14502],[39.26894,-6.14558],[39.27051,-6.14805],[39.27065,-6.15202],[39.27196,-6.1547],[39.27141,-6.15601],[39.27313,-6.15747],[39.27333,-6.15939],[39.27488,-6.15946],[39.27608,-6.16083],[39.27832,-6.1675],[39.27867,-6.16981],[39.27662,-6.17072],[39.27634,-6.17207],[39.27235,-6.17182],[39.26145,-6.17457],[39.25618,-6.17298],[39.25584,-6.17187],[39.25775,-6.1687],[39.25781,-6.15582],[39.25557,-6.14845],[39.25436,-6.1485],[39.25384,-6.14336],[39.25828,-6.14131]]]},"properties":{"region":"Mjini Magharibi","district":"Magharibi A","ward":"Mwera","ward_code":"013"}},{"type":"Feature","geometry":{"type":"Polygon","coordinates":[[[39.25384,-6.14336],[39.25436,-6.1485],[39.25571,-6.14876],[39.25781,-6.15582],[39.25775,-6.1687],[39.25584,-6.17187],[39.25618,-6.17298],[39.25188,-6.17324],[39.25238,-6.16905],[39.25396,-6.16761],[39.25167,-6.16631],[39.25324,-6.16344],[39.25327,-6.16245],[39.25173,-6.16231],[39.25172,-6.16155],[39.25332,-6.1545],[39.25081,-6.15052],[39.2507,-6.14531],[39.25384,-6.14336]]]},"properties":{"region":"Mjini Magharibi","district":"Magharibi A","ward":"Muwembemchomeke","ward_code":"233"}},{"type":"Feature","geometry":{"type":"Polygon","coordinates":[[[39.27522,-6.11244],[39.27463,-6.1143],[39.27595,-6.11587],[39.27451,-6.11752],[39.27483,-6.119],[39.27408,-6.12095],[39.27166,-6.12204],[39.27265,-6.12693],[39.26999,-6.12953],[39.27121,-6.13426],[39.2725,-6.13507],[39.27151,-6.13707],[39.27121,-6.14185],[39.25894,-6.14207],[39.25828,-6.14131],[39.24674,-6.14649],[39.24866,-6.1397],[39.25014,-6.12671],[39.24862,-6.11422],[39.27437,-6.11116],[39.27522,-6.11244]]]},"properties":{"region":"Mjini Magharibi","district":"Magharibi A","ward":"Kianga","ward_code":"083"}},{"type":"Feature","geometry":{"type":"Polygon","coordinates":[[[39.24674,-6.14649],[39.23859,-6.14745],[39.23622,-6.1494],[39.23629,-6.14808],[39.23425,-6.14633],[39.23391,-6.14048],[39.23626,-6.13914],[39.23729,-6.13326],[39.23931,-6.12981],[39.23572,-6.1156],[39.24862,-6.11422],[39.25014,-6.12671],[39.24866,-6.1397],[39.24674,-6.14649]]]},"properties":{"region":"Mjini Magharibi","district":"Magharibi A","ward":"Masingini","ward_code":"233"}},{"type":"Feature","geometry":{"type":"Polygon","coordinates":[[[39.22622,-6.13097],[39.22659,-6.1359],[39.22512,-6.14243],[39.21459,-6.14085],[39.21455,-6.13967],[39.2124,-6.13889],[39.21612,-6.13397],[39.22315,-6.13385],[39.22518,-6.13045],[39.22622,-6.13097]]]},"properties":{"region":"Mjini Magharibi","district":"Magharibi A","ward":"Mtoni Kidatu","ward_code":"142"}},{"type":"Feature","geometry":{"type":"Polygon","coordinates":[[[39.23195,-6.13068],[39.23556,-6.13366],[39.23729,-6.13326],[39.23637,-6.13893],[39.23391,-6.14048],[39.23447,-6.14479],[39.23143,-6.14294],[39.22883,-6.14356],[39.22512,-6.14243],[39.22667,-6.13486],[39.22572,-6.1315],[39.23195,-6.13068]]]},"properties":{"region":"Mjini Magharibi","district":"Magharibi A","ward":"Mtoni Chem Chem","ward_code":"303"}},{"type":"Feature","geometry":{"type":"Polygon","coordinates":[[[39.23553,-6.15351],[39.23433,-6.15624],[39.22834,-6.16197],[39.2267,-6.16505],[39.22377,-6.15665],[39.22443,-6.1557],[39.22806,-6.15526],[39.22973,-6.15349],[39.23264,-6.15332],[39.23302,-6.15227],[39.23553,-6.15351]]]},"properties":{"region":"Mjini Magharibi","district":"Magharibi A","ward":"Welezo","ward_code":"162"}},{"type":"Feature","geometry":{"type":"Polygon","coordinates":[[[39.22181,-6.15195],[39.23006,-6.15175],[39.23286,-6.15289],[39.22973,-6.15349],[39.22806,-6.15526],[39.22472,-6.15554],[39.22377,-6.15665],[39.22181,-6.15195]]]},"properties":{"region":"Mjini Magharibi","district":"Magharibi A","ward":"Uholanzi","ward_code":"272"}},{"type":"Feature","geometry":{"type":"Polygon","coordinates":[[[39.25072,-6.14554],[39.25139,-6.15247],[39.25329,-6.15421],[39.25227,-6.15859],[39.24522,-6.15692],[39.24527,-6.1536],[39.24652,-6.15036],[39.24176,-6.15131],[39.24129,-6.14775],[39.25072,-6.14554]]]},"properties":{"region":"Mjini Magharibi","district":"Magharibi A","ward":"Mtofaani","ward_code":"172"}},{"type":"Feature","geometry":{"type":"Polygon","coordinates":[[[39.23859,-6.14745],[39.24127,-6.14741],[39.24176,-6.15131],[39.24652,-6.15036],[39.24527,-6.1536],[39.24522,-6.15692],[39.25227,-6.15859],[39.25173,-6.16231],[39.25327,-6.16245],[39.25324,-6.16344],[39.25167,-6.16631],[39.25396,-6.16761],[39.25238,-6.16905],[39.25159,-6.17278],[39.24143,-6.16867],[39.2436,-6.15827],[39.24016,-6.15328],[39.24091,-6.1502],[39.23883,-6.14833],[39.23859,-6.14745]]]},"properties":{"region":"Mjini Magharibi","district":"Magharibi A","ward":"Michikichini","ward_code":"283"}},{"type":"Feature","geometry":{"type":"Polygon","coordinates":[[[39.2436,-6.15827],[39.24165,-6.16777],[39.23789,-6.16653],[39.23475,-6.16665],[39.22875,-6.16161],[39.23433,-6.15624],[39.23642,-6.14886],[39.23859,-6.14745],[39.24091,-6.1502],[39.24016,-6.15328],[39.2436,-6.15827]]]},"properties":{"region":"Mjini Magharibi","district":"Magharibi A","ward":"Hawaii","ward_code":"312"}},{"type":"Feature","geometry":{"type":"Polygon","coordinates":[[[39.22088,-6.14176],[39.22297,-6.14268],[39.22651,-6.14228],[39.22855,-6.14354],[39.23143,-6.14294],[39.23465,-6.14473],[39.23425,-6.14633],[39.22992,-6.14547],[39.22417,-6.14745],[39.22088,-6.14683],[39.22088,-6.14176]]]},"properties":{"region":"Mjini Magharibi","district":"Magharibi A","ward":"Mto pepo","ward_code":"132"}},{"type":"Feature","geometry":{"type":"Polygon","coordinates":[[[39.23008,-6.14553],[39.23425,-6.14633],[39.23629,-6.14808],[39.23564,-6.15326],[39.22994,-6.15173],[39.22181,-6.15195],[39.22088,-6.14683],[39.22417,-6.14745],[39.23008,-6.14553]]]},"properties":{"region":"Mjini Magharibi","district":"Magharibi A","ward":"Munduli","ward_code":"232"}},{"type":"Feature","geometry":{"type":"Polygon","coordinates":[[[39.23572,-6.1156],[39.23931,-6.12981],[39.23729,-6.13326],[39.23556,-6.13366],[39.23159,-6.13051],[39.22792,-6.13176],[39.22483,-6.13053],[39.22466,-6.13234],[39.22315,-6.13385],[39.21612,-6.13397],[39.2124,-6.13889],[39.21109,-6.13738],[39.21368,-6.13382],[39.21477,-6.12985],[39.21455,-6.12525],[39.21593,-6.12352],[39.22158,-6.12203],[39.22623,-6.1183],[39.23297,-6.11586],[39.23572,-6.1156]]]},"properties":{"region":"Mjini Magharibi","district":"Magharibi A","ward":"Mtoni","ward_code":"022"}},{"type":"Feature","geometry":{"type":"MultiPolygon","coordinates":[[[[39.18948,-6.12453],[39.19453,-6.12847],[39.19048,-6.12624],[39.18948,-6.12453]]],[[[39.16812,-6.11921],[39.16901,-6.12078],[39.16475,-6.11971],[39.16366,-6.11764],[39.16812,-6.11921]]],[[[39.21184,-6.1158],[39.21841,-6.11778],[39.229,-6.11759],[39.22599,-6.11844],[39.22158,-6.12203],[39.21593,-6.12352],[39.21455,-6.12525],[39.21092,-6.11825],[39.21184,-6.1158]]]]},"properties":{"region":"Mjini Magharibi","district":"Magharibi A","ward":"Sharifumsa","ward_code":"182"}},{"type":"Feature","geometry":{"type":"Polygon","coordinates":[[[39.22413,-6.10462],[39.2276,-6.10754],[39.23323,-6.10609],[39.23829,-6.10821],[39.23596,-6.11224],[39.23069,-6.11204],[39.22771,-6.11352],[39.22423,-6.1131],[39.22427,-6.11231],[39.22161,-6.11187],[39.2204,-6.11051],[39.21601,-6.10928],[39.21547,-6.10729],[39.21405,-6.10656],[39.21417,-6.10489],[39.21848,-6.10633],[39.22413,-6.10462]]]},"properties":{"region":"Mjini Magharibi","district":"Magharibi A","ward":"Mwanyanya","ward_code":"152"}},{"type":"Feature","geometry":{"type":"Polygon","coordinates":[[[39.21801,-6.11306],[39.22398,-6.1135],[39.22713,-6.11541],[39.22938,-6.11557],[39.22989,-6.11726],[39.22631,-6.11718],[39.2253,-6.11809],[39.21841,-6.11778],[39.21443,-6.11587],[39.21184,-6.1158],[39.2134,-6.11106],[39.21801,-6.11306]]]},"properties":{"region":"Mjini Magharibi","district":"Magharibi A","ward":"Kibweni","ward_code":"192"}},{"type":"Feature","geometry":{"type":"Polygon","coordinates":[[[39.21589,-6.10921],[39.22427,-6.11231],[39.22423,-6.1131],[39.22796,-6.1135],[39.23069,-6.11204],[39.23596,-6.11224],[39.23572,-6.1156],[39.22989,-6.11726],[39.22938,-6.11557],[39.22713,-6.11541],[39.22398,-6.1135],[39.2178,-6.11304],[39.21344,-6.11108],[39.21405,-6.10656],[39.21547,-6.10729],[39.21589,-6.10921]]]},"properties":{"region":"Mjini Magharibi","district":"Magharibi A","ward":"Kwagoa","ward_code":"262"}},{"type":"Feature","geometry":{"type":"Polygon","coordinates":[[[39.22994,-6.17291],[39.23455,-6.17353],[39.23992,-6.17637],[39.2401,-6.17902],[39.23731,-6.17945],[39.23797,-6.18135],[39.23574,-6.18084],[39.23476,-6.18172],[39.23605,-6.18509],[39.23186,-6.18286],[39.22801,-6.17849],[39.2294,-6.17688],[39.22994,-6.17291]]]},"properties":{"region":"Mjini Magharibi","district":"Magharibi B","ward":"Mwanakwerekwe","ward_code":"112"}},{"type":"Feature","geometry":{"type":"Polygon","coordinates":[[[39.2324,-6.16536],[39.24165,-6.16777],[39.23832,-6.17076],[39.23655,-6.1705],[39.23707,-6.17376],[39.23633,-6.17468],[39.23455,-6.17353],[39.23118,-6.17323],[39.23045,-6.17137],[39.2324,-6.16536]]]},"properties":{"region":"Mjini Magharibi","district":"Magharibi B","ward":"Mikarafuuni","ward_code":"252"}},{"type":"Feature","geometry":{"type":"Polygon","coordinates":[[[39.2324,-6.16536],[39.23032,-6.17091],[39.23114,-6.1729],[39.22461,-6.1709],[39.22875,-6.16161],[39.2324,-6.16536]]]},"properties":{"region":"Mjini Magharibi","district":"Magharibi B","ward":"Magogoni","ward_code":"122"}},{"type":"Feature","geometry":{"type":"Polygon","coordinates":[[[39.22927,-6.17705],[39.22801,-6.17849],[39.22269,-6.17642],[39.22461,-6.1709],[39.22984,-6.17287],[39.22927,-6.17705]]]},"properties":{"region":"Mjini Magharibi","district":"Magharibi B","ward":"Jitimai","ward_code":"242"}},{"type":"Feature","geometry":{"type":"Polygon","coordinates":[[[39.22854,-6.18094],[39.22842,-6.18663],[39.22079,-6.18185],[39.22269,-6.17642],[39.22784,-6.17829],[39.22937,-6.18022],[39.22854,-6.18094]]]},"properties":{"region":"Mjini Magharibi","district":"Magharibi B","ward":"Sokoni","ward_code":"312"}},{"type":"Feature","geometry":{"type":"Polygon","coordinates":[[[39.22937,-6.18022],[39.23497,-6.18451],[39.23516,-6.18655],[39.23371,-6.19019],[39.23049,-6.19104],[39.22998,-6.18824],[39.22801,-6.18543],[39.22854,-6.18094],[39.22937,-6.18022]]]},"properties":{"region":"Mjini Magharibi","district":"Magharibi B","ward":"Melinne","ward_code":"162"}},{"type":"Feature","geometry":{"type":"Polygon","coordinates":[[[39.24,-6.19065],[39.23824,-6.19125],[39.23371,-6.19019],[39.23516,-6.18655],[39.23497,-6.18451],[39.23955,-6.18688],[39.24,-6.19065]]]},"properties":{"region":"Mjini Magharibi","district":"Magharibi B","ward":"Taveta","ward_code":"172"}},{"type":"Feature","geometry":{"type":"Polygon","coordinates":[[[39.23955,-6.18688],[39.24924,-6.19177],[39.24829,-6.19705],[39.2464,-6.19738],[39.2461,-6.20018],[39.2475,-6.20277],[39.24819,-6.20786],[39.24806,-6.20895],[39.24608,-6.20885],[39.24993,-6.21781],[39.24775,-6.21802],[39.2427,-6.21727],[39.24027,-6.21069],[39.23991,-6.19775],[39.24169,-6.19838],[39.23885,-6.19105],[39.23999,-6.19098],[39.23955,-6.18688]]]},"properties":{"region":"Mjini Magharibi","district":"Magharibi B","ward":"Kijitoupele","ward_code":"132"}},{"type":"Feature","geometry":{"type":"Polygon","coordinates":[[[39.22564,-6.18517],[39.22998,-6.18824],[39.23049,-6.19104],[39.2335,-6.19013],[39.23885,-6.19105],[39.24169,-6.19838],[39.23901,-6.19719],[39.23526,-6.1971],[39.2346,-6.1959],[39.22497,-6.19085],[39.22536,-6.18976],[39.22395,-6.18949],[39.22564,-6.18517]]]},"properties":{"region":"Mjini Magharibi","district":"Magharibi B","ward":"Uzi","ward_code":"292"}},{"type":"Feature","geometry":{"type":"Polygon","coordinates":[[[39.24143,-6.16867],[39.24718,-6.17038],[39.24869,-6.17201],[39.25188,-6.17324],[39.2499,-6.17416],[39.24618,-6.17306],[39.24122,-6.17393],[39.23805,-6.17319],[39.23652,-6.17158],[39.23655,-6.1705],[39.23832,-6.17076],[39.24143,-6.16867]]]},"properties":{"region":"Mjini Magharibi","district":"Magharibi B","ward":"Kinuni","ward_code":"182"}},{"type":"Feature","geometry":{"type":"Polygon","coordinates":[[[39.2528,-6.17307],[39.25126,-6.18018],[39.24995,-6.18081],[39.24945,-6.18421],[39.25029,-6.18433],[39.2501,-6.18587],[39.24831,-6.19109],[39.23969,-6.18693],[39.24058,-6.18369],[39.24504,-6.18313],[39.24796,-6.17367],[39.2499,-6.17416],[39.2528,-6.17307]]]},"properties":{"region":"Mjini Magharibi","district":"Magharibi B","ward":"Mnarani","ward_code":"332"}},{"type":"Feature","geometry":{"type":"Polygon","coordinates":[[[39.23992,-6.17637],[39.24722,-6.17779],[39.24631,-6.18055],[39.24546,-6.18039],[39.24504,-6.18313],[39.24058,-6.18369],[39.23969,-6.18693],[39.23605,-6.18509],[39.23476,-6.18172],[39.23574,-6.18084],[39.23797,-6.18135],[39.23731,-6.17945],[39.2401,-6.17902],[39.23992,-6.17637]]]},"properties":{"region":"Mjini Magharibi","district":"Magharibi B","ward":"Pangawe","ward_code":"192"}},{"type":"Feature","geometry":{"type":"Polygon","coordinates":[[[39.23699,-6.17202],[39.24122,-6.17393],[39.24752,-6.17343],[39.24736,-6.17721],[39.24292,-6.17778],[39.23633,-6.17468],[39.23699,-6.17202]]]},"properties":{"region":"Mjini Magharibi","district":"Magharibi B","ward":"Muembe Majogoo","ward_code":"322"}},{"type":"Feature","geometry":{"type":"Polygon","coordinates":[[[39.28507,-6.19282],[39.28577,-6.20354],[39.28782,-6.20694],[39.29201,-6.21063],[39.29935,-6.21504],[39.30745,-6.22407],[39.30956,-6.22885],[39.30997,-6.23704],[39.29672,-6.23972],[39.29428,-6.23624],[39.29401,-6.23687],[39.29159,-6.23612],[39.276,-6.21457],[39.27653,-6.20671],[39.27451,-6.19594],[39.27615,-6.19346],[39.27627,-6.18407],[39.27863,-6.18508],[39.28507,-6.19282]]]},"properties":{"region":"Mjini Magharibi","district":"Magharibi B","ward":"Kibondeni","ward_code":"013"}},{"type":"Feature","geometry":{"type":"Polygon","coordinates":[[[39.25936,-6.19318],[39.26346,-6.19641],[39.26958,-6.19535],[39.27451,-6.19594],[39.27653,-6.20671],[39.276,-6.21457],[39.28489,-6.22725],[39.28349,-6.22834],[39.28453,-6.23213],[39.26725,-6.23941],[39.25587,-6.22075],[39.25893,-6.21969],[39.25557,-6.21447],[39.25627,-6.20999],[39.25904,-6.20616],[39.25932,-6.20358],[39.25856,-6.19594],[39.25714,-6.1937],[39.25936,-6.19318]]]},"properties":{"region":"Mjini Magharibi","district":"Magharibi B","ward":"Uwandani","ward_code":"223"}},{"type":"Feature","geometry":{"type":"Polygon","coordinates":[[[39.2603,-6.17456],[39.27634,-6.17207],[39.27502,-6.17307],[39.27532,-6.17485],[39.27427,-6.17726],[39.2768,-6.18749],[39.27594,-6.19418],[39.27451,-6.19594],[39.26958,-6.19535],[39.26346,-6.19641],[39.25936,-6.19318],[39.25726,-6.19363],[39.25696,-6.18689],[39.25857,-6.18218],[39.26167,-6.1788],[39.2603,-6.17456]]]},"properties":{"region":"Mjini Magharibi","district":"Magharibi B","ward":"Chunga","ward_code":"213"}},{"type":"Feature","geometry":{"type":"Polygon","coordinates":[[[39.2603,-6.17456],[39.2614,-6.17954],[39.25857,-6.18218],[39.25696,-6.18689],[39.25726,-6.19363],[39.25131,-6.1928],[39.24831,-6.19109],[39.2501,-6.18587],[39.25029,-6.18433],[39.24945,-6.18421],[39.24995,-6.18081],[39.25184,-6.17875],[39.25147,-6.17717],[39.25249,-6.17638],[39.2528,-6.17307],[39.25679,-6.17313],[39.2603,-6.17456]]]},"properties":{"region":"Mjini Magharibi","district":"Magharibi B","ward":"Mambosasa","ward_code":"342"}},{"type":"Feature","geometry":{"type":"Polygon","coordinates":[[[39.25457,-6.19924],[39.25892,-6.20128],[39.25914,-6.20583],[39.25627,-6.20999],[39.25557,-6.21447],[39.25893,-6.21969],[39.2533,-6.22101],[39.25086,-6.22002],[39.24614,-6.20904],[39.24806,-6.20895],[39.24826,-6.20698],[39.2461,-6.20018],[39.25026,-6.2004],[39.25457,-6.19924]]]},"properties":{"region":"Mjini Magharibi","district":"Magharibi B","ward":"Fuoni Kipungani","ward_code":"263"}},{"type":"Feature","geometry":{"type":"Polygon","coordinates":[[[39.24924,-6.19177],[39.25714,-6.1937],[39.25856,-6.19594],[39.25892,-6.20128],[39.25569,-6.19928],[39.25026,-6.2004],[39.24619,-6.19978],[39.2464,-6.19738],[39.24829,-6.19705],[39.24924,-6.19177]]]},"properties":{"region":"Mjini Magharibi","district":"Magharibi B","ward":"Fuoni Migombani","ward_code":"272"}},{"type":"Feature","geometry":{"type":"Polygon","coordinates":[[[39.2455,-6.21725],[39.24575,-6.21791],[39.24993,-6.21781],[39.25086,-6.22002],[39.25307,-6.22094],[39.25587,-6.22075],[39.26725,-6.23941],[39.25825,-6.24233],[39.2508,-6.24355],[39.24806,-6.24711],[39.24457,-6.23534],[39.23689,-6.22531],[39.23688,-6.22448],[39.23889,-6.22397],[39.23887,-6.22249],[39.24289,-6.2174],[39.2455,-6.21725]]]},"properties":{"region":"Mjini Magharibi","district":"Magharibi B","ward":"Maungani","ward_code":"023"}},{"type":"Feature","geometry":{"type":"Polygon","coordinates":[[[39.22757,-6.20087],[39.23995,-6.20193],[39.24027,-6.21069],[39.24289,-6.2174],[39.23887,-6.22249],[39.23875,-6.22411],[39.23503,-6.22477],[39.2333,-6.22548],[39.23332,-6.22627],[39.2303,-6.22655],[39.22842,-6.22794],[39.22706,-6.22982],[39.22797,-6.23837],[39.22386,-6.23859],[39.22353,-6.23422],[39.22156,-6.2281],[39.22214,-6.22599],[39.22096,-6.22586],[39.22021,-6.22014],[39.21928,-6.22002],[39.21925,-6.21894],[39.22212,-6.21583],[39.22121,-6.20951],[39.2224,-6.2068],[39.22589,-6.20483],[39.22757,-6.20087]]]},"properties":{"region":"Mjini Magharibi","district":"Magharibi B","ward":"Kisauni","ward_code":"052"}},{"type":"Feature","geometry":{"type":"Polygon","coordinates":[[[39.22434,-6.18962],[39.22536,-6.18976],[39.22497,-6.19085],[39.2258,-6.19148],[39.2346,-6.1959],[39.23526,-6.1971],[39.23991,-6.19775],[39.23995,-6.20193],[39.22757,-6.20087],[39.22795,-6.19937],[39.22684,-6.19762],[39.222,-6.19522],[39.22434,-6.18962]]]},"properties":{"region":"Mjini Magharibi","district":"Magharibi B","ward":"Tomondo","ward_code":"142"}},{"type":"Feature","geometry":{"type":"Polygon","coordinates":[[[39.26591,-6.30669],[39.29671,-6.30856],[39.29806,-6.31063],[39.29735,-6.31148],[39.29794,-6.31343],[39.30001,-6.31712],[39.2996,-6.31947],[39.29842,-6.31949],[39.29927,-6.32053],[39.29639,-6.32158],[39.29484,-6.3197],[39.29017,-6.31818],[39.28238,-6.32069],[39.27441,-6.31735],[39.27212,-6.31593],[39.27256,-6.31437],[39.26969,-6.31091],[39.26547,-6.30797],[39.26591,-6.30669]]]},"properties":{"region":"Mjini Magharibi","district":"Magharibi B","ward":"Fumba","ward_code":"073"}},{"type":"Feature","geometry":{"type":"Polygon","coordinates":[[[39.28748,-6.28354],[39.29027,-6.28946],[39.29272,-6.29134],[39.29368,-6.29454],[39.29634,-6.29623],[39.29519,-6.3003],[39.29867,-6.30501],[39.29671,-6.30856],[39.26591,-6.30669],[39.25993,-6.29948],[39.25271,-6.28464],[39.26842,-6.28477],[39.28748,-6.28354]]]},"properties":{"region":"Mjini Magharibi","district":"Magharibi B","ward":"Bweleo","ward_code":"081"}},{"type":"Feature","geometry":{"type":"MultiPolygon","coordinates":[[[[39.22525,-6.29259],[39.22945,-6.30043],[39.22705,-6.2992],[39.22525,-6.29259]]],[[[39.22065,-6.2856],[39.21975,-6.28568],[39.21925,-6.28414],[39.22065,-6.2856]]],[[[39.28371,-6.27548],[39.28748,-6.28354],[39.26842,-6.28477],[39.25271,-6.28464],[39.24847,-6.27092],[39.26674,-6.26431],[39.28082,-6.26065],[39.28371,-6.27548]]]]},"properties":{"region":"Mjini Magharibi","district":"Magharibi B","ward":"Dimani","ward_code":"091"}},{"type":"Feature","geometry":{"type":"MultiPolygon","coordinates":[[[[39.30467,-6.26451],[39.30504,-6.27258],[39.30195,-6.26301],[39.29921,-6.26101],[39.29555,-6.25374],[39.29528,-6.24917],[39.29249,-6.24452],[39.29245,-6.24327],[39.29447,-6.24176],[39.29639,-6.2486],[39.30216,-6.2563],[39.30467,-6.26451]]],[[[39.28453,-6.23213],[39.28769,-6.23903],[39.28736,-6.24033],[39.28591,-6.24191],[39.28596,-6.24339],[39.28439,-6.24265],[39.2845,-6.24538],[39.28255,-6.24709],[39.2791,-6.24785],[39.28048,-6.24944],[39.27903,-6.2501],[39.28006,-6.25103],[39.2872,-6.24945],[39.28825,-6.25158],[39.28395,-6.25281],[39.27948,-6.25646],[39.28082,-6.26065],[39.26674,-6.26431],[39.25872,-6.26742],[39.25825,-6.26463],[39.25033,-6.24949],[39.24806,-6.24711],[39.24984,-6.24415],[39.26361,-6.24088],[39.28453,-6.23213]]]]},"properties":{"region":"Mjini Magharibi","district":"Magharibi B","ward":"Kombeni","ward_code":"103"}},{"type":"Feature","geometry":{"type":"Polygon","coordinates":[[[39.24189,-6.25917],[39.25474,-6.2584],[39.25825,-6.26463],[39.25846,-6.26763],[39.24847,-6.27092],[39.24631,-6.26424],[39.24211,-6.25947],[39.24323,-6.2622],[39.24145,-6.26347],[39.24099,-6.26719],[39.2361,-6.26551],[39.2408,-6.26217],[39.24189,-6.25917]]]},"properties":{"region":"Mjini Magharibi","district":"Magharibi B","ward":"Nyamanzi","ward_code":"201"}},{"type":"Feature","geometry":{"type":"Polygon","coordinates":[[[39.23689,-6.22466],[39.24457,-6.23534],[39.24714,-6.24528],[39.25,-6.24888],[39.25474,-6.2584],[39.24189,-6.25917],[39.2408,-6.26217],[39.2361,-6.26551],[39.23273,-6.26352],[39.23277,-6.26174],[39.23121,-6.25952],[39.22831,-6.25777],[39.22994,-6.25395],[39.23024,-6.24893],[39.23218,-6.24446],[39.23211,-6.24034],[39.22797,-6.23837],[39.22706,-6.22982],[39.2303,-6.22655],[39.23689,-6.22466]]]},"properties":{"region":"Mjini Magharibi","district":"Magharibi B","ward":"Shakani","ward_code":"033"}},{"type":"Feature","geometry":{"type":"MultiPolygon","coordinates":[[[[39.17665,-6.27384],[39.17845,-6.28373],[39.17568,-6.28103],[39.17579,-6.27515],[39.17665,-6.27384]]],[[[39.20656,-6.21743],[39.21912,-6.21838],[39.21928,-6.22002],[39.22021,-6.22014],[39.22096,-6.22586],[39.22214,-6.22599],[39.22156,-6.2281],[39.22353,-6.23422],[39.22386,-6.23859],[39.22797,-6.23837],[39.23211,-6.24034],[39.23218,-6.24446],[39.23024,-6.24893],[39.22994,-6.25395],[39.22846,-6.25745],[39.22624,-6.254],[39.21623,-6.25298],[39.21257,-6.24879],[39.21414,-6.24102],[39.21317,-6.23808],[39.20938,-6.23337],[39.20987,-6.23147],[39.20912,-6.22988],[39.21002,-6.22725],[39.20338,-6.22306],[39.20826,-6.22352],[39.20851,-6.21972],[39.20656,-6.21743]]]]},"properties":{"region":"Mjini Magharibi","district":"Magharibi B","ward":"Chukwani","ward_code":"062"}},{"type":"Feature","geometry":{"type":"Polygon","coordinates":[[[39.21295,-6.20284],[39.21965,-6.20899],[39.21051,-6.20913],[39.20911,-6.20959],[39.20913,-6.21053],[39.20149,-6.21071],[39.20097,-6.2065],[39.20171,-6.20424],[39.20361,-6.20455],[39.20551,-6.20311],[39.20767,-6.19733],[39.21019,-6.19661],[39.21295,-6.20284]]]},"properties":{"region":"Mjini Magharibi","district":"Magharibi B","ward":"Kiembe Samaki","ward_code":"042"}},{"type":"Feature","geometry":{"type":"Polygon","coordinates":[[[39.22054,-6.20904],[39.22194,-6.21037],[39.22212,-6.21583],[39.21925,-6.21894],[39.21587,-6.21737],[39.20692,-6.21755],[39.20585,-6.21671],[39.20416,-6.21865],[39.20399,-6.21486],[39.20134,-6.21154],[39.20149,-6.21071],[39.20913,-6.21053],[39.20911,-6.20959],[39.21051,-6.20913],[39.22054,-6.20904]]]},"properties":{"region":"Mjini Magharibi","district":"Magharibi B","ward":"Mbweni","ward_code":"232"}},{"type":"Feature","geometry":{"type":"Polygon","coordinates":[[[39.22669,-6.20252],[39.21525,-6.19784],[39.21763,-6.19109],[39.22255,-6.19357],[39.222,-6.19522],[39.22684,-6.19762],[39.22795,-6.19937],[39.22669,-6.20252]]]},"properties":{"region":"Mjini Magharibi","district":"Magharibi B","ward":"Mombasa","ward_code":"152"}},{"type":"Feature","geometry":{"type":"Polygon","coordinates":[[[39.22564,-6.18517],[39.22244,-6.19351],[39.21763,-6.19109],[39.22079,-6.18185],[39.22564,-6.18517]]]},"properties":{"region":"Mjini Magharibi","district":"Magharibi B","ward":"Kwamchina","ward_code":"282"}},{"type":"Feature","geometry":{"type":"Polygon","coordinates":[[[39.2224,-6.2068],[39.22121,-6.20951],[39.21295,-6.20284],[39.21019,-6.19661],[39.22617,-6.20203],[39.22589,-6.20483],[39.2224,-6.2068]]]},"properties":{"region":"Mjini Magharibi","district":"Magharibi B","ward":"Michungwani","ward_code":"302"}}]}